<?xml version="1.0" encoding="UTF-8"?>
<gpx version="1.1" creator="alexrunsfar simplify-gpx"><metadata><name>black-canyon-100k-2023</name><desc>simplified from Strava export; 61.42 mi; 4449 ft gain (computed at full resolution)</desc></metadata><trk><name>black-canyon-100k-2023</name><trkseg><trkpt lat="34.34752" lon="-112.15709"><ele>1213.0</ele></trkpt><trkpt lat="34.34767" lon="-112.15795"><ele>1213.0</ele></trkpt><trkpt lat="34.34798" lon="-112.15809"><ele>1214.0</ele></trkpt><trkpt lat="34.34828" lon="-112.15794"><ele>1213.0</ele></trkpt><trkpt lat="34.34843" lon="-112.15752"><ele>1213.0</ele></trkpt><trkpt lat="34.34840" lon="-112.15661"><ele>1213.0</ele></trkpt><trkpt lat="34.34828" lon="-112.15631"><ele>1213.0</ele></trkpt><trkpt lat="34.34787" lon="-112.15622"><ele>1213.0</ele></trkpt><trkpt lat="34.34753" lon="-112.15662"><ele>1214.0</ele></trkpt><trkpt lat="34.34712" lon="-112.15630"><ele>1212.0</ele></trkpt><trkpt lat="34.34677" lon="-112.15625"><ele>1211.0</ele></trkpt><trkpt lat="34.34667" lon="-112.15567"><ele>1208.0</ele></trkpt><trkpt lat="34.34622" lon="-112.15580"><ele>1207.0</ele></trkpt><trkpt lat="34.34604" lon="-112.15702"><ele>1208.0</ele></trkpt><trkpt lat="34.34588" lon="-112.15698"><ele>1208.0</ele></trkpt><trkpt lat="34.34580" lon="-112.15712"><ele>1208.0</ele></trkpt><trkpt lat="34.34580" lon="-112.15764"><ele>1207.0</ele></trkpt><trkpt lat="34.34491" lon="-112.15902"><ele>1197.0</ele></trkpt><trkpt lat="34.34502" lon="-112.16030"><ele>1193.0</ele></trkpt><trkpt lat="34.34550" lon="-112.16155"><ele>1196.0</ele></trkpt><trkpt lat="34.34550" lon="-112.16180"><ele>1196.0</ele></trkpt><trkpt lat="34.34479" lon="-112.16230"><ele>1190.0</ele></trkpt><trkpt lat="34.34353" lon="-112.16361"><ele>1188.0</ele></trkpt><trkpt lat="34.34309" lon="-112.16361"><ele>1189.0</ele></trkpt><trkpt lat="34.34224" lon="-112.16302"><ele>1190.0</ele></trkpt><trkpt lat="34.34176" lon="-112.16309"><ele>1191.0</ele></trkpt><trkpt lat="34.34159" lon="-112.16334"><ele>1193.0</ele></trkpt><trkpt lat="34.34159" lon="-112.16476"><ele>1197.0</ele></trkpt><trkpt lat="34.34238" lon="-112.16660"><ele>1202.0</ele></trkpt><trkpt lat="34.34245" lon="-112.16709"><ele>1202.0</ele></trkpt><trkpt lat="34.34181" lon="-112.16954"><ele>1211.0</ele></trkpt><trkpt lat="34.34158" lon="-112.17152"><ele>1221.0</ele></trkpt><trkpt lat="34.34115" lon="-112.17275"><ele>1221.0</ele></trkpt><trkpt lat="34.34112" lon="-112.17356"><ele>1221.0</ele></trkpt><trkpt lat="34.34134" lon="-112.17522"><ele>1221.0</ele></trkpt><trkpt lat="34.34189" lon="-112.17702"><ele>1224.0</ele></trkpt><trkpt lat="34.34153" lon="-112.17843"><ele>1229.0</ele></trkpt><trkpt lat="34.34079" lon="-112.17987"><ele>1234.0</ele></trkpt><trkpt lat="34.34062" lon="-112.18180"><ele>1238.0</ele></trkpt><trkpt lat="34.34067" lon="-112.18317"><ele>1238.0</ele></trkpt><trkpt lat="34.34049" lon="-112.18422"><ele>1236.0</ele></trkpt><trkpt lat="34.34192" lon="-112.18723"><ele>1236.0</ele></trkpt><trkpt lat="34.34204" lon="-112.18782"><ele>1236.0</ele></trkpt><trkpt lat="34.34177" lon="-112.18818"><ele>1235.0</ele></trkpt><trkpt lat="34.34177" lon="-112.18836"><ele>1235.0</ele></trkpt><trkpt lat="34.34245" lon="-112.18925"><ele>1238.0</ele></trkpt><trkpt lat="34.34245" lon="-112.18979"><ele>1239.0</ele></trkpt><trkpt lat="34.34228" lon="-112.19049"><ele>1241.0</ele></trkpt><trkpt lat="34.34127" lon="-112.19089"><ele>1246.0</ele></trkpt><trkpt lat="34.34079" lon="-112.19138"><ele>1249.0</ele></trkpt><trkpt lat="34.33996" lon="-112.19153"><ele>1252.0</ele></trkpt><trkpt lat="34.33914" lon="-112.19061"><ele>1246.0</ele></trkpt><trkpt lat="34.33754" lon="-112.18950"><ele>1242.0</ele></trkpt><trkpt lat="34.33736" lon="-112.18983"><ele>1243.0</ele></trkpt><trkpt lat="34.33735" lon="-112.19038"><ele>1244.0</ele></trkpt><trkpt lat="34.33723" lon="-112.19055"><ele>1244.0</ele></trkpt><trkpt lat="34.33674" lon="-112.19053"><ele>1246.0</ele></trkpt><trkpt lat="34.33626" lon="-112.19031"><ele>1247.0</ele></trkpt><trkpt lat="34.33557" lon="-112.19052"><ele>1247.0</ele></trkpt><trkpt lat="34.33371" lon="-112.19153"><ele>1239.0</ele></trkpt><trkpt lat="34.33323" lon="-112.19156"><ele>1235.0</ele></trkpt><trkpt lat="34.33270" lon="-112.19142"><ele>1229.0</ele></trkpt><trkpt lat="34.33227" lon="-112.19091"><ele>1224.0</ele></trkpt><trkpt lat="34.33155" lon="-112.18965"><ele>1217.0</ele></trkpt><trkpt lat="34.33069" lon="-112.18916"><ele>1213.0</ele></trkpt><trkpt lat="34.33059" lon="-112.18938"><ele>1213.0</ele></trkpt><trkpt lat="34.33070" lon="-112.18982"><ele>1213.0</ele></trkpt><trkpt lat="34.33062" lon="-112.19028"><ele>1214.0</ele></trkpt><trkpt lat="34.33022" lon="-112.19146"><ele>1220.0</ele></trkpt><trkpt lat="34.32996" lon="-112.19198"><ele>1222.0</ele></trkpt><trkpt lat="34.32891" lon="-112.19329"><ele>1231.0</ele></trkpt><trkpt lat="34.32864" lon="-112.19415"><ele>1236.0</ele></trkpt><trkpt lat="34.32785" lon="-112.19569"><ele>1244.0</ele></trkpt><trkpt lat="34.32643" lon="-112.19732"><ele>1251.0</ele></trkpt><trkpt lat="34.32562" lon="-112.19760"><ele>1253.0</ele></trkpt><trkpt lat="34.32545" lon="-112.19789"><ele>1255.0</ele></trkpt><trkpt lat="34.32520" lon="-112.19887"><ele>1259.0</ele></trkpt><trkpt lat="34.32475" lon="-112.19925"><ele>1263.0</ele></trkpt><trkpt lat="34.32473" lon="-112.19832"><ele>1270.0</ele></trkpt><trkpt lat="34.32395" lon="-112.19705"><ele>1272.0</ele></trkpt><trkpt lat="34.32349" lon="-112.19574"><ele>1269.0</ele></trkpt><trkpt lat="34.32336" lon="-112.19485"><ele>1267.0</ele></trkpt><trkpt lat="34.32250" lon="-112.19372"><ele>1260.0</ele></trkpt><trkpt lat="34.32126" lon="-112.19291"><ele>1256.0</ele></trkpt><trkpt lat="34.32062" lon="-112.19276"><ele>1252.0</ele></trkpt><trkpt lat="34.31896" lon="-112.19320"><ele>1242.0</ele></trkpt><trkpt lat="34.31855" lon="-112.19311"><ele>1241.0</ele></trkpt><trkpt lat="34.31806" lon="-112.19208"><ele>1232.0</ele></trkpt><trkpt lat="34.31761" lon="-112.19175"><ele>1229.0</ele></trkpt><trkpt lat="34.31686" lon="-112.19168"><ele>1225.0</ele></trkpt><trkpt lat="34.31609" lon="-112.19074"><ele>1219.0</ele></trkpt><trkpt lat="34.31578" lon="-112.19061"><ele>1217.0</ele></trkpt><trkpt lat="34.31569" lon="-112.19023"><ele>1214.0</ele></trkpt><trkpt lat="34.31486" lon="-112.18937"><ele>1211.0</ele></trkpt><trkpt lat="34.31429" lon="-112.18837"><ele>1204.0</ele></trkpt><trkpt lat="34.31376" lon="-112.18822"><ele>1202.0</ele></trkpt><trkpt lat="34.31280" lon="-112.18863"><ele>1204.0</ele></trkpt><trkpt lat="34.31122" lon="-112.18778"><ele>1203.0</ele></trkpt><trkpt lat="34.30987" lon="-112.18821"><ele>1201.0</ele></trkpt><trkpt lat="34.30857" lon="-112.18801"><ele>1204.0</ele></trkpt><trkpt lat="34.30777" lon="-112.18728"><ele>1205.0</ele></trkpt><trkpt lat="34.30699" lon="-112.18692"><ele>1208.0</ele></trkpt><trkpt lat="34.30614" lon="-112.18599"><ele>1213.0</ele></trkpt><trkpt lat="34.30477" lon="-112.18578"><ele>1214.0</ele></trkpt><trkpt lat="34.30400" lon="-112.18527"><ele>1214.0</ele></trkpt><trkpt lat="34.30339" lon="-112.18455"><ele>1215.0</ele></trkpt><trkpt lat="34.30230" lon="-112.18368"><ele>1212.0</ele></trkpt><trkpt lat="34.30156" lon="-112.18355"><ele>1208.0</ele></trkpt><trkpt lat="34.30055" lon="-112.18317"><ele>1204.0</ele></trkpt><trkpt lat="34.29904" lon="-112.18151"><ele>1203.0</ele></trkpt><trkpt lat="34.29850" lon="-112.18027"><ele>1205.0</ele></trkpt><trkpt lat="34.29755" lon="-112.17928"><ele>1211.0</ele></trkpt><trkpt lat="34.29703" lon="-112.17941"><ele>1214.0</ele></trkpt><trkpt lat="34.29648" lon="-112.18008"><ele>1208.0</ele></trkpt><trkpt lat="34.29613" lon="-112.18031"><ele>1204.0</ele></trkpt><trkpt lat="34.29506" lon="-112.18001"><ele>1196.0</ele></trkpt><trkpt lat="34.29418" lon="-112.17721"><ele>1189.0</ele></trkpt><trkpt lat="34.29390" lon="-112.17593"><ele>1189.0</ele></trkpt><trkpt lat="34.29393" lon="-112.17510"><ele>1190.0</ele></trkpt><trkpt lat="34.29376" lon="-112.17434"><ele>1191.0</ele></trkpt><trkpt lat="34.29346" lon="-112.17414"><ele>1191.0</ele></trkpt><trkpt lat="34.29301" lon="-112.17240"><ele>1183.0</ele></trkpt><trkpt lat="34.29275" lon="-112.17347"><ele>1175.0</ele></trkpt><trkpt lat="34.29265" lon="-112.17350"><ele>1175.0</ele></trkpt><trkpt lat="34.29178" lon="-112.17184"><ele>1175.0</ele></trkpt><trkpt lat="34.29120" lon="-112.17114"><ele>1175.0</ele></trkpt><trkpt lat="34.29094" lon="-112.17231"><ele>1171.0</ele></trkpt><trkpt lat="34.29060" lon="-112.17310"><ele>1168.0</ele></trkpt><trkpt lat="34.29006" lon="-112.17131"><ele>1164.0</ele></trkpt><trkpt lat="34.29010" lon="-112.17094"><ele>1164.0</ele></trkpt><trkpt lat="34.28984" lon="-112.17039"><ele>1163.0</ele></trkpt><trkpt lat="34.28920" lon="-112.16983"><ele>1162.0</ele></trkpt><trkpt lat="34.28778" lon="-112.16970"><ele>1152.0</ele></trkpt><trkpt lat="34.28654" lon="-112.16884"><ele>1145.0</ele></trkpt><trkpt lat="34.28618" lon="-112.16831"><ele>1145.0</ele></trkpt><trkpt lat="34.28631" lon="-112.16694"><ele>1147.0</ele></trkpt><trkpt lat="34.28587" lon="-112.16623"><ele>1148.0</ele></trkpt><trkpt lat="34.28553" lon="-112.16593"><ele>1147.0</ele></trkpt><trkpt lat="34.28440" lon="-112.16554"><ele>1146.0</ele></trkpt><trkpt lat="34.28410" lon="-112.16588"><ele>1145.0</ele></trkpt><trkpt lat="34.28419" lon="-112.16612"><ele>1143.0</ele></trkpt><trkpt lat="34.28394" lon="-112.16688"><ele>1140.0</ele></trkpt><trkpt lat="34.28370" lon="-112.16724"><ele>1138.0</ele></trkpt><trkpt lat="34.28335" lon="-112.16724"><ele>1135.0</ele></trkpt><trkpt lat="34.28313" lon="-112.16683"><ele>1132.0</ele></trkpt><trkpt lat="34.28297" lon="-112.16683"><ele>1130.0</ele></trkpt><trkpt lat="34.28307" lon="-112.16718"><ele>1127.0</ele></trkpt><trkpt lat="34.28278" lon="-112.16759"><ele>1124.0</ele></trkpt><trkpt lat="34.28290" lon="-112.16792"><ele>1122.0</ele></trkpt><trkpt lat="34.28254" lon="-112.16751"><ele>1120.0</ele></trkpt><trkpt lat="34.28238" lon="-112.16680"><ele>1117.0</ele></trkpt><trkpt lat="34.28213" lon="-112.16664"><ele>1114.0</ele></trkpt><trkpt lat="34.28211" lon="-112.16607"><ele>1110.0</ele></trkpt><trkpt lat="34.28139" lon="-112.16568"><ele>1104.0</ele></trkpt><trkpt lat="34.28116" lon="-112.16532"><ele>1102.0</ele></trkpt><trkpt lat="34.28066" lon="-112.16535"><ele>1098.0</ele></trkpt><trkpt lat="34.28030" lon="-112.16521"><ele>1093.0</ele></trkpt><trkpt lat="34.27951" lon="-112.16466"><ele>1088.0</ele></trkpt><trkpt lat="34.27930" lon="-112.16495"><ele>1087.0</ele></trkpt><trkpt lat="34.27914" lon="-112.16495"><ele>1087.0</ele></trkpt><trkpt lat="34.27835" lon="-112.16427"><ele>1084.0</ele></trkpt><trkpt lat="34.27796" lon="-112.16321"><ele>1078.0</ele></trkpt><trkpt lat="34.27766" lon="-112.16278"><ele>1078.0</ele></trkpt><trkpt lat="34.27690" lon="-112.16265"><ele>1072.0</ele></trkpt><trkpt lat="34.27686" lon="-112.16247"><ele>1071.0</ele></trkpt><trkpt lat="34.27570" lon="-112.16171"><ele>1065.0</ele></trkpt><trkpt lat="34.27533" lon="-112.16203"><ele>1062.0</ele></trkpt><trkpt lat="34.27520" lon="-112.16198"><ele>1061.0</ele></trkpt><trkpt lat="34.27512" lon="-112.16189"><ele>1060.0</ele></trkpt><trkpt lat="34.27532" lon="-112.16159"><ele>1056.0</ele></trkpt><trkpt lat="34.27539" lon="-112.16106"><ele>1053.0</ele></trkpt><trkpt lat="34.27623" lon="-112.16128"><ele>1046.0</ele></trkpt><trkpt lat="34.27609" lon="-112.16044"><ele>1043.0</ele></trkpt><trkpt lat="34.27698" lon="-112.15987"><ele>1037.0</ele></trkpt><trkpt lat="34.27692" lon="-112.15968"><ele>1035.0</ele></trkpt><trkpt lat="34.27663" lon="-112.15949"><ele>1033.0</ele></trkpt><trkpt lat="34.27651" lon="-112.15916"><ele>1032.0</ele></trkpt><trkpt lat="34.27593" lon="-112.15872"><ele>1027.0</ele></trkpt><trkpt lat="34.27560" lon="-112.15865"><ele>1025.0</ele></trkpt><trkpt lat="34.27559" lon="-112.15879"><ele>1024.0</ele></trkpt><trkpt lat="34.27570" lon="-112.15902"><ele>1022.0</ele></trkpt><trkpt lat="34.27594" lon="-112.15903"><ele>1020.0</ele></trkpt><trkpt lat="34.27605" lon="-112.15935"><ele>1019.0</ele></trkpt><trkpt lat="34.27511" lon="-112.15917"><ele>1014.0</ele></trkpt><trkpt lat="34.27502" lon="-112.15955"><ele>1011.0</ele></trkpt><trkpt lat="34.27469" lon="-112.15926"><ele>1009.0</ele></trkpt><trkpt lat="34.27440" lon="-112.15927"><ele>1007.0</ele></trkpt><trkpt lat="34.27424" lon="-112.15905"><ele>1004.0</ele></trkpt><trkpt lat="34.27399" lon="-112.15921"><ele>1001.0</ele></trkpt><trkpt lat="34.27345" lon="-112.15870"><ele>996.0</ele></trkpt><trkpt lat="34.27299" lon="-112.15901"><ele>992.0</ele></trkpt><trkpt lat="34.27241" lon="-112.15870"><ele>984.0</ele></trkpt><trkpt lat="34.27246" lon="-112.15894"><ele>982.0</ele></trkpt><trkpt lat="34.27224" lon="-112.15949"><ele>980.0</ele></trkpt><trkpt lat="34.27193" lon="-112.15975"><ele>977.0</ele></trkpt><trkpt lat="34.27150" lon="-112.15983"><ele>976.0</ele></trkpt><trkpt lat="34.27195" lon="-112.16036"><ele>977.0</ele></trkpt><trkpt lat="34.27136" lon="-112.16053"><ele>980.0</ele></trkpt><trkpt lat="34.27164" lon="-112.16092"><ele>983.0</ele></trkpt><trkpt lat="34.27126" lon="-112.16087"><ele>984.0</ele></trkpt><trkpt lat="34.27148" lon="-112.16115"><ele>984.0</ele></trkpt><trkpt lat="34.27098" lon="-112.16142"><ele>983.0</ele></trkpt><trkpt lat="34.27096" lon="-112.16172"><ele>982.0</ele></trkpt><trkpt lat="34.27052" lon="-112.16112"><ele>981.0</ele></trkpt><trkpt lat="34.27039" lon="-112.16134"><ele>981.0</ele></trkpt><trkpt lat="34.27058" lon="-112.16161"><ele>981.0</ele></trkpt><trkpt lat="34.27049" lon="-112.16166"><ele>981.0</ele></trkpt><trkpt lat="34.26978" lon="-112.16134"><ele>979.0</ele></trkpt><trkpt lat="34.26969" lon="-112.16104"><ele>978.0</ele></trkpt><trkpt lat="34.26937" lon="-112.16104"><ele>977.0</ele></trkpt><trkpt lat="34.26935" lon="-112.16118"><ele>977.0</ele></trkpt><trkpt lat="34.26898" lon="-112.16133"><ele>975.0</ele></trkpt><trkpt lat="34.26860" lon="-112.16192"><ele>972.0</ele></trkpt><trkpt lat="34.26803" lon="-112.16222"><ele>967.0</ele></trkpt><trkpt lat="34.26768" lon="-112.16284"><ele>964.0</ele></trkpt><trkpt lat="34.26650" lon="-112.16322"><ele>957.0</ele></trkpt><trkpt lat="34.26586" lon="-112.16390"><ele>953.0</ele></trkpt><trkpt lat="34.26544" lon="-112.16385"><ele>950.0</ele></trkpt><trkpt lat="34.26490" lon="-112.16436"><ele>947.0</ele></trkpt><trkpt lat="34.26452" lon="-112.16541"><ele>942.0</ele></trkpt><trkpt lat="34.26448" lon="-112.16605"><ele>941.0</ele></trkpt><trkpt lat="34.26408" lon="-112.16611"><ele>940.0</ele></trkpt><trkpt lat="34.26401" lon="-112.16631"><ele>939.0</ele></trkpt><trkpt lat="34.26353" lon="-112.16609"><ele>936.0</ele></trkpt><trkpt lat="34.26335" lon="-112.16632"><ele>934.0</ele></trkpt><trkpt lat="34.26227" lon="-112.16635"><ele>929.0</ele></trkpt><trkpt lat="34.26180" lon="-112.16663"><ele>927.0</ele></trkpt><trkpt lat="34.26125" lon="-112.16726"><ele>924.0</ele></trkpt><trkpt lat="34.26085" lon="-112.16731"><ele>922.0</ele></trkpt><trkpt lat="34.26049" lon="-112.16761"><ele>922.0</ele></trkpt><trkpt lat="34.25985" lon="-112.16765"><ele>918.0</ele></trkpt><trkpt lat="34.25958" lon="-112.16748"><ele>917.0</ele></trkpt><trkpt lat="34.25897" lon="-112.16756"><ele>913.0</ele></trkpt><trkpt lat="34.25880" lon="-112.16804"><ele>912.0</ele></trkpt><trkpt lat="34.25906" lon="-112.16838"><ele>910.0</ele></trkpt><trkpt lat="34.25894" lon="-112.16892"><ele>909.0</ele></trkpt><trkpt lat="34.25865" lon="-112.16943"><ele>909.0</ele></trkpt><trkpt lat="34.25800" lon="-112.16958"><ele>909.0</ele></trkpt><trkpt lat="34.25762" lon="-112.17006"><ele>910.0</ele></trkpt><trkpt lat="34.25759" lon="-112.17051"><ele>908.0</ele></trkpt><trkpt lat="34.25717" lon="-112.17049"><ele>906.0</ele></trkpt><trkpt lat="34.25675" lon="-112.17102"><ele>904.0</ele></trkpt><trkpt lat="34.25645" lon="-112.17107"><ele>902.0</ele></trkpt><trkpt lat="34.25594" lon="-112.17250"><ele>899.0</ele></trkpt><trkpt lat="34.25565" lon="-112.17379"><ele>899.0</ele></trkpt><trkpt lat="34.25547" lon="-112.17410"><ele>898.0</ele></trkpt><trkpt lat="34.25543" lon="-112.17482"><ele>897.0</ele></trkpt><trkpt lat="34.25498" lon="-112.17526"><ele>899.0</ele></trkpt><trkpt lat="34.25458" lon="-112.17616"><ele>901.0</ele></trkpt><trkpt lat="34.25408" lon="-112.17592"><ele>904.0</ele></trkpt><trkpt lat="34.25377" lon="-112.17609"><ele>905.0</ele></trkpt><trkpt lat="34.25361" lon="-112.17673"><ele>905.0</ele></trkpt><trkpt lat="34.25379" lon="-112.17704"><ele>905.0</ele></trkpt><trkpt lat="34.25355" lon="-112.17733"><ele>905.0</ele></trkpt><trkpt lat="34.25334" lon="-112.17730"><ele>905.0</ele></trkpt><trkpt lat="34.25293" lon="-112.17689"><ele>905.0</ele></trkpt><trkpt lat="34.25277" lon="-112.17651"><ele>904.0</ele></trkpt><trkpt lat="34.25236" lon="-112.17643"><ele>906.0</ele></trkpt><trkpt lat="34.25211" lon="-112.17648"><ele>906.0</ele></trkpt><trkpt lat="34.25210" lon="-112.17696"><ele>906.0</ele></trkpt><trkpt lat="34.25198" lon="-112.17711"><ele>906.0</ele></trkpt><trkpt lat="34.25152" lon="-112.17674"><ele>906.0</ele></trkpt><trkpt lat="34.25122" lon="-112.17683"><ele>906.0</ele></trkpt><trkpt lat="34.25105" lon="-112.17651"><ele>906.0</ele></trkpt><trkpt lat="34.25038" lon="-112.17684"><ele>906.0</ele></trkpt><trkpt lat="34.24990" lon="-112.17683"><ele>906.0</ele></trkpt><trkpt lat="34.24978" lon="-112.17620"><ele>907.0</ele></trkpt><trkpt lat="34.25000" lon="-112.17584"><ele>907.0</ele></trkpt><trkpt lat="34.24994" lon="-112.17569"><ele>908.0</ele></trkpt><trkpt lat="34.24934" lon="-112.17544"><ele>909.0</ele></trkpt><trkpt lat="34.24859" lon="-112.17556"><ele>910.0</ele></trkpt><trkpt lat="34.24839" lon="-112.17510"><ele>909.0</ele></trkpt><trkpt lat="34.24802" lon="-112.17510"><ele>909.0</ele></trkpt><trkpt lat="34.24782" lon="-112.17550"><ele>908.0</ele></trkpt><trkpt lat="34.24740" lon="-112.17492"><ele>907.0</ele></trkpt><trkpt lat="34.24737" lon="-112.17462"><ele>908.0</ele></trkpt><trkpt lat="34.24709" lon="-112.17419"><ele>908.0</ele></trkpt><trkpt lat="34.24672" lon="-112.17417"><ele>907.0</ele></trkpt><trkpt lat="34.24646" lon="-112.17447"><ele>906.0</ele></trkpt><trkpt lat="34.24595" lon="-112.17419"><ele>906.0</ele></trkpt><trkpt lat="34.24569" lon="-112.17374"><ele>906.0</ele></trkpt><trkpt lat="34.24539" lon="-112.17385"><ele>905.0</ele></trkpt><trkpt lat="34.24513" lon="-112.17358"><ele>904.0</ele></trkpt><trkpt lat="34.24379" lon="-112.17317"><ele>906.0</ele></trkpt><trkpt lat="34.24359" lon="-112.17300"><ele>906.0</ele></trkpt><trkpt lat="34.24286" lon="-112.17280"><ele>904.0</ele></trkpt><trkpt lat="34.24262" lon="-112.17313"><ele>903.0</ele></trkpt><trkpt lat="34.24212" lon="-112.17239"><ele>902.0</ele></trkpt><trkpt lat="34.24144" lon="-112.17247"><ele>902.0</ele></trkpt><trkpt lat="34.24116" lon="-112.17220"><ele>902.0</ele></trkpt><trkpt lat="34.24069" lon="-112.17211"><ele>903.0</ele></trkpt><trkpt lat="34.24039" lon="-112.17164"><ele>904.0</ele></trkpt><trkpt lat="34.23998" lon="-112.17130"><ele>904.0</ele></trkpt><trkpt lat="34.23976" lon="-112.17155"><ele>904.0</ele></trkpt><trkpt lat="34.23939" lon="-112.17109"><ele>903.0</ele></trkpt><trkpt lat="34.23934" lon="-112.17071"><ele>904.0</ele></trkpt><trkpt lat="34.23835" lon="-112.17009"><ele>906.0</ele></trkpt><trkpt lat="34.23720" lon="-112.17029"><ele>903.0</ele></trkpt><trkpt lat="34.23698" lon="-112.16998"><ele>901.0</ele></trkpt><trkpt lat="34.23731" lon="-112.16972"><ele>900.0</ele></trkpt><trkpt lat="34.23747" lon="-112.16861"><ele>905.0</ele></trkpt><trkpt lat="34.23711" lon="-112.16789"><ele>906.0</ele></trkpt><trkpt lat="34.23643" lon="-112.16791"><ele>904.0</ele></trkpt><trkpt lat="34.23683" lon="-112.16730"><ele>903.0</ele></trkpt><trkpt lat="34.23678" lon="-112.16688"><ele>904.0</ele></trkpt><trkpt lat="34.23626" lon="-112.16583"><ele>910.0</ele></trkpt><trkpt lat="34.23599" lon="-112.16572"><ele>912.0</ele></trkpt><trkpt lat="34.23554" lon="-112.16490"><ele>912.0</ele></trkpt><trkpt lat="34.23517" lon="-112.16512"><ele>910.0</ele></trkpt><trkpt lat="34.23513" lon="-112.16542"><ele>909.0</ele></trkpt><trkpt lat="34.23475" lon="-112.16546"><ele>907.0</ele></trkpt><trkpt lat="34.23456" lon="-112.16529"><ele>906.0</ele></trkpt><trkpt lat="34.23457" lon="-112.16481"><ele>906.0</ele></trkpt><trkpt lat="34.23396" lon="-112.16429"><ele>908.0</ele></trkpt><trkpt lat="34.23351" lon="-112.16428"><ele>909.0</ele></trkpt><trkpt lat="34.23323" lon="-112.16435"><ele>909.0</ele></trkpt><trkpt lat="34.23313" lon="-112.16472"><ele>911.0</ele></trkpt><trkpt lat="34.23246" lon="-112.16505"><ele>914.0</ele></trkpt><trkpt lat="34.23230" lon="-112.16501"><ele>916.0</ele></trkpt><trkpt lat="34.23226" lon="-112.16528"><ele>919.0</ele></trkpt><trkpt lat="34.23191" lon="-112.16546"><ele>923.0</ele></trkpt><trkpt lat="34.23132" lon="-112.16465"><ele>924.0</ele></trkpt><trkpt lat="34.23171" lon="-112.16444"><ele>925.0</ele></trkpt><trkpt lat="34.23175" lon="-112.16426"><ele>926.0</ele></trkpt><trkpt lat="34.23140" lon="-112.16404"><ele>927.0</ele></trkpt><trkpt lat="34.23107" lon="-112.16340"><ele>930.0</ele></trkpt><trkpt lat="34.23005" lon="-112.16336"><ele>926.0</ele></trkpt><trkpt lat="34.22874" lon="-112.16269"><ele>923.0</ele></trkpt><trkpt lat="34.22826" lon="-112.16261"><ele>922.0</ele></trkpt><trkpt lat="34.22738" lon="-112.16210"><ele>921.0</ele></trkpt><trkpt lat="34.22700" lon="-112.16223"><ele>921.0</ele></trkpt><trkpt lat="34.22668" lon="-112.16207"><ele>920.0</ele></trkpt><trkpt lat="34.22623" lon="-112.16218"><ele>918.0</ele></trkpt><trkpt lat="34.22584" lon="-112.16192"><ele>916.0</ele></trkpt><trkpt lat="34.22567" lon="-112.16152"><ele>915.0</ele></trkpt><trkpt lat="34.22592" lon="-112.16126"><ele>913.0</ele></trkpt><trkpt lat="34.22606" lon="-112.16030"><ele>909.0</ele></trkpt><trkpt lat="34.22596" lon="-112.16018"><ele>907.0</ele></trkpt><trkpt lat="34.22536" lon="-112.16009"><ele>905.0</ele></trkpt><trkpt lat="34.22503" lon="-112.15983"><ele>903.0</ele></trkpt><trkpt lat="34.22482" lon="-112.15987"><ele>901.0</ele></trkpt><trkpt lat="34.22451" lon="-112.15957"><ele>900.0</ele></trkpt><trkpt lat="34.22186" lon="-112.15955"><ele>887.0</ele></trkpt><trkpt lat="34.22102" lon="-112.15924"><ele>889.0</ele></trkpt><trkpt lat="34.22037" lon="-112.15928"><ele>889.0</ele></trkpt><trkpt lat="34.22003" lon="-112.15908"><ele>888.0</ele></trkpt><trkpt lat="34.21972" lon="-112.15929"><ele>887.0</ele></trkpt><trkpt lat="34.21897" lon="-112.15942"><ele>881.0</ele></trkpt><trkpt lat="34.21839" lon="-112.15931"><ele>877.0</ele></trkpt><trkpt lat="34.21818" lon="-112.15978"><ele>876.0</ele></trkpt><trkpt lat="34.21794" lon="-112.15990"><ele>874.0</ele></trkpt><trkpt lat="34.21737" lon="-112.15948"><ele>870.0</ele></trkpt><trkpt lat="34.21702" lon="-112.15961"><ele>866.0</ele></trkpt><trkpt lat="34.21631" lon="-112.15947"><ele>861.0</ele></trkpt><trkpt lat="34.21596" lon="-112.15921"><ele>857.0</ele></trkpt><trkpt lat="34.21564" lon="-112.15848"><ele>851.0</ele></trkpt><trkpt lat="34.21534" lon="-112.15860"><ele>848.0</ele></trkpt><trkpt lat="34.21456" lon="-112.15819"><ele>842.0</ele></trkpt><trkpt lat="34.21424" lon="-112.15826"><ele>839.0</ele></trkpt><trkpt lat="34.21442" lon="-112.15866"><ele>836.0</ele></trkpt><trkpt lat="34.21435" lon="-112.15882"><ele>835.0</ele></trkpt><trkpt lat="34.21381" lon="-112.15871"><ele>833.0</ele></trkpt><trkpt lat="34.21360" lon="-112.15848"><ele>833.0</ele></trkpt><trkpt lat="34.21317" lon="-112.15832"><ele>832.0</ele></trkpt><trkpt lat="34.21284" lon="-112.15846"><ele>832.0</ele></trkpt><trkpt lat="34.21273" lon="-112.15921"><ele>832.0</ele></trkpt><trkpt lat="34.21227" lon="-112.15872"><ele>832.0</ele></trkpt><trkpt lat="34.21202" lon="-112.15885"><ele>832.0</ele></trkpt><trkpt lat="34.21177" lon="-112.15871"><ele>832.0</ele></trkpt><trkpt lat="34.21148" lon="-112.15881"><ele>832.0</ele></trkpt><trkpt lat="34.21082" lon="-112.15829"><ele>830.0</ele></trkpt><trkpt lat="34.20967" lon="-112.15889"><ele>832.0</ele></trkpt><trkpt lat="34.20933" lon="-112.15862"><ele>830.0</ele></trkpt><trkpt lat="34.20862" lon="-112.15847"><ele>825.0</ele></trkpt><trkpt lat="34.20853" lon="-112.15824"><ele>823.0</ele></trkpt><trkpt lat="34.20804" lon="-112.15820"><ele>821.0</ele></trkpt><trkpt lat="34.20780" lon="-112.15847"><ele>820.0</ele></trkpt><trkpt lat="34.20720" lon="-112.15841"><ele>817.0</ele></trkpt><trkpt lat="34.20668" lon="-112.15816"><ele>813.0</ele></trkpt><trkpt lat="34.20663" lon="-112.15825"><ele>812.0</ele></trkpt><trkpt lat="34.20685" lon="-112.15835"><ele>811.0</ele></trkpt><trkpt lat="34.20698" lon="-112.15867"><ele>810.0</ele></trkpt><trkpt lat="34.20694" lon="-112.15887"><ele>809.0</ele></trkpt><trkpt lat="34.20631" lon="-112.15858"><ele>810.0</ele></trkpt><trkpt lat="34.20591" lon="-112.15879"><ele>811.0</ele></trkpt><trkpt lat="34.20462" lon="-112.15872"><ele>807.0</ele></trkpt><trkpt lat="34.20400" lon="-112.15861"><ele>803.0</ele></trkpt><trkpt lat="34.20371" lon="-112.15837"><ele>799.0</ele></trkpt><trkpt lat="34.20365" lon="-112.15851"><ele>798.0</ele></trkpt><trkpt lat="34.20400" lon="-112.15878"><ele>795.0</ele></trkpt><trkpt lat="34.20358" lon="-112.15877"><ele>793.0</ele></trkpt><trkpt lat="34.20335" lon="-112.15906"><ele>793.0</ele></trkpt><trkpt lat="34.20333" lon="-112.15927"><ele>794.0</ele></trkpt><trkpt lat="34.20349" lon="-112.15955"><ele>794.0</ele></trkpt><trkpt lat="34.20343" lon="-112.15981"><ele>795.0</ele></trkpt><trkpt lat="34.20360" lon="-112.16006"><ele>795.0</ele></trkpt><trkpt lat="34.20353" lon="-112.16014"><ele>794.0</ele></trkpt><trkpt lat="34.20300" lon="-112.16006"><ele>792.0</ele></trkpt><trkpt lat="34.20258" lon="-112.16021"><ele>790.0</ele></trkpt><trkpt lat="34.20213" lon="-112.15987"><ele>788.0</ele></trkpt><trkpt lat="34.20139" lon="-112.16013"><ele>784.0</ele></trkpt><trkpt lat="34.20121" lon="-112.15996"><ele>782.0</ele></trkpt><trkpt lat="34.20096" lon="-112.16001"><ele>781.0</ele></trkpt><trkpt lat="34.20075" lon="-112.15976"><ele>780.0</ele></trkpt><trkpt lat="34.20034" lon="-112.15996"><ele>777.0</ele></trkpt><trkpt lat="34.19984" lon="-112.15986"><ele>772.0</ele></trkpt><trkpt lat="34.19954" lon="-112.16001"><ele>769.0</ele></trkpt><trkpt lat="34.19853" lon="-112.15926"><ele>767.0</ele></trkpt><trkpt lat="34.19842" lon="-112.15880"><ele>767.0</ele></trkpt><trkpt lat="34.19774" lon="-112.15826"><ele>765.0</ele></trkpt><trkpt lat="34.19727" lon="-112.15759"><ele>762.0</ele></trkpt><trkpt lat="34.19626" lon="-112.15666"><ele>750.0</ele></trkpt><trkpt lat="34.19622" lon="-112.15627"><ele>749.0</ele></trkpt><trkpt lat="34.19656" lon="-112.15510"><ele>745.0</ele></trkpt><trkpt lat="34.19643" lon="-112.15482"><ele>745.0</ele></trkpt><trkpt lat="34.19538" lon="-112.15530"><ele>746.0</ele></trkpt><trkpt lat="34.19496" lon="-112.15600"><ele>745.0</ele></trkpt><trkpt lat="34.19454" lon="-112.15635"><ele>745.0</ele></trkpt><trkpt lat="34.19409" lon="-112.15714"><ele>744.0</ele></trkpt><trkpt lat="34.19358" lon="-112.15723"><ele>743.0</ele></trkpt><trkpt lat="34.19325" lon="-112.15713"><ele>742.0</ele></trkpt><trkpt lat="34.19276" lon="-112.15666"><ele>743.0</ele></trkpt><trkpt lat="34.19249" lon="-112.15681"><ele>743.0</ele></trkpt><trkpt lat="34.19193" lon="-112.15810"><ele>745.0</ele></trkpt><trkpt lat="34.19104" lon="-112.15878"><ele>745.0</ele></trkpt><trkpt lat="34.19121" lon="-112.15957"><ele>748.0</ele></trkpt><trkpt lat="34.19110" lon="-112.15991"><ele>747.0</ele></trkpt><trkpt lat="34.19057" lon="-112.16043"><ele>743.0</ele></trkpt><trkpt lat="34.19073" lon="-112.16193"><ele>746.0</ele></trkpt><trkpt lat="34.19062" lon="-112.16214"><ele>749.0</ele></trkpt><trkpt lat="34.18995" lon="-112.16202"><ele>755.0</ele></trkpt><trkpt lat="34.18956" lon="-112.16149"><ele>762.0</ele></trkpt><trkpt lat="34.18891" lon="-112.16103"><ele>768.0</ele></trkpt><trkpt lat="34.18808" lon="-112.16098"><ele>776.0</ele></trkpt><trkpt lat="34.18698" lon="-112.16064"><ele>785.0</ele></trkpt><trkpt lat="34.18424" lon="-112.16098"><ele>807.0</ele></trkpt><trkpt lat="34.18248" lon="-112.16204"><ele>820.0</ele></trkpt><trkpt lat="34.18220" lon="-112.16197"><ele>823.0</ele></trkpt><trkpt lat="34.18156" lon="-112.16211"><ele>827.0</ele></trkpt><trkpt lat="34.18128" lon="-112.16240"><ele>830.0</ele></trkpt><trkpt lat="34.18060" lon="-112.16273"><ele>833.0</ele></trkpt><trkpt lat="34.17987" lon="-112.16269"><ele>836.0</ele></trkpt><trkpt lat="34.17920" lon="-112.16231"><ele>837.0</ele></trkpt><trkpt lat="34.17877" lon="-112.16222"><ele>839.0</ele></trkpt><trkpt lat="34.17864" lon="-112.16228"><ele>840.0</ele></trkpt><trkpt lat="34.17878" lon="-112.16288"><ele>841.0</ele></trkpt><trkpt lat="34.17867" lon="-112.16307"><ele>841.0</ele></trkpt><trkpt lat="34.17757" lon="-112.16267"><ele>841.0</ele></trkpt><trkpt lat="34.17721" lon="-112.16276"><ele>838.0</ele></trkpt><trkpt lat="34.17694" lon="-112.16258"><ele>836.0</ele></trkpt><trkpt lat="34.17683" lon="-112.16291"><ele>836.0</ele></trkpt><trkpt lat="34.17695" lon="-112.16318"><ele>836.0</ele></trkpt><trkpt lat="34.17697" lon="-112.16391"><ele>837.0</ele></trkpt><trkpt lat="34.17665" lon="-112.16456"><ele>835.0</ele></trkpt><trkpt lat="34.17600" lon="-112.16475"><ele>830.0</ele></trkpt><trkpt lat="34.17549" lon="-112.16449"><ele>827.0</ele></trkpt><trkpt lat="34.17532" lon="-112.16484"><ele>828.0</ele></trkpt><trkpt lat="34.17497" lon="-112.16499"><ele>827.0</ele></trkpt><trkpt lat="34.17404" lon="-112.16416"><ele>824.0</ele></trkpt><trkpt lat="34.17373" lon="-112.16532"><ele>822.0</ele></trkpt><trkpt lat="34.17348" lon="-112.16535"><ele>822.0</ele></trkpt><trkpt lat="34.17302" lon="-112.16579"><ele>822.0</ele></trkpt><trkpt lat="34.17262" lon="-112.16598"><ele>819.0</ele></trkpt><trkpt lat="34.17115" lon="-112.16530"><ele>814.0</ele></trkpt><trkpt lat="34.17081" lon="-112.16441"><ele>811.0</ele></trkpt><trkpt lat="34.17054" lon="-112.16491"><ele>811.0</ele></trkpt><trkpt lat="34.17030" lon="-112.16494"><ele>813.0</ele></trkpt><trkpt lat="34.16990" lon="-112.16425"><ele>816.0</ele></trkpt><trkpt lat="34.16880" lon="-112.16498"><ele>821.0</ele></trkpt><trkpt lat="34.16772" lon="-112.16528"><ele>823.0</ele></trkpt><trkpt lat="34.16729" lon="-112.16524"><ele>822.0</ele></trkpt><trkpt lat="34.16665" lon="-112.16471"><ele>818.0</ele></trkpt><trkpt lat="34.16640" lon="-112.16360"><ele>817.0</ele></trkpt><trkpt lat="34.16583" lon="-112.16396"><ele>819.0</ele></trkpt><trkpt lat="34.16478" lon="-112.16409"><ele>822.0</ele></trkpt><trkpt lat="34.16401" lon="-112.16367"><ele>820.0</ele></trkpt><trkpt lat="34.16412" lon="-112.16294"><ele>816.0</ele></trkpt><trkpt lat="34.16336" lon="-112.16341"><ele>817.0</ele></trkpt><trkpt lat="34.16274" lon="-112.16337"><ele>818.0</ele></trkpt><trkpt lat="34.16202" lon="-112.16307"><ele>818.0</ele></trkpt><trkpt lat="34.16183" lon="-112.16246"><ele>817.0</ele></trkpt><trkpt lat="34.16182" lon="-112.16196"><ele>817.0</ele></trkpt><trkpt lat="34.16076" lon="-112.16231"><ele>816.0</ele></trkpt><trkpt lat="34.16032" lon="-112.16214"><ele>814.0</ele></trkpt><trkpt lat="34.15980" lon="-112.16137"><ele>815.0</ele></trkpt><trkpt lat="34.15878" lon="-112.16142"><ele>813.0</ele></trkpt><trkpt lat="34.15868" lon="-112.16072"><ele>813.0</ele></trkpt><trkpt lat="34.15909" lon="-112.16028"><ele>814.0</ele></trkpt><trkpt lat="34.15875" lon="-112.15986"><ele>813.0</ele></trkpt><trkpt lat="34.15867" lon="-112.15947"><ele>811.0</ele></trkpt><trkpt lat="34.15876" lon="-112.15928"><ele>810.0</ele></trkpt><trkpt lat="34.15906" lon="-112.15913"><ele>809.0</ele></trkpt><trkpt lat="34.15891" lon="-112.15870"><ele>808.0</ele></trkpt><trkpt lat="34.15904" lon="-112.15854"><ele>808.0</ele></trkpt><trkpt lat="34.15871" lon="-112.15838"><ele>806.0</ele></trkpt><trkpt lat="34.15845" lon="-112.15856"><ele>806.0</ele></trkpt><trkpt lat="34.15795" lon="-112.15855"><ele>806.0</ele></trkpt><trkpt lat="34.15781" lon="-112.15845"><ele>805.0</ele></trkpt><trkpt lat="34.15772" lon="-112.15786"><ele>800.0</ele></trkpt><trkpt lat="34.15705" lon="-112.15818"><ele>800.0</ele></trkpt><trkpt lat="34.15683" lon="-112.15808"><ele>802.0</ele></trkpt><trkpt lat="34.15661" lon="-112.15751"><ele>803.0</ele></trkpt><trkpt lat="34.15658" lon="-112.15709"><ele>806.0</ele></trkpt><trkpt lat="34.15623" lon="-112.15686"><ele>809.0</ele></trkpt><trkpt lat="34.15630" lon="-112.15614"><ele>811.0</ele></trkpt><trkpt lat="34.15561" lon="-112.15594"><ele>809.0</ele></trkpt><trkpt lat="34.15518" lon="-112.15544"><ele>809.0</ele></trkpt><trkpt lat="34.15523" lon="-112.15522"><ele>809.0</ele></trkpt><trkpt lat="34.15567" lon="-112.15518"><ele>807.0</ele></trkpt><trkpt lat="34.15503" lon="-112.15471"><ele>804.0</ele></trkpt><trkpt lat="34.15530" lon="-112.15418"><ele>804.0</ele></trkpt><trkpt lat="34.15504" lon="-112.15412"><ele>805.0</ele></trkpt><trkpt lat="34.15483" lon="-112.15375"><ele>805.0</ele></trkpt><trkpt lat="34.15427" lon="-112.15376"><ele>806.0</ele></trkpt><trkpt lat="34.15358" lon="-112.15329"><ele>804.0</ele></trkpt><trkpt lat="34.15344" lon="-112.15314"><ele>804.0</ele></trkpt><trkpt lat="34.15332" lon="-112.15254"><ele>799.0</ele></trkpt><trkpt lat="34.15305" lon="-112.15262"><ele>799.0</ele></trkpt><trkpt lat="34.15289" lon="-112.15232"><ele>797.0</ele></trkpt><trkpt lat="34.15269" lon="-112.15263"><ele>796.0</ele></trkpt><trkpt lat="34.15232" lon="-112.15255"><ele>798.0</ele></trkpt><trkpt lat="34.15218" lon="-112.15278"><ele>799.0</ele></trkpt><trkpt lat="34.15148" lon="-112.15298"><ele>802.0</ele></trkpt><trkpt lat="34.15106" lon="-112.15328"><ele>804.0</ele></trkpt><trkpt lat="34.15062" lon="-112.15318"><ele>804.0</ele></trkpt><trkpt lat="34.15041" lon="-112.15329"><ele>804.0</ele></trkpt><trkpt lat="34.15033" lon="-112.15356"><ele>805.0</ele></trkpt><trkpt lat="34.14973" lon="-112.15357"><ele>807.0</ele></trkpt><trkpt lat="34.14962" lon="-112.15394"><ele>806.0</ele></trkpt><trkpt lat="34.14979" lon="-112.15431"><ele>806.0</ele></trkpt><trkpt lat="34.14936" lon="-112.15450"><ele>803.0</ele></trkpt><trkpt lat="34.14889" lon="-112.15438"><ele>797.0</ele></trkpt><trkpt lat="34.14852" lon="-112.15387"><ele>793.0</ele></trkpt><trkpt lat="34.14838" lon="-112.15396"><ele>793.0</ele></trkpt><trkpt lat="34.14873" lon="-112.15487"><ele>797.0</ele></trkpt><trkpt lat="34.14848" lon="-112.15520"><ele>799.0</ele></trkpt><trkpt lat="34.14919" lon="-112.15563"><ele>799.0</ele></trkpt><trkpt lat="34.14975" lon="-112.15619"><ele>798.0</ele></trkpt><trkpt lat="34.15048" lon="-112.15785"><ele>797.0</ele></trkpt><trkpt lat="34.15025" lon="-112.15814"><ele>796.0</ele></trkpt><trkpt lat="34.14963" lon="-112.15807"><ele>793.0</ele></trkpt><trkpt lat="34.14941" lon="-112.15857"><ele>792.0</ele></trkpt><trkpt lat="34.14934" lon="-112.15913"><ele>792.0</ele></trkpt><trkpt lat="34.14882" lon="-112.15945"><ele>791.0</ele></trkpt><trkpt lat="34.14890" lon="-112.15980"><ele>791.0</ele></trkpt><trkpt lat="34.14861" lon="-112.16022"><ele>791.0</ele></trkpt><trkpt lat="34.14829" lon="-112.16038"><ele>790.0</ele></trkpt><trkpt lat="34.14735" lon="-112.16042"><ele>789.0</ele></trkpt><trkpt lat="34.14697" lon="-112.16011"><ele>786.0</ele></trkpt><trkpt lat="34.14704" lon="-112.15958"><ele>784.0</ele></trkpt><trkpt lat="34.14668" lon="-112.15974"><ele>784.0</ele></trkpt><trkpt lat="34.14616" lon="-112.15961"><ele>782.0</ele></trkpt><trkpt lat="34.14574" lon="-112.15920"><ele>779.0</ele></trkpt><trkpt lat="34.14560" lon="-112.15981"><ele>780.0</ele></trkpt><trkpt lat="34.14417" lon="-112.16003"><ele>780.0</ele></trkpt><trkpt lat="34.14365" lon="-112.15999"><ele>780.0</ele></trkpt><trkpt lat="34.14357" lon="-112.16027"><ele>780.0</ele></trkpt><trkpt lat="34.14325" lon="-112.16046"><ele>782.0</ele></trkpt><trkpt lat="34.14238" lon="-112.16030"><ele>788.0</ele></trkpt><trkpt lat="34.14216" lon="-112.16038"><ele>787.0</ele></trkpt><trkpt lat="34.14192" lon="-112.15971"><ele>785.0</ele></trkpt><trkpt lat="34.14134" lon="-112.16022"><ele>784.0</ele></trkpt><trkpt lat="34.14121" lon="-112.16052"><ele>784.0</ele></trkpt><trkpt lat="34.14083" lon="-112.16079"><ele>783.0</ele></trkpt><trkpt lat="34.14040" lon="-112.16086"><ele>782.0</ele></trkpt><trkpt lat="34.14063" lon="-112.16223"><ele>781.0</ele></trkpt><trkpt lat="34.14042" lon="-112.16255"><ele>781.0</ele></trkpt><trkpt lat="34.14037" lon="-112.16314"><ele>783.0</ele></trkpt><trkpt lat="34.13986" lon="-112.16317"><ele>786.0</ele></trkpt><trkpt lat="34.13920" lon="-112.16354"><ele>787.0</ele></trkpt><trkpt lat="34.13810" lon="-112.16359"><ele>789.0</ele></trkpt><trkpt lat="34.13761" lon="-112.16316"><ele>790.0</ele></trkpt><trkpt lat="34.13723" lon="-112.16314"><ele>790.0</ele></trkpt><trkpt lat="34.13694" lon="-112.16291"><ele>790.0</ele></trkpt><trkpt lat="34.13705" lon="-112.16210"><ele>789.0</ele></trkpt><trkpt lat="34.13653" lon="-112.16164"><ele>789.0</ele></trkpt><trkpt lat="34.13543" lon="-112.16201"><ele>788.0</ele></trkpt><trkpt lat="34.13507" lon="-112.16169"><ele>787.0</ele></trkpt><trkpt lat="34.13501" lon="-112.16117"><ele>787.0</ele></trkpt><trkpt lat="34.13467" lon="-112.16173"><ele>787.0</ele></trkpt><trkpt lat="34.13440" lon="-112.16176"><ele>787.0</ele></trkpt><trkpt lat="34.13355" lon="-112.16014"><ele>789.0</ele></trkpt><trkpt lat="34.13187" lon="-112.15925"><ele>789.0</ele></trkpt><trkpt lat="34.12973" lon="-112.15943"><ele>797.0</ele></trkpt><trkpt lat="34.12903" lon="-112.15895"><ele>802.0</ele></trkpt><trkpt lat="34.12901" lon="-112.15910"><ele>798.0</ele></trkpt><trkpt lat="34.12828" lon="-112.15828"><ele>788.0</ele></trkpt><trkpt lat="34.12803" lon="-112.15755"><ele>782.0</ele></trkpt><trkpt lat="34.12780" lon="-112.15745"><ele>779.0</ele></trkpt><trkpt lat="34.12808" lon="-112.15655"><ele>774.0</ele></trkpt><trkpt lat="34.12781" lon="-112.15631"><ele>773.0</ele></trkpt><trkpt lat="34.12742" lon="-112.15630"><ele>772.0</ele></trkpt><trkpt lat="34.12740" lon="-112.15614"><ele>771.0</ele></trkpt><trkpt lat="34.12727" lon="-112.15620"><ele>769.0</ele></trkpt><trkpt lat="34.12714" lon="-112.15604"><ele>767.0</ele></trkpt><trkpt lat="34.12686" lon="-112.15609"><ele>764.0</ele></trkpt><trkpt lat="34.12686" lon="-112.15590"><ele>763.0</ele></trkpt><trkpt lat="34.12722" lon="-112.15577"><ele>759.0</ele></trkpt><trkpt lat="34.12722" lon="-112.15543"><ele>757.0</ele></trkpt><trkpt lat="34.12705" lon="-112.15561"><ele>755.0</ele></trkpt><trkpt lat="34.12645" lon="-112.15540"><ele>751.0</ele></trkpt><trkpt lat="34.12633" lon="-112.15558"><ele>750.0</ele></trkpt><trkpt lat="34.12633" lon="-112.15542"><ele>748.0</ele></trkpt><trkpt lat="34.12623" lon="-112.15548"><ele>747.0</ele></trkpt><trkpt lat="34.12611" lon="-112.15597"><ele>743.0</ele></trkpt><trkpt lat="34.12624" lon="-112.15631"><ele>742.0</ele></trkpt><trkpt lat="34.12621" lon="-112.15691"><ele>744.0</ele></trkpt><trkpt lat="34.12587" lon="-112.15742"><ele>748.0</ele></trkpt><trkpt lat="34.12550" lon="-112.15752"><ele>750.0</ele></trkpt><trkpt lat="34.12478" lon="-112.15731"><ele>753.0</ele></trkpt><trkpt lat="34.12363" lon="-112.15798"><ele>754.0</ele></trkpt><trkpt lat="34.12318" lon="-112.15807"><ele>754.0</ele></trkpt><trkpt lat="34.12302" lon="-112.15797"><ele>755.0</ele></trkpt><trkpt lat="34.12257" lon="-112.15823"><ele>755.0</ele></trkpt><trkpt lat="34.12090" lon="-112.15838"><ele>759.0</ele></trkpt><trkpt lat="34.11977" lon="-112.15821"><ele>749.0</ele></trkpt><trkpt lat="34.11908" lon="-112.15796"><ele>735.0</ele></trkpt><trkpt lat="34.11695" lon="-112.15798"><ele>705.0</ele></trkpt><trkpt lat="34.11420" lon="-112.15738"><ele>674.0</ele></trkpt><trkpt lat="34.11383" lon="-112.15762"><ele>670.0</ele></trkpt><trkpt lat="34.11369" lon="-112.15743"><ele>669.0</ele></trkpt><trkpt lat="34.11299" lon="-112.15723"><ele>668.0</ele></trkpt><trkpt lat="34.11281" lon="-112.15730"><ele>666.0</ele></trkpt><trkpt lat="34.11223" lon="-112.15690"><ele>663.0</ele></trkpt><trkpt lat="34.11073" lon="-112.15714"><ele>660.0</ele></trkpt><trkpt lat="34.11079" lon="-112.15675"><ele>659.0</ele></trkpt><trkpt lat="34.11059" lon="-112.15652"><ele>658.0</ele></trkpt><trkpt lat="34.11061" lon="-112.15628"><ele>656.0</ele></trkpt><trkpt lat="34.10972" lon="-112.15604"><ele>649.0</ele></trkpt><trkpt lat="34.10910" lon="-112.15598"><ele>642.0</ele></trkpt><trkpt lat="34.10830" lon="-112.15632"><ele>636.0</ele></trkpt><trkpt lat="34.10724" lon="-112.15635"><ele>631.0</ele></trkpt><trkpt lat="34.10596" lon="-112.15595"><ele>625.0</ele></trkpt><trkpt lat="34.10565" lon="-112.15593"><ele>621.0</ele></trkpt><trkpt lat="34.10541" lon="-112.15617"><ele>616.0</ele></trkpt><trkpt lat="34.10501" lon="-112.15592"><ele>617.0</ele></trkpt><trkpt lat="34.10465" lon="-112.15602"><ele>618.0</ele></trkpt><trkpt lat="34.10445" lon="-112.15584"><ele>619.0</ele></trkpt><trkpt lat="34.10386" lon="-112.15574"><ele>618.0</ele></trkpt><trkpt lat="34.10377" lon="-112.15584"><ele>617.0</ele></trkpt><trkpt lat="34.10389" lon="-112.15601"><ele>615.0</ele></trkpt><trkpt lat="34.10366" lon="-112.15601"><ele>613.0</ele></trkpt><trkpt lat="34.10357" lon="-112.15628"><ele>611.0</ele></trkpt><trkpt lat="34.10345" lon="-112.15579"><ele>606.0</ele></trkpt><trkpt lat="34.10305" lon="-112.15582"><ele>597.0</ele></trkpt><trkpt lat="34.10291" lon="-112.15515"><ele>603.0</ele></trkpt><trkpt lat="34.10256" lon="-112.15573"><ele>612.0</ele></trkpt><trkpt lat="34.10287" lon="-112.15595"><ele>615.0</ele></trkpt><trkpt lat="34.10276" lon="-112.15632"><ele>616.0</ele></trkpt><trkpt lat="34.10295" lon="-112.15716"><ele>617.0</ele></trkpt><trkpt lat="34.10278" lon="-112.15658"><ele>619.0</ele></trkpt><trkpt lat="34.10249" lon="-112.15627"><ele>620.0</ele></trkpt><trkpt lat="34.10259" lon="-112.15599"><ele>622.0</ele></trkpt><trkpt lat="34.10223" lon="-112.15587"><ele>625.0</ele></trkpt><trkpt lat="34.10239" lon="-112.15608"><ele>628.0</ele></trkpt><trkpt lat="34.10193" lon="-112.15657"><ele>633.0</ele></trkpt><trkpt lat="34.10179" lon="-112.15738"><ele>639.0</ele></trkpt><trkpt lat="34.10121" lon="-112.15731"><ele>645.0</ele></trkpt><trkpt lat="34.10099" lon="-112.15749"><ele>647.0</ele></trkpt><trkpt lat="34.10011" lon="-112.15734"><ele>646.0</ele></trkpt><trkpt lat="34.09980" lon="-112.15755"><ele>645.0</ele></trkpt><trkpt lat="34.09968" lon="-112.15833"><ele>644.0</ele></trkpt><trkpt lat="34.10010" lon="-112.15860"><ele>644.0</ele></trkpt><trkpt lat="34.09981" lon="-112.15891"><ele>645.0</ele></trkpt><trkpt lat="34.09963" lon="-112.15940"><ele>644.0</ele></trkpt><trkpt lat="34.09929" lon="-112.15876"><ele>645.0</ele></trkpt><trkpt lat="34.09901" lon="-112.15926"><ele>644.0</ele></trkpt><trkpt lat="34.09891" lon="-112.15986"><ele>645.0</ele></trkpt><trkpt lat="34.09870" lon="-112.15934"><ele>645.0</ele></trkpt><trkpt lat="34.09879" lon="-112.15911"><ele>645.0</ele></trkpt><trkpt lat="34.09870" lon="-112.15897"><ele>643.0</ele></trkpt><trkpt lat="34.09892" lon="-112.15875"><ele>641.0</ele></trkpt><trkpt lat="34.09880" lon="-112.15850"><ele>639.0</ele></trkpt><trkpt lat="34.09825" lon="-112.15851"><ele>637.0</ele></trkpt><trkpt lat="34.09807" lon="-112.15866"><ele>636.0</ele></trkpt><trkpt lat="34.09799" lon="-112.15851"><ele>636.0</ele></trkpt><trkpt lat="34.09782" lon="-112.15856"><ele>636.0</ele></trkpt><trkpt lat="34.09734" lon="-112.15897"><ele>633.0</ele></trkpt><trkpt lat="34.09732" lon="-112.15921"><ele>632.0</ele></trkpt><trkpt lat="34.09709" lon="-112.15889"><ele>631.0</ele></trkpt><trkpt lat="34.09658" lon="-112.15888"><ele>635.0</ele></trkpt><trkpt lat="34.09643" lon="-112.15904"><ele>636.0</ele></trkpt><trkpt lat="34.09659" lon="-112.15908"><ele>638.0</ele></trkpt><trkpt lat="34.09656" lon="-112.15918"><ele>639.0</ele></trkpt><trkpt lat="34.09612" lon="-112.15939"><ele>644.0</ele></trkpt><trkpt lat="34.09569" lon="-112.15900"><ele>646.0</ele></trkpt><trkpt lat="34.09513" lon="-112.15935"><ele>646.0</ele></trkpt><trkpt lat="34.09506" lon="-112.15915"><ele>645.0</ele></trkpt><trkpt lat="34.09456" lon="-112.15887"><ele>646.0</ele></trkpt><trkpt lat="34.09489" lon="-112.15811"><ele>647.0</ele></trkpt><trkpt lat="34.09481" lon="-112.15780"><ele>647.0</ele></trkpt><trkpt lat="34.09454" lon="-112.15759"><ele>646.0</ele></trkpt><trkpt lat="34.09405" lon="-112.15750"><ele>646.0</ele></trkpt><trkpt lat="34.09409" lon="-112.15794"><ele>642.0</ele></trkpt><trkpt lat="34.09368" lon="-112.15832"><ele>638.0</ele></trkpt><trkpt lat="34.09335" lon="-112.15754"><ele>631.0</ele></trkpt><trkpt lat="34.09295" lon="-112.15691"><ele>627.0</ele></trkpt><trkpt lat="34.09271" lon="-112.15674"><ele>627.0</ele></trkpt><trkpt lat="34.09243" lon="-112.15691"><ele>626.0</ele></trkpt><trkpt lat="34.09212" lon="-112.15679"><ele>625.0</ele></trkpt><trkpt lat="34.09184" lon="-112.15695"><ele>624.0</ele></trkpt><trkpt lat="34.09153" lon="-112.15691"><ele>622.0</ele></trkpt><trkpt lat="34.09131" lon="-112.15740"><ele>617.0</ele></trkpt><trkpt lat="34.09141" lon="-112.15775"><ele>614.0</ele></trkpt><trkpt lat="34.09166" lon="-112.15802"><ele>608.0</ele></trkpt><trkpt lat="34.09148" lon="-112.15821"><ele>607.0</ele></trkpt><trkpt lat="34.09087" lon="-112.15749"><ele>614.0</ele></trkpt><trkpt lat="34.09084" lon="-112.15704"><ele>617.0</ele></trkpt><trkpt lat="34.09055" lon="-112.15663"><ele>621.0</ele></trkpt><trkpt lat="34.09065" lon="-112.15633"><ele>623.0</ele></trkpt><trkpt lat="34.09036" lon="-112.15614"><ele>626.0</ele></trkpt><trkpt lat="34.09014" lon="-112.15625"><ele>627.0</ele></trkpt><trkpt lat="34.09000" lon="-112.15674"><ele>631.0</ele></trkpt><trkpt lat="34.09029" lon="-112.15751"><ele>639.0</ele></trkpt><trkpt lat="34.09028" lon="-112.15787"><ele>646.0</ele></trkpt><trkpt lat="34.08986" lon="-112.15840"><ele>650.0</ele></trkpt><trkpt lat="34.08952" lon="-112.15846"><ele>652.0</ele></trkpt><trkpt lat="34.08884" lon="-112.15822"><ele>659.0</ele></trkpt><trkpt lat="34.08852" lon="-112.15829"><ele>662.0</ele></trkpt><trkpt lat="34.08821" lon="-112.15789"><ele>666.0</ele></trkpt><trkpt lat="34.08783" lon="-112.15779"><ele>669.0</ele></trkpt><trkpt lat="34.08675" lon="-112.15767"><ele>674.0</ele></trkpt><trkpt lat="34.08625" lon="-112.15782"><ele>674.0</ele></trkpt><trkpt lat="34.08565" lon="-112.15874"><ele>670.0</ele></trkpt><trkpt lat="34.08546" lon="-112.15949"><ele>668.0</ele></trkpt><trkpt lat="34.08529" lon="-112.15972"><ele>667.0</ele></trkpt><trkpt lat="34.08440" lon="-112.16039"><ele>661.0</ele></trkpt><trkpt lat="34.08379" lon="-112.16036"><ele>661.0</ele></trkpt><trkpt lat="34.08273" lon="-112.16087"><ele>660.0</ele></trkpt><trkpt lat="34.08248" lon="-112.16260"><ele>660.0</ele></trkpt><trkpt lat="34.08190" lon="-112.16252"><ele>661.0</ele></trkpt><trkpt lat="34.08156" lon="-112.16272"><ele>662.0</ele></trkpt><trkpt lat="34.08114" lon="-112.16326"><ele>658.0</ele></trkpt><trkpt lat="34.08093" lon="-112.16311"><ele>658.0</ele></trkpt><trkpt lat="34.08080" lon="-112.16273"><ele>656.0</ele></trkpt><trkpt lat="34.08046" lon="-112.16248"><ele>653.0</ele></trkpt><trkpt lat="34.07986" lon="-112.16252"><ele>648.0</ele></trkpt><trkpt lat="34.07924" lon="-112.16213"><ele>641.0</ele></trkpt><trkpt lat="34.07970" lon="-112.16284"><ele>635.0</ele></trkpt><trkpt lat="34.08008" lon="-112.16304"><ele>633.0</ele></trkpt><trkpt lat="34.08041" lon="-112.16366"><ele>631.0</ele></trkpt><trkpt lat="34.08001" lon="-112.16392"><ele>630.0</ele></trkpt><trkpt lat="34.07990" lon="-112.16422"><ele>631.0</ele></trkpt><trkpt lat="34.07932" lon="-112.16354"><ele>632.0</ele></trkpt><trkpt lat="34.07963" lon="-112.16419"><ele>635.0</ele></trkpt><trkpt lat="34.07965" lon="-112.16484"><ele>639.0</ele></trkpt><trkpt lat="34.07943" lon="-112.16520"><ele>641.0</ele></trkpt><trkpt lat="34.07910" lon="-112.16536"><ele>644.0</ele></trkpt><trkpt lat="34.07644" lon="-112.16496"><ele>635.0</ele></trkpt><trkpt lat="34.07558" lon="-112.16539"><ele>631.0</ele></trkpt><trkpt lat="34.07477" lon="-112.16533"><ele>626.0</ele></trkpt><trkpt lat="34.07453" lon="-112.16517"><ele>625.0</ele></trkpt><trkpt lat="34.07399" lon="-112.16544"><ele>623.0</ele></trkpt><trkpt lat="34.07280" lon="-112.16562"><ele>616.0</ele></trkpt><trkpt lat="34.07216" lon="-112.16636"><ele>618.0</ele></trkpt><trkpt lat="34.07176" lon="-112.16615"><ele>618.0</ele></trkpt><trkpt lat="34.07136" lon="-112.16628"><ele>613.0</ele></trkpt><trkpt lat="34.07103" lon="-112.16618"><ele>614.0</ele></trkpt><trkpt lat="34.07042" lon="-112.16650"><ele>618.0</ele></trkpt><trkpt lat="34.06982" lon="-112.16651"><ele>621.0</ele></trkpt><trkpt lat="34.06926" lon="-112.16706"><ele>624.0</ele></trkpt><trkpt lat="34.06809" lon="-112.16752"><ele>627.0</ele></trkpt><trkpt lat="34.06656" lon="-112.16773"><ele>633.0</ele></trkpt><trkpt lat="34.06633" lon="-112.16751"><ele>631.0</ele></trkpt><trkpt lat="34.06597" lon="-112.16649"><ele>624.0</ele></trkpt><trkpt lat="34.06570" lon="-112.16625"><ele>623.0</ele></trkpt><trkpt lat="34.06488" lon="-112.16612"><ele>620.0</ele></trkpt><trkpt lat="34.06360" lon="-112.16651"><ele>625.0</ele></trkpt><trkpt lat="34.06333" lon="-112.16574"><ele>631.0</ele></trkpt><trkpt lat="34.06218" lon="-112.16427"><ele>634.0</ele></trkpt><trkpt lat="34.06250" lon="-112.16349"><ele>633.0</ele></trkpt><trkpt lat="34.06236" lon="-112.16310"><ele>632.0</ele></trkpt><trkpt lat="34.06144" lon="-112.16304"><ele>634.0</ele></trkpt><trkpt lat="34.06052" lon="-112.16275"><ele>633.0</ele></trkpt><trkpt lat="34.06010" lon="-112.16279"><ele>629.0</ele></trkpt><trkpt lat="34.06001" lon="-112.16307"><ele>625.0</ele></trkpt><trkpt lat="34.05964" lon="-112.16311"><ele>621.0</ele></trkpt><trkpt lat="34.05851" lon="-112.16427"><ele>606.0</ele></trkpt><trkpt lat="34.05795" lon="-112.16461"><ele>595.0</ele></trkpt><trkpt lat="34.05771" lon="-112.16463"><ele>594.0</ele></trkpt><trkpt lat="34.05737" lon="-112.16440"><ele>594.0</ele></trkpt><trkpt lat="34.05687" lon="-112.16455"><ele>591.0</ele></trkpt><trkpt lat="34.05687" lon="-112.16486"><ele>588.0</ele></trkpt><trkpt lat="34.05725" lon="-112.16562"><ele>581.0</ele></trkpt><trkpt lat="34.05723" lon="-112.16577"><ele>579.0</ele></trkpt><trkpt lat="34.05615" lon="-112.16507"><ele>586.0</ele></trkpt><trkpt lat="34.05550" lon="-112.16522"><ele>588.0</ele></trkpt><trkpt lat="34.05509" lon="-112.16622"><ele>588.0</ele></trkpt><trkpt lat="34.05506" lon="-112.16590"><ele>584.0</ele></trkpt><trkpt lat="34.05469" lon="-112.16603"><ele>581.0</ele></trkpt><trkpt lat="34.05458" lon="-112.16620"><ele>580.0</ele></trkpt><trkpt lat="34.05471" lon="-112.16647"><ele>578.0</ele></trkpt><trkpt lat="34.05449" lon="-112.16658"><ele>577.0</ele></trkpt><trkpt lat="34.05436" lon="-112.16697"><ele>575.0</ele></trkpt><trkpt lat="34.05423" lon="-112.16673"><ele>572.0</ele></trkpt><trkpt lat="34.05423" lon="-112.16715"><ele>569.0</ele></trkpt><trkpt lat="34.05417" lon="-112.16724"><ele>568.0</ele></trkpt><trkpt lat="34.05415" lon="-112.16705"><ele>566.0</ele></trkpt><trkpt lat="34.05407" lon="-112.16725"><ele>563.0</ele></trkpt><trkpt lat="34.05409" lon="-112.16779"><ele>562.0</ele></trkpt><trkpt lat="34.05384" lon="-112.16805"><ele>559.0</ele></trkpt><trkpt lat="34.05360" lon="-112.16797"><ele>559.0</ele></trkpt><trkpt lat="34.05360" lon="-112.16771"><ele>560.0</ele></trkpt><trkpt lat="34.05332" lon="-112.16799"><ele>562.0</ele></trkpt><trkpt lat="34.05358" lon="-112.16770"><ele>562.0</ele></trkpt><trkpt lat="34.05345" lon="-112.16701"><ele>563.0</ele></trkpt><trkpt lat="34.05295" lon="-112.16666"><ele>564.0</ele></trkpt><trkpt lat="34.05264" lon="-112.16591"><ele>569.0</ele></trkpt><trkpt lat="34.05204" lon="-112.16506"><ele>575.0</ele></trkpt><trkpt lat="34.05168" lon="-112.16516"><ele>579.0</ele></trkpt><trkpt lat="34.05118" lon="-112.16496"><ele>581.0</ele></trkpt><trkpt lat="34.05087" lon="-112.16466"><ele>583.0</ele></trkpt><trkpt lat="34.05080" lon="-112.16429"><ele>584.0</ele></trkpt><trkpt lat="34.05028" lon="-112.16400"><ele>585.0</ele></trkpt><trkpt lat="34.04984" lon="-112.16352"><ele>588.0</ele></trkpt><trkpt lat="34.04972" lon="-112.16307"><ele>590.0</ele></trkpt><trkpt lat="34.04981" lon="-112.16336"><ele>593.0</ele></trkpt><trkpt lat="34.05012" lon="-112.16363"><ele>595.0</ele></trkpt><trkpt lat="34.05080" lon="-112.16334"><ele>602.0</ele></trkpt><trkpt lat="34.05029" lon="-112.16340"><ele>609.0</ele></trkpt><trkpt lat="34.05061" lon="-112.16303"><ele>614.0</ele></trkpt><trkpt lat="34.05019" lon="-112.16323"><ele>618.0</ele></trkpt><trkpt lat="34.05029" lon="-112.16309"><ele>620.0</ele></trkpt><trkpt lat="34.05020" lon="-112.16262"><ele>622.0</ele></trkpt><trkpt lat="34.05038" lon="-112.16210"><ele>623.0</ele></trkpt><trkpt lat="34.05030" lon="-112.16165"><ele>624.0</ele></trkpt><trkpt lat="34.05064" lon="-112.16163"><ele>625.0</ele></trkpt><trkpt lat="34.05016" lon="-112.16146"><ele>630.0</ele></trkpt><trkpt lat="34.05009" lon="-112.16176"><ele>631.0</ele></trkpt><trkpt lat="34.04992" lon="-112.16181"><ele>632.0</ele></trkpt><trkpt lat="34.05010" lon="-112.16135"><ele>635.0</ele></trkpt><trkpt lat="34.05061" lon="-112.16129"><ele>639.0</ele></trkpt><trkpt lat="34.05037" lon="-112.16115"><ele>641.0</ele></trkpt><trkpt lat="34.04955" lon="-112.16118"><ele>646.0</ele></trkpt><trkpt lat="34.04864" lon="-112.16098"><ele>647.0</ele></trkpt><trkpt lat="34.04791" lon="-112.16029"><ele>644.0</ele></trkpt><trkpt lat="34.04752" lon="-112.16010"><ele>644.0</ele></trkpt><trkpt lat="34.04747" lon="-112.15964"><ele>644.0</ele></trkpt><trkpt lat="34.04730" lon="-112.15943"><ele>644.0</ele></trkpt><trkpt lat="34.04610" lon="-112.15935"><ele>638.0</ele></trkpt><trkpt lat="34.04554" lon="-112.15886"><ele>637.0</ele></trkpt><trkpt lat="34.04496" lon="-112.15887"><ele>634.0</ele></trkpt><trkpt lat="34.04507" lon="-112.15863"><ele>632.0</ele></trkpt><trkpt lat="34.04568" lon="-112.15831"><ele>628.0</ele></trkpt><trkpt lat="34.04568" lon="-112.15781"><ele>624.0</ele></trkpt><trkpt lat="34.04555" lon="-112.15766"><ele>622.0</ele></trkpt><trkpt lat="34.04606" lon="-112.15725"><ele>618.0</ele></trkpt><trkpt lat="34.04631" lon="-112.15734"><ele>616.0</ele></trkpt><trkpt lat="34.04637" lon="-112.15780"><ele>615.0</ele></trkpt><trkpt lat="34.04711" lon="-112.15770"><ele>612.0</ele></trkpt><trkpt lat="34.04735" lon="-112.15807"><ele>611.0</ele></trkpt><trkpt lat="34.04784" lon="-112.15834"><ele>610.0</ele></trkpt><trkpt lat="34.04793" lon="-112.15803"><ele>611.0</ele></trkpt><trkpt lat="34.04761" lon="-112.15770"><ele>611.0</ele></trkpt><trkpt lat="34.04768" lon="-112.15705"><ele>609.0</ele></trkpt><trkpt lat="34.04791" lon="-112.15688"><ele>607.0</ele></trkpt><trkpt lat="34.04866" lon="-112.15673"><ele>603.0</ele></trkpt><trkpt lat="34.04921" lon="-112.15622"><ele>602.0</ele></trkpt><trkpt lat="34.04948" lon="-112.15568"><ele>602.0</ele></trkpt><trkpt lat="34.04994" lon="-112.15538"><ele>603.0</ele></trkpt><trkpt lat="34.05052" lon="-112.15537"><ele>602.0</ele></trkpt><trkpt lat="34.05136" lon="-112.15419"><ele>603.0</ele></trkpt><trkpt lat="34.05145" lon="-112.15396"><ele>603.0</ele></trkpt><trkpt lat="34.05134" lon="-112.15380"><ele>603.0</ele></trkpt><trkpt lat="34.05138" lon="-112.15347"><ele>603.0</ele></trkpt><trkpt lat="34.05235" lon="-112.15270"><ele>609.0</ele></trkpt><trkpt lat="34.05246" lon="-112.15209"><ele>610.0</ele></trkpt><trkpt lat="34.05242" lon="-112.15017"><ele>608.0</ele></trkpt><trkpt lat="34.05222" lon="-112.15018"><ele>610.0</ele></trkpt><trkpt lat="34.05179" lon="-112.15056"><ele>611.0</ele></trkpt><trkpt lat="34.05134" lon="-112.15033"><ele>609.0</ele></trkpt><trkpt lat="34.05120" lon="-112.14985"><ele>607.0</ele></trkpt><trkpt lat="34.05089" lon="-112.14955"><ele>605.0</ele></trkpt><trkpt lat="34.05097" lon="-112.14981"><ele>602.0</ele></trkpt><trkpt lat="34.05114" lon="-112.14990"><ele>602.0</ele></trkpt><trkpt lat="34.05115" lon="-112.14979"><ele>603.0</ele></trkpt><trkpt lat="34.05124" lon="-112.14991"><ele>603.0</ele></trkpt><trkpt lat="34.05136" lon="-112.15033"><ele>603.0</ele></trkpt><trkpt lat="34.05182" lon="-112.15057"><ele>605.0</ele></trkpt><trkpt lat="34.05225" lon="-112.15019"><ele>610.0</ele></trkpt><trkpt lat="34.05243" lon="-112.15022"><ele>610.0</ele></trkpt><trkpt lat="34.05245" lon="-112.15227"><ele>608.0</ele></trkpt><trkpt lat="34.05234" lon="-112.15272"><ele>609.0</ele></trkpt><trkpt lat="34.05136" lon="-112.15349"><ele>607.0</ele></trkpt><trkpt lat="34.05145" lon="-112.15400"><ele>605.0</ele></trkpt><trkpt lat="34.05055" lon="-112.15529"><ele>602.0</ele></trkpt><trkpt lat="34.05044" lon="-112.15540"><ele>601.0</ele></trkpt><trkpt lat="34.04995" lon="-112.15534"><ele>601.0</ele></trkpt><trkpt lat="34.04945" lon="-112.15569"><ele>603.0</ele></trkpt><trkpt lat="34.04917" lon="-112.15626"><ele>603.0</ele></trkpt><trkpt lat="34.04875" lon="-112.15665"><ele>603.0</ele></trkpt><trkpt lat="34.04788" lon="-112.15686"><ele>603.0</ele></trkpt><trkpt lat="34.04767" lon="-112.15703"><ele>605.0</ele></trkpt><trkpt lat="34.04761" lon="-112.15770"><ele>608.0</ele></trkpt><trkpt lat="34.04793" lon="-112.15803"><ele>610.0</ele></trkpt><trkpt lat="34.04780" lon="-112.15833"><ele>611.0</ele></trkpt><trkpt lat="34.04735" lon="-112.15805"><ele>611.0</ele></trkpt><trkpt lat="34.04711" lon="-112.15767"><ele>611.0</ele></trkpt><trkpt lat="34.04636" lon="-112.15777"><ele>614.0</ele></trkpt><trkpt lat="34.04625" lon="-112.15727"><ele>615.0</ele></trkpt><trkpt lat="34.04597" lon="-112.15725"><ele>616.0</ele></trkpt><trkpt lat="34.04553" lon="-112.15763"><ele>617.0</ele></trkpt><trkpt lat="34.04560" lon="-112.15789"><ele>620.0</ele></trkpt><trkpt lat="34.04551" lon="-112.15808"><ele>621.0</ele></trkpt><trkpt lat="34.04490" lon="-112.15806"><ele>620.0</ele></trkpt><trkpt lat="34.04473" lon="-112.15821"><ele>619.0</ele></trkpt><trkpt lat="34.04469" lon="-112.15927"><ele>615.0</ele></trkpt><trkpt lat="34.04449" lon="-112.15959"><ele>612.0</ele></trkpt><trkpt lat="34.04519" lon="-112.15964"><ele>603.0</ele></trkpt><trkpt lat="34.04542" lon="-112.16007"><ele>601.0</ele></trkpt><trkpt lat="34.04570" lon="-112.16022"><ele>600.0</ele></trkpt><trkpt lat="34.04419" lon="-112.16079"><ele>590.0</ele></trkpt><trkpt lat="34.04361" lon="-112.16128"><ele>583.0</ele></trkpt><trkpt lat="34.04299" lon="-112.16139"><ele>578.0</ele></trkpt><trkpt lat="34.04354" lon="-112.16081"><ele>571.0</ele></trkpt><trkpt lat="34.04333" lon="-112.16084"><ele>570.0</ele></trkpt><trkpt lat="34.04270" lon="-112.16127"><ele>566.0</ele></trkpt><trkpt lat="34.04229" lon="-112.16128"><ele>561.0</ele></trkpt><trkpt lat="34.04176" lon="-112.16168"><ele>554.0</ele></trkpt><trkpt lat="34.04164" lon="-112.16219"><ele>556.0</ele></trkpt><trkpt lat="34.04117" lon="-112.16216"><ele>562.0</ele></trkpt><trkpt lat="34.04118" lon="-112.16261"><ele>570.0</ele></trkpt><trkpt lat="34.04166" lon="-112.16329"><ele>576.0</ele></trkpt><trkpt lat="34.04161" lon="-112.16387"><ele>577.0</ele></trkpt><trkpt lat="34.04183" lon="-112.16398"><ele>578.0</ele></trkpt><trkpt lat="34.04181" lon="-112.16424"><ele>579.0</ele></trkpt><trkpt lat="34.04237" lon="-112.16479"><ele>581.0</ele></trkpt><trkpt lat="34.04245" lon="-112.16503"><ele>581.0</ele></trkpt><trkpt lat="34.04306" lon="-112.16475"><ele>584.0</ele></trkpt><trkpt lat="34.04345" lon="-112.16484"><ele>585.0</ele></trkpt><trkpt lat="34.04352" lon="-112.16512"><ele>586.0</ele></trkpt><trkpt lat="34.04368" lon="-112.16508"><ele>587.0</ele></trkpt><trkpt lat="34.04400" lon="-112.16527"><ele>589.0</ele></trkpt><trkpt lat="34.04405" lon="-112.16508"><ele>590.0</ele></trkpt><trkpt lat="34.04422" lon="-112.16501"><ele>590.0</ele></trkpt><trkpt lat="34.04488" lon="-112.16515"><ele>594.0</ele></trkpt><trkpt lat="34.04552" lon="-112.16570"><ele>600.0</ele></trkpt><trkpt lat="34.04483" lon="-112.16604"><ele>608.0</ele></trkpt><trkpt lat="34.04520" lon="-112.16636"><ele>613.0</ele></trkpt><trkpt lat="34.04477" lon="-112.16666"><ele>618.0</ele></trkpt><trkpt lat="34.04391" lon="-112.16646"><ele>625.0</ele></trkpt><trkpt lat="34.04296" lon="-112.16693"><ele>638.0</ele></trkpt><trkpt lat="34.04243" lon="-112.16645"><ele>647.0</ele></trkpt><trkpt lat="34.04196" lon="-112.16666"><ele>652.0</ele></trkpt><trkpt lat="34.04101" lon="-112.16649"><ele>664.0</ele></trkpt><trkpt lat="34.04073" lon="-112.16630"><ele>668.0</ele></trkpt><trkpt lat="34.04045" lon="-112.16679"><ele>671.0</ele></trkpt><trkpt lat="34.04062" lon="-112.16694"><ele>672.0</ele></trkpt><trkpt lat="34.04144" lon="-112.16681"><ele>671.0</ele></trkpt><trkpt lat="34.04169" lon="-112.16697"><ele>670.0</ele></trkpt><trkpt lat="34.04186" lon="-112.16731"><ele>669.0</ele></trkpt><trkpt lat="34.04153" lon="-112.16773"><ele>668.0</ele></trkpt><trkpt lat="34.04218" lon="-112.16722"><ele>672.0</ele></trkpt><trkpt lat="34.04206" lon="-112.16758"><ele>674.0</ele></trkpt><trkpt lat="34.04186" lon="-112.16773"><ele>676.0</ele></trkpt><trkpt lat="34.04230" lon="-112.16753"><ele>680.0</ele></trkpt><trkpt lat="34.04194" lon="-112.16790"><ele>685.0</ele></trkpt><trkpt lat="34.04175" lon="-112.16870"><ele>690.0</ele></trkpt><trkpt lat="34.04274" lon="-112.16877"><ele>699.0</ele></trkpt><trkpt lat="34.04326" lon="-112.16941"><ele>706.0</ele></trkpt><trkpt lat="34.04400" lon="-112.16958"><ele>710.0</ele></trkpt><trkpt lat="34.04388" lon="-112.17071"><ele>717.0</ele></trkpt><trkpt lat="34.04422" lon="-112.17093"><ele>720.0</ele></trkpt><trkpt lat="34.04392" lon="-112.17103"><ele>721.0</ele></trkpt><trkpt lat="34.04386" lon="-112.17118"><ele>724.0</ele></trkpt><trkpt lat="34.04523" lon="-112.17096"><ele>733.0</ele></trkpt><trkpt lat="34.04537" lon="-112.17075"><ele>735.0</ele></trkpt><trkpt lat="34.04496" lon="-112.17055"><ele>738.0</ele></trkpt><trkpt lat="34.04556" lon="-112.17076"><ele>740.0</ele></trkpt><trkpt lat="34.04530" lon="-112.17135"><ele>741.0</ele></trkpt><trkpt lat="34.04498" lon="-112.17120"><ele>742.0</ele></trkpt><trkpt lat="34.04438" lon="-112.17164"><ele>746.0</ele></trkpt><trkpt lat="34.04429" lon="-112.17187"><ele>747.0</ele></trkpt><trkpt lat="34.04444" lon="-112.17218"><ele>747.0</ele></trkpt><trkpt lat="34.04441" lon="-112.17238"><ele>749.0</ele></trkpt><trkpt lat="34.04400" lon="-112.17292"><ele>754.0</ele></trkpt><trkpt lat="34.04416" lon="-112.17309"><ele>757.0</ele></trkpt><trkpt lat="34.04379" lon="-112.17347"><ele>758.0</ele></trkpt><trkpt lat="34.04479" lon="-112.17346"><ele>748.0</ele></trkpt><trkpt lat="34.04511" lon="-112.17373"><ele>746.0</ele></trkpt><trkpt lat="34.04555" lon="-112.17378"><ele>743.0</ele></trkpt><trkpt lat="34.04583" lon="-112.17426"><ele>739.0</ele></trkpt><trkpt lat="34.04576" lon="-112.17477"><ele>737.0</ele></trkpt><trkpt lat="34.04625" lon="-112.17485"><ele>733.0</ele></trkpt><trkpt lat="34.04658" lon="-112.17520"><ele>730.0</ele></trkpt><trkpt lat="34.04698" lon="-112.17536"><ele>730.0</ele></trkpt><trkpt lat="34.04699" lon="-112.17580"><ele>731.0</ele></trkpt><trkpt lat="34.04671" lon="-112.17636"><ele>734.0</ele></trkpt><trkpt lat="34.04666" lon="-112.17676"><ele>736.0</ele></trkpt><trkpt lat="34.04639" lon="-112.17704"><ele>737.0</ele></trkpt><trkpt lat="34.04633" lon="-112.17745"><ele>736.0</ele></trkpt><trkpt lat="34.04704" lon="-112.17796"><ele>737.0</ele></trkpt><trkpt lat="34.04768" lon="-112.17873"><ele>737.0</ele></trkpt><trkpt lat="34.04897" lon="-112.17904"><ele>730.0</ele></trkpt><trkpt lat="34.04979" lon="-112.17901"><ele>725.0</ele></trkpt><trkpt lat="34.05007" lon="-112.17919"><ele>721.0</ele></trkpt><trkpt lat="34.05031" lon="-112.17959"><ele>720.0</ele></trkpt><trkpt lat="34.05088" lon="-112.17975"><ele>725.0</ele></trkpt><trkpt lat="34.05046" lon="-112.18058"><ele>727.0</ele></trkpt><trkpt lat="34.04996" lon="-112.18098"><ele>724.0</ele></trkpt><trkpt lat="34.05033" lon="-112.18110"><ele>720.0</ele></trkpt><trkpt lat="34.05085" lon="-112.18092"><ele>715.0</ele></trkpt><trkpt lat="34.05099" lon="-112.18120"><ele>712.0</ele></trkpt><trkpt lat="34.05089" lon="-112.18148"><ele>710.0</ele></trkpt><trkpt lat="34.05045" lon="-112.18209"><ele>703.0</ele></trkpt><trkpt lat="34.05025" lon="-112.18203"><ele>703.0</ele></trkpt><trkpt lat="34.04934" lon="-112.18239"><ele>702.0</ele></trkpt><trkpt lat="34.04860" lon="-112.18325"><ele>701.0</ele></trkpt><trkpt lat="34.04905" lon="-112.18336"><ele>700.0</ele></trkpt><trkpt lat="34.04920" lon="-112.18370"><ele>699.0</ele></trkpt><trkpt lat="34.04952" lon="-112.18388"><ele>698.0</ele></trkpt><trkpt lat="34.04961" lon="-112.18417"><ele>698.0</ele></trkpt><trkpt lat="34.05101" lon="-112.18471"><ele>693.0</ele></trkpt><trkpt lat="34.05134" lon="-112.18462"><ele>691.0</ele></trkpt><trkpt lat="34.05112" lon="-112.18529"><ele>689.0</ele></trkpt><trkpt lat="34.05042" lon="-112.18543"><ele>687.0</ele></trkpt><trkpt lat="34.05022" lon="-112.18567"><ele>687.0</ele></trkpt><trkpt lat="34.04997" lon="-112.18568"><ele>686.0</ele></trkpt><trkpt lat="34.04980" lon="-112.18536"><ele>684.0</ele></trkpt><trkpt lat="34.04949" lon="-112.18521"><ele>681.0</ele></trkpt><trkpt lat="34.04901" lon="-112.18549"><ele>677.0</ele></trkpt><trkpt lat="34.04891" lon="-112.18572"><ele>675.0</ele></trkpt><trkpt lat="34.04915" lon="-112.18611"><ele>672.0</ele></trkpt><trkpt lat="34.04886" lon="-112.18601"><ele>669.0</ele></trkpt><trkpt lat="34.04853" lon="-112.18568"><ele>667.0</ele></trkpt><trkpt lat="34.04828" lon="-112.18564"><ele>666.0</ele></trkpt><trkpt lat="34.04817" lon="-112.18543"><ele>665.0</ele></trkpt><trkpt lat="34.04794" lon="-112.18560"><ele>665.0</ele></trkpt><trkpt lat="34.04749" lon="-112.18558"><ele>664.0</ele></trkpt><trkpt lat="34.04719" lon="-112.18579"><ele>660.0</ele></trkpt><trkpt lat="34.04666" lon="-112.18552"><ele>660.0</ele></trkpt><trkpt lat="34.04653" lon="-112.18581"><ele>660.0</ele></trkpt><trkpt lat="34.04578" lon="-112.18600"><ele>656.0</ele></trkpt><trkpt lat="34.04486" lon="-112.18679"><ele>648.0</ele></trkpt><trkpt lat="34.04438" lon="-112.18692"><ele>646.0</ele></trkpt><trkpt lat="34.04424" lon="-112.18676"><ele>643.0</ele></trkpt><trkpt lat="34.04415" lon="-112.18741"><ele>638.0</ele></trkpt><trkpt lat="34.04399" lon="-112.18726"><ele>635.0</ele></trkpt><trkpt lat="34.04368" lon="-112.18739"><ele>636.0</ele></trkpt><trkpt lat="34.04370" lon="-112.18762"><ele>638.0</ele></trkpt><trkpt lat="34.04391" lon="-112.18760"><ele>638.0</ele></trkpt><trkpt lat="34.04349" lon="-112.18839"><ele>645.0</ele></trkpt><trkpt lat="34.04357" lon="-112.18862"><ele>647.0</ele></trkpt><trkpt lat="34.04385" lon="-112.18863"><ele>650.0</ele></trkpt><trkpt lat="34.04401" lon="-112.18898"><ele>652.0</ele></trkpt><trkpt lat="34.04404" lon="-112.18917"><ele>654.0</ele></trkpt><trkpt lat="34.04388" lon="-112.18947"><ele>655.0</ele></trkpt><trkpt lat="34.04349" lon="-112.18924"><ele>658.0</ele></trkpt><trkpt lat="34.04299" lon="-112.18958"><ele>661.0</ele></trkpt><trkpt lat="34.04267" lon="-112.18913"><ele>662.0</ele></trkpt><trkpt lat="34.04219" lon="-112.18936"><ele>666.0</ele></trkpt><trkpt lat="34.04199" lon="-112.18902"><ele>667.0</ele></trkpt><trkpt lat="34.04120" lon="-112.18907"><ele>669.0</ele></trkpt><trkpt lat="34.04098" lon="-112.18946"><ele>666.0</ele></trkpt><trkpt lat="34.04056" lon="-112.18967"><ele>663.0</ele></trkpt><trkpt lat="34.03992" lon="-112.19075"><ele>654.0</ele></trkpt><trkpt lat="34.03976" lon="-112.19072"><ele>653.0</ele></trkpt><trkpt lat="34.03955" lon="-112.19021"><ele>651.0</ele></trkpt><trkpt lat="34.03904" lon="-112.19066"><ele>648.0</ele></trkpt><trkpt lat="34.03874" lon="-112.19057"><ele>647.0</ele></trkpt><trkpt lat="34.03866" lon="-112.19041"><ele>646.0</ele></trkpt><trkpt lat="34.03843" lon="-112.19069"><ele>644.0</ele></trkpt><trkpt lat="34.03814" lon="-112.19065"><ele>644.0</ele></trkpt><trkpt lat="34.03798" lon="-112.19099"><ele>642.0</ele></trkpt><trkpt lat="34.03762" lon="-112.19100"><ele>640.0</ele></trkpt><trkpt lat="34.03745" lon="-112.19076"><ele>638.0</ele></trkpt><trkpt lat="34.03685" lon="-112.19089"><ele>633.0</ele></trkpt><trkpt lat="34.03582" lon="-112.19065"><ele>627.0</ele></trkpt><trkpt lat="34.03441" lon="-112.19170"><ele>624.0</ele></trkpt><trkpt lat="34.03487" lon="-112.19178"><ele>620.0</ele></trkpt><trkpt lat="34.03472" lon="-112.19206"><ele>618.0</ele></trkpt><trkpt lat="34.03448" lon="-112.19213"><ele>616.0</ele></trkpt><trkpt lat="34.03449" lon="-112.19225"><ele>614.0</ele></trkpt><trkpt lat="34.03411" lon="-112.19217"><ele>610.0</ele></trkpt><trkpt lat="34.03375" lon="-112.19235"><ele>612.0</ele></trkpt><trkpt lat="34.03357" lon="-112.19224"><ele>614.0</ele></trkpt><trkpt lat="34.03338" lon="-112.19233"><ele>616.0</ele></trkpt><trkpt lat="34.03305" lon="-112.19123"><ele>624.0</ele></trkpt><trkpt lat="34.03289" lon="-112.19116"><ele>625.0</ele></trkpt><trkpt lat="34.03260" lon="-112.19137"><ele>627.0</ele></trkpt><trkpt lat="34.03159" lon="-112.19072"><ele>631.0</ele></trkpt><trkpt lat="34.03112" lon="-112.18958"><ele>635.0</ele></trkpt><trkpt lat="34.03025" lon="-112.18927"><ele>638.0</ele></trkpt><trkpt lat="34.03000" lon="-112.18905"><ele>640.0</ele></trkpt><trkpt lat="34.02992" lon="-112.18910"><ele>641.0</ele></trkpt><trkpt lat="34.02998" lon="-112.18976"><ele>642.0</ele></trkpt><trkpt lat="34.03032" lon="-112.19074"><ele>645.0</ele></trkpt><trkpt lat="34.02968" lon="-112.19140"><ele>641.0</ele></trkpt><trkpt lat="34.02931" lon="-112.19044"><ele>638.0</ele></trkpt><trkpt lat="34.02875" lon="-112.18988"><ele>634.0</ele></trkpt><trkpt lat="34.02864" lon="-112.18938"><ele>633.0</ele></trkpt><trkpt lat="34.02820" lon="-112.18944"><ele>631.0</ele></trkpt><trkpt lat="34.02836" lon="-112.18877"><ele>628.0</ele></trkpt><trkpt lat="34.02823" lon="-112.18836"><ele>627.0</ele></trkpt><trkpt lat="34.02819" lon="-112.18742"><ele>627.0</ele></trkpt><trkpt lat="34.02755" lon="-112.18616"><ele>620.0</ele></trkpt><trkpt lat="34.02767" lon="-112.18550"><ele>616.0</ele></trkpt><trkpt lat="34.02731" lon="-112.18448"><ele>611.0</ele></trkpt><trkpt lat="34.02686" lon="-112.18508"><ele>604.0</ele></trkpt><trkpt lat="34.02676" lon="-112.18599"><ele>602.0</ele></trkpt><trkpt lat="34.02631" lon="-112.18637"><ele>603.0</ele></trkpt><trkpt lat="34.02647" lon="-112.18615"><ele>601.0</ele></trkpt><trkpt lat="34.02630" lon="-112.18599"><ele>597.0</ele></trkpt><trkpt lat="34.02629" lon="-112.18558"><ele>600.0</ele></trkpt><trkpt lat="34.02580" lon="-112.18455"><ele>611.0</ele></trkpt><trkpt lat="34.02547" lon="-112.18414"><ele>614.0</ele></trkpt><trkpt lat="34.02501" lon="-112.18391"><ele>616.0</ele></trkpt><trkpt lat="34.02468" lon="-112.18399"><ele>616.0</ele></trkpt><trkpt lat="34.02384" lon="-112.18462"><ele>617.0</ele></trkpt><trkpt lat="34.02349" lon="-112.18470"><ele>620.0</ele></trkpt><trkpt lat="34.02317" lon="-112.18460"><ele>623.0</ele></trkpt><trkpt lat="34.02260" lon="-112.18375"><ele>624.0</ele></trkpt><trkpt lat="34.02261" lon="-112.18356"><ele>622.0</ele></trkpt><trkpt lat="34.02244" lon="-112.18417"><ele>618.0</ele></trkpt><trkpt lat="34.02211" lon="-112.18359"><ele>615.0</ele></trkpt><trkpt lat="34.02085" lon="-112.18383"><ele>601.0</ele></trkpt><trkpt lat="34.02027" lon="-112.18422"><ele>600.0</ele></trkpt><trkpt lat="34.01989" lon="-112.18425"><ele>600.0</ele></trkpt><trkpt lat="34.01943" lon="-112.18471"><ele>596.0</ele></trkpt><trkpt lat="34.01913" lon="-112.18480"><ele>594.0</ele></trkpt><trkpt lat="34.01911" lon="-112.18499"><ele>592.0</ele></trkpt><trkpt lat="34.01798" lon="-112.18440"><ele>588.0</ele></trkpt><trkpt lat="34.01765" lon="-112.18452"><ele>587.0</ele></trkpt><trkpt lat="34.01740" lon="-112.18437"><ele>586.0</ele></trkpt><trkpt lat="34.01725" lon="-112.18482"><ele>582.0</ele></trkpt><trkpt lat="34.01672" lon="-112.18480"><ele>580.0</ele></trkpt><trkpt lat="34.01653" lon="-112.18494"><ele>578.0</ele></trkpt><trkpt lat="34.01628" lon="-112.18621"><ele>574.0</ele></trkpt><trkpt lat="34.01606" lon="-112.18606"><ele>574.0</ele></trkpt><trkpt lat="34.01602" lon="-112.18555"><ele>575.0</ele></trkpt><trkpt lat="34.01556" lon="-112.18539"><ele>575.0</ele></trkpt><trkpt lat="34.01530" lon="-112.18630"><ele>575.0</ele></trkpt><trkpt lat="34.01521" lon="-112.18642"><ele>575.0</ele></trkpt><trkpt lat="34.01504" lon="-112.18625"><ele>575.0</ele></trkpt><trkpt lat="34.01495" lon="-112.18643"><ele>575.0</ele></trkpt><trkpt lat="34.01500" lon="-112.18675"><ele>577.0</ele></trkpt><trkpt lat="34.01534" lon="-112.18726"><ele>582.0</ele></trkpt><trkpt lat="34.01529" lon="-112.18775"><ele>584.0</ele></trkpt><trkpt lat="34.01498" lon="-112.18759"><ele>586.0</ele></trkpt><trkpt lat="34.01384" lon="-112.18825"><ele>596.0</ele></trkpt><trkpt lat="34.01391" lon="-112.18920"><ele>601.0</ele></trkpt><trkpt lat="34.01354" lon="-112.18964"><ele>599.0</ele></trkpt><trkpt lat="34.01346" lon="-112.19009"><ele>596.0</ele></trkpt><trkpt lat="34.01316" lon="-112.19030"><ele>596.0</ele></trkpt><trkpt lat="34.01309" lon="-112.18957"><ele>601.0</ele></trkpt><trkpt lat="34.01210" lon="-112.18867"><ele>606.0</ele></trkpt><trkpt lat="34.01190" lon="-112.18866"><ele>607.0</ele></trkpt><trkpt lat="34.01108" lon="-112.18956"><ele>601.0</ele></trkpt><trkpt lat="34.01047" lon="-112.18954"><ele>597.0</ele></trkpt><trkpt lat="34.00982" lon="-112.18978"><ele>594.0</ele></trkpt><trkpt lat="34.00929" lon="-112.18973"><ele>591.0</ele></trkpt><trkpt lat="34.00884" lon="-112.18991"><ele>590.0</ele></trkpt><trkpt lat="34.00856" lon="-112.19019"><ele>589.0</ele></trkpt><trkpt lat="34.00865" lon="-112.19084"><ele>589.0</ele></trkpt><trkpt lat="34.00742" lon="-112.18962"><ele>578.0</ele></trkpt><trkpt lat="34.00673" lon="-112.18982"><ele>575.0</ele></trkpt><trkpt lat="34.00606" lon="-112.18972"><ele>571.0</ele></trkpt><trkpt lat="34.00555" lon="-112.18934"><ele>569.0</ele></trkpt><trkpt lat="34.00419" lon="-112.18888"><ele>566.0</ele></trkpt><trkpt lat="34.00383" lon="-112.18851"><ele>563.0</ele></trkpt><trkpt lat="34.00339" lon="-112.18839"><ele>561.0</ele></trkpt><trkpt lat="34.00347" lon="-112.18874"><ele>558.0</ele></trkpt><trkpt lat="34.00391" lon="-112.18892"><ele>556.0</ele></trkpt><trkpt lat="34.00379" lon="-112.18899"><ele>553.0</ele></trkpt><trkpt lat="34.00401" lon="-112.18914"><ele>553.0</ele></trkpt><trkpt lat="34.00395" lon="-112.18951"><ele>555.0</ele></trkpt><trkpt lat="34.00404" lon="-112.18982"><ele>557.0</ele></trkpt><trkpt lat="34.00384" lon="-112.18961"><ele>559.0</ele></trkpt><trkpt lat="34.00371" lon="-112.18978"><ele>560.0</ele></trkpt><trkpt lat="34.00356" lon="-112.18971"><ele>559.0</ele></trkpt><trkpt lat="34.00315" lon="-112.18910"><ele>559.0</ele></trkpt><trkpt lat="34.00261" lon="-112.18909"><ele>557.0</ele></trkpt><trkpt lat="34.00226" lon="-112.18875"><ele>556.0</ele></trkpt><trkpt lat="34.00167" lon="-112.18886"><ele>551.0</ele></trkpt><trkpt lat="34.00160" lon="-112.18901"><ele>549.0</ele></trkpt><trkpt lat="34.00119" lon="-112.18870"><ele>546.0</ele></trkpt><trkpt lat="34.00083" lon="-112.18883"><ele>546.0</ele></trkpt><trkpt lat="34.00095" lon="-112.18806"><ele>548.0</ele></trkpt><trkpt lat="34.00076" lon="-112.18733"><ele>549.0</ele></trkpt><trkpt lat="34.00063" lon="-112.18722"><ele>550.0</ele></trkpt><trkpt lat="34.00069" lon="-112.18652"><ele>549.0</ele></trkpt><trkpt lat="33.99999" lon="-112.18588"><ele>541.0</ele></trkpt><trkpt lat="33.99968" lon="-112.18596"><ele>537.0</ele></trkpt><trkpt lat="34.00016" lon="-112.18561"><ele>529.0</ele></trkpt><trkpt lat="33.99959" lon="-112.18520"><ele>526.0</ele></trkpt><trkpt lat="33.99970" lon="-112.18420"><ele>532.0</ele></trkpt><trkpt lat="33.99933" lon="-112.18426"><ele>533.0</ele></trkpt><trkpt lat="33.99874" lon="-112.18463"><ele>540.0</ele></trkpt><trkpt lat="33.99881" lon="-112.18354"><ele>549.0</ele></trkpt><trkpt lat="33.99871" lon="-112.18394"><ele>553.0</ele></trkpt><trkpt lat="33.99828" lon="-112.18462"><ele>557.0</ele></trkpt><trkpt lat="33.99750" lon="-112.18474"><ele>566.0</ele></trkpt><trkpt lat="33.99737" lon="-112.18435"><ele>569.0</ele></trkpt><trkpt lat="33.99688" lon="-112.18421"><ele>568.0</ele></trkpt><trkpt lat="33.99592" lon="-112.18360"><ele>564.0</ele></trkpt><trkpt lat="33.99600" lon="-112.18304"><ele>559.0</ele></trkpt><trkpt lat="33.99573" lon="-112.18278"><ele>557.0</ele></trkpt><trkpt lat="33.99589" lon="-112.18258"><ele>557.0</ele></trkpt><trkpt lat="33.99568" lon="-112.18254"><ele>556.0</ele></trkpt><trkpt lat="33.99532" lon="-112.18270"><ele>558.0</ele></trkpt><trkpt lat="33.99485" lon="-112.18233"><ele>561.0</ele></trkpt><trkpt lat="33.99427" lon="-112.18221"><ele>559.0</ele></trkpt><trkpt lat="33.99395" lon="-112.18176"><ele>556.0</ele></trkpt><trkpt lat="33.99362" lon="-112.18175"><ele>553.0</ele></trkpt><trkpt lat="33.99240" lon="-112.18031"><ele>551.0</ele></trkpt><trkpt lat="33.99206" lon="-112.17940"><ele>549.0</ele></trkpt><trkpt lat="33.99164" lon="-112.17876"><ele>547.0</ele></trkpt><trkpt lat="33.99151" lon="-112.17875"><ele>547.0</ele></trkpt><trkpt lat="33.99143" lon="-112.17905"><ele>548.0</ele></trkpt><trkpt lat="33.99127" lon="-112.17911"><ele>549.0</ele></trkpt><trkpt lat="33.99061" lon="-112.17878"><ele>550.0</ele></trkpt><trkpt lat="33.99054" lon="-112.17816"><ele>553.0</ele></trkpt><trkpt lat="33.99083" lon="-112.17793"><ele>557.0</ele></trkpt><trkpt lat="33.99087" lon="-112.17761"><ele>558.0</ele></trkpt><trkpt lat="33.99084" lon="-112.17709"><ele>557.0</ele></trkpt><trkpt lat="33.99046" lon="-112.17561"><ele>557.0</ele></trkpt><trkpt lat="33.98997" lon="-112.17486"><ele>563.0</ele></trkpt><trkpt lat="33.98937" lon="-112.17450"><ele>567.0</ele></trkpt><trkpt lat="33.98923" lon="-112.17414"><ele>569.0</ele></trkpt><trkpt lat="33.98860" lon="-112.17406"><ele>572.0</ele></trkpt><trkpt lat="33.98825" lon="-112.17378"><ele>574.0</ele></trkpt><trkpt lat="33.98813" lon="-112.17352"><ele>576.0</ele></trkpt><trkpt lat="33.98822" lon="-112.17316"><ele>577.0</ele></trkpt><trkpt lat="33.98771" lon="-112.17302"><ele>577.0</ele></trkpt><trkpt lat="33.98760" lon="-112.17248"><ele>578.0</ele></trkpt><trkpt lat="33.98709" lon="-112.17250"><ele>577.0</ele></trkpt><trkpt lat="33.98723" lon="-112.17224"><ele>578.0</ele></trkpt><trkpt lat="33.98718" lon="-112.17113"><ele>584.0</ele></trkpt><trkpt lat="33.98713" lon="-112.17172"><ele>584.0</ele></trkpt><trkpt lat="33.98686" lon="-112.17170"><ele>583.0</ele></trkpt><trkpt lat="33.98643" lon="-112.17141"><ele>584.0</ele></trkpt><trkpt lat="33.98599" lon="-112.17048"><ele>585.0</ele></trkpt><trkpt lat="33.98599" lon="-112.16960"><ele>586.0</ele></trkpt><trkpt lat="33.98558" lon="-112.16874"><ele>587.0</ele></trkpt><trkpt lat="33.98519" lon="-112.16862"><ele>588.0</ele></trkpt><trkpt lat="33.98470" lon="-112.16886"><ele>589.0</ele></trkpt><trkpt lat="33.98424" lon="-112.16843"><ele>591.0</ele></trkpt><trkpt lat="33.98381" lon="-112.16870"><ele>592.0</ele></trkpt><trkpt lat="33.98351" lon="-112.16861"><ele>593.0</ele></trkpt><trkpt lat="33.98291" lon="-112.16710"><ele>592.0</ele></trkpt><trkpt lat="33.98289" lon="-112.16654"><ele>592.0</ele></trkpt><trkpt lat="33.98278" lon="-112.16638"><ele>593.0</ele></trkpt><trkpt lat="33.98256" lon="-112.16625"><ele>594.0</ele></trkpt><trkpt lat="33.98226" lon="-112.16635"><ele>594.0</ele></trkpt><trkpt lat="33.98199" lon="-112.16589"><ele>593.0</ele></trkpt><trkpt lat="33.98144" lon="-112.16581"><ele>592.0</ele></trkpt><trkpt lat="33.98092" lon="-112.16607"><ele>592.0</ele></trkpt><trkpt lat="33.98059" lon="-112.16580"><ele>592.0</ele></trkpt><trkpt lat="33.98049" lon="-112.16590"><ele>592.0</ele></trkpt><trkpt lat="33.97979" lon="-112.16571"><ele>595.0</ele></trkpt><trkpt lat="33.97922" lon="-112.16499"><ele>600.0</ele></trkpt><trkpt lat="33.97830" lon="-112.16428"><ele>606.0</ele></trkpt><trkpt lat="33.97806" lon="-112.16428"><ele>607.0</ele></trkpt><trkpt lat="33.97748" lon="-112.16394"><ele>612.0</ele></trkpt><trkpt lat="33.97707" lon="-112.16397"><ele>613.0</ele></trkpt><trkpt lat="33.97672" lon="-112.16368"><ele>616.0</ele></trkpt><trkpt lat="33.97646" lon="-112.16378"><ele>616.0</ele></trkpt><trkpt lat="33.97665" lon="-112.16312"><ele>617.0</ele></trkpt><trkpt lat="33.97612" lon="-112.16205"><ele>616.0</ele></trkpt><trkpt lat="33.97547" lon="-112.16102"><ele>618.0</ele></trkpt><trkpt lat="33.97508" lon="-112.16086"><ele>618.0</ele></trkpt><trkpt lat="33.97527" lon="-112.16063"><ele>617.0</ele></trkpt><trkpt lat="33.97482" lon="-112.15979"><ele>620.0</ele></trkpt><trkpt lat="33.97412" lon="-112.15942"><ele>623.0</ele></trkpt><trkpt lat="33.97411" lon="-112.15924"><ele>623.0</ele></trkpt><trkpt lat="33.97441" lon="-112.15925"><ele>624.0</ele></trkpt><trkpt lat="33.97449" lon="-112.15909"><ele>624.0</ele></trkpt><trkpt lat="33.97420" lon="-112.15880"><ele>625.0</ele></trkpt><trkpt lat="33.97425" lon="-112.15859"><ele>625.0</ele></trkpt><trkpt lat="33.97390" lon="-112.15762"><ele>628.0</ele></trkpt><trkpt lat="33.97369" lon="-112.15744"><ele>629.0</ele></trkpt><trkpt lat="33.97377" lon="-112.15725"><ele>629.0</ele></trkpt><trkpt lat="33.97411" lon="-112.15717"><ele>630.0</ele></trkpt><trkpt lat="33.97383" lon="-112.15700"><ele>633.0</ele></trkpt><trkpt lat="33.97355" lon="-112.15636"><ele>637.0</ele></trkpt><trkpt lat="33.97311" lon="-112.15653"><ele>640.0</ele></trkpt><trkpt lat="33.97295" lon="-112.15594"><ele>644.0</ele></trkpt><trkpt lat="33.97189" lon="-112.15541"><ele>651.0</ele></trkpt><trkpt lat="33.97166" lon="-112.15488"><ele>655.0</ele></trkpt><trkpt lat="33.97120" lon="-112.15499"><ele>659.0</ele></trkpt><trkpt lat="33.97104" lon="-112.15476"><ele>660.0</ele></trkpt><trkpt lat="33.97101" lon="-112.15554"><ele>663.0</ele></trkpt><trkpt lat="33.97070" lon="-112.15597"><ele>665.0</ele></trkpt><trkpt lat="33.97021" lon="-112.15596"><ele>667.0</ele></trkpt><trkpt lat="33.96969" lon="-112.15615"><ele>668.0</ele></trkpt><trkpt lat="33.96925" lon="-112.15604"><ele>670.0</ele></trkpt><trkpt lat="33.96823" lon="-112.15634"><ele>675.0</ele></trkpt><trkpt lat="33.96807" lon="-112.15715"><ele>676.0</ele></trkpt><trkpt lat="33.96773" lon="-112.15765"><ele>679.0</ele></trkpt><trkpt lat="33.96769" lon="-112.15795"><ele>681.0</ele></trkpt><trkpt lat="33.96789" lon="-112.15782"><ele>681.0</ele></trkpt><trkpt lat="33.96807" lon="-112.15795"><ele>682.0</ele></trkpt><trkpt lat="33.96853" lon="-112.15919"><ele>688.0</ele></trkpt><trkpt lat="33.96788" lon="-112.15878"><ele>694.0</ele></trkpt><trkpt lat="33.96677" lon="-112.15860"><ele>701.0</ele></trkpt><trkpt lat="33.96657" lon="-112.15874"><ele>703.0</ele></trkpt><trkpt lat="33.96648" lon="-112.15857"><ele>703.0</ele></trkpt><trkpt lat="33.96677" lon="-112.15808"><ele>704.0</ele></trkpt><trkpt lat="33.96694" lon="-112.15738"><ele>707.0</ele></trkpt><trkpt lat="33.96683" lon="-112.15619"><ele>716.0</ele></trkpt><trkpt lat="33.96710" lon="-112.15534"><ele>719.0</ele></trkpt><trkpt lat="33.96704" lon="-112.15480"><ele>720.0</ele></trkpt><trkpt lat="33.96674" lon="-112.15423"><ele>725.0</ele></trkpt><trkpt lat="33.96614" lon="-112.15352"><ele>731.0</ele></trkpt><trkpt lat="33.96556" lon="-112.15328"><ele>735.0</ele></trkpt><trkpt lat="33.96559" lon="-112.15302"><ele>738.0</ele></trkpt><trkpt lat="33.96481" lon="-112.15236"><ele>745.0</ele></trkpt><trkpt lat="33.96448" lon="-112.15244"><ele>747.0</ele></trkpt><trkpt lat="33.96392" lon="-112.15313"><ele>743.0</ele></trkpt><trkpt lat="33.96366" lon="-112.15297"><ele>739.0</ele></trkpt><trkpt lat="33.96313" lon="-112.15325"><ele>732.0</ele></trkpt><trkpt lat="33.96178" lon="-112.15504"><ele>716.0</ele></trkpt><trkpt lat="33.96177" lon="-112.15519"><ele>714.0</ele></trkpt><trkpt lat="33.96200" lon="-112.15553"><ele>711.0</ele></trkpt><trkpt lat="33.96135" lon="-112.15585"><ele>707.0</ele></trkpt><trkpt lat="33.96063" lon="-112.15532"><ele>703.0</ele></trkpt><trkpt lat="33.96013" lon="-112.15469"><ele>700.0</ele></trkpt><trkpt lat="33.95990" lon="-112.15418"><ele>698.0</ele></trkpt><trkpt lat="33.95975" lon="-112.15416"><ele>697.0</ele></trkpt><trkpt lat="33.95970" lon="-112.15382"><ele>696.0</ele></trkpt><trkpt lat="33.95944" lon="-112.15355"><ele>696.0</ele></trkpt><trkpt lat="33.95833" lon="-112.15425"><ele>695.0</ele></trkpt><trkpt lat="33.95714" lon="-112.15422"><ele>694.0</ele></trkpt><trkpt lat="33.95642" lon="-112.15504"><ele>695.0</ele></trkpt><trkpt lat="33.95647" lon="-112.15407"><ele>699.0</ele></trkpt><trkpt lat="33.95638" lon="-112.15389"><ele>700.0</ele></trkpt><trkpt lat="33.95594" lon="-112.15364"><ele>704.0</ele></trkpt><trkpt lat="33.95490" lon="-112.15372"><ele>709.0</ele></trkpt><trkpt lat="33.95455" lon="-112.15352"><ele>707.0</ele></trkpt><trkpt lat="33.95446" lon="-112.15337"><ele>707.0</ele></trkpt><trkpt lat="33.95456" lon="-112.15272"><ele>708.0</ele></trkpt><trkpt lat="33.95443" lon="-112.15252"><ele>707.0</ele></trkpt><trkpt lat="33.95422" lon="-112.15250"><ele>707.0</ele></trkpt><trkpt lat="33.95376" lon="-112.15299"><ele>706.0</ele></trkpt><trkpt lat="33.95273" lon="-112.15315"><ele>706.0</ele></trkpt><trkpt lat="33.95214" lon="-112.15459"><ele>712.0</ele></trkpt><trkpt lat="33.95271" lon="-112.15506"><ele>712.0</ele></trkpt><trkpt lat="33.95209" lon="-112.15530"><ele>712.0</ele></trkpt><trkpt lat="33.95170" lon="-112.15510"><ele>714.0</ele></trkpt><trkpt lat="33.95104" lon="-112.15539"><ele>714.0</ele></trkpt><trkpt lat="33.95090" lon="-112.15565"><ele>712.0</ele></trkpt><trkpt lat="33.95111" lon="-112.15688"><ele>708.0</ele></trkpt><trkpt lat="33.95102" lon="-112.15767"><ele>709.0</ele></trkpt><trkpt lat="33.95080" lon="-112.15765"><ele>709.0</ele></trkpt><trkpt lat="33.95043" lon="-112.15784"><ele>710.0</ele></trkpt><trkpt lat="33.95050" lon="-112.15733"><ele>711.0</ele></trkpt><trkpt lat="33.95031" lon="-112.15710"><ele>712.0</ele></trkpt><trkpt lat="33.94927" lon="-112.15720"><ele>710.0</ele></trkpt><trkpt lat="33.94796" lon="-112.15803"><ele>706.0</ele></trkpt><trkpt lat="33.94800" lon="-112.15833"><ele>707.0</ele></trkpt><trkpt lat="33.94781" lon="-112.15836"><ele>705.0</ele></trkpt><trkpt lat="33.94760" lon="-112.15892"><ele>701.0</ele></trkpt><trkpt lat="33.94680" lon="-112.15886"><ele>697.0</ele></trkpt><trkpt lat="33.94636" lon="-112.15859"><ele>692.0</ele></trkpt><trkpt lat="33.94658" lon="-112.15908"><ele>690.0</ele></trkpt><trkpt lat="33.94586" lon="-112.15929"><ele>692.0</ele></trkpt><trkpt lat="33.94582" lon="-112.15964"><ele>690.0</ele></trkpt><trkpt lat="33.94552" lon="-112.15950"><ele>690.0</ele></trkpt><trkpt lat="33.94506" lon="-112.16059"><ele>692.0</ele></trkpt><trkpt lat="33.94490" lon="-112.15985"><ele>698.0</ele></trkpt><trkpt lat="33.94425" lon="-112.16084"><ele>706.0</ele></trkpt><trkpt lat="33.94358" lon="-112.16102"><ele>710.0</ele></trkpt><trkpt lat="33.94284" lon="-112.16093"><ele>715.0</ele></trkpt><trkpt lat="33.94285" lon="-112.16132"><ele>717.0</ele></trkpt><trkpt lat="33.94270" lon="-112.16115"><ele>718.0</ele></trkpt><trkpt lat="33.94272" lon="-112.16072"><ele>720.0</ele></trkpt><trkpt lat="33.94324" lon="-112.16068"><ele>720.0</ele></trkpt><trkpt lat="33.94255" lon="-112.16048"><ele>724.0</ele></trkpt><trkpt lat="33.94226" lon="-112.16127"><ele>728.0</ele></trkpt><trkpt lat="33.94194" lon="-112.16163"><ele>732.0</ele></trkpt><trkpt lat="33.94158" lon="-112.16177"><ele>734.0</ele></trkpt><trkpt lat="33.94089" lon="-112.16305"><ele>744.0</ele></trkpt><trkpt lat="33.94054" lon="-112.16308"><ele>745.0</ele></trkpt><trkpt lat="33.93997" lon="-112.16336"><ele>741.0</ele></trkpt><trkpt lat="33.93792" lon="-112.16377"><ele>718.0</ele></trkpt><trkpt lat="33.93683" lon="-112.16380"><ele>705.0</ele></trkpt><trkpt lat="33.93692" lon="-112.16404"><ele>703.0</ele></trkpt><trkpt lat="33.93682" lon="-112.16410"><ele>702.0</ele></trkpt><trkpt lat="33.93616" lon="-112.16392"><ele>699.0</ele></trkpt><trkpt lat="33.93581" lon="-112.16357"><ele>698.0</ele></trkpt><trkpt lat="33.93526" lon="-112.16343"><ele>695.0</ele></trkpt><trkpt lat="33.93508" lon="-112.16357"><ele>693.0</ele></trkpt><trkpt lat="33.93498" lon="-112.16308"><ele>692.0</ele></trkpt><trkpt lat="33.93451" lon="-112.16269"><ele>690.0</ele></trkpt><trkpt lat="33.93408" lon="-112.16200"><ele>688.0</ele></trkpt><trkpt lat="33.93357" lon="-112.16167"><ele>683.0</ele></trkpt><trkpt lat="33.93342" lon="-112.16135"><ele>681.0</ele></trkpt><trkpt lat="33.93267" lon="-112.16091"><ele>678.0</ele></trkpt><trkpt lat="33.93254" lon="-112.16059"><ele>675.0</ele></trkpt><trkpt lat="33.93220" lon="-112.16050"><ele>672.0</ele></trkpt><trkpt lat="33.93151" lon="-112.16080"><ele>669.0</ele></trkpt><trkpt lat="33.93094" lon="-112.16173"><ele>667.0</ele></trkpt><trkpt lat="33.93073" lon="-112.16176"><ele>666.0</ele></trkpt><trkpt lat="33.93025" lon="-112.16151"><ele>664.0</ele></trkpt><trkpt lat="33.92967" lon="-112.16185"><ele>658.0</ele></trkpt><trkpt lat="33.92909" lon="-112.16179"><ele>653.0</ele></trkpt><trkpt lat="33.92861" lon="-112.16253"><ele>648.0</ele></trkpt><trkpt lat="33.92717" lon="-112.16228"><ele>642.0</ele></trkpt><trkpt lat="33.92638" lon="-112.16256"><ele>639.0</ele></trkpt><trkpt lat="33.92619" lon="-112.16245"><ele>638.0</ele></trkpt><trkpt lat="33.92609" lon="-112.16198"><ele>638.0</ele></trkpt><trkpt lat="33.92598" lon="-112.16193"><ele>638.0</ele></trkpt><trkpt lat="33.92535" lon="-112.16292"><ele>634.0</ele></trkpt><trkpt lat="33.92537" lon="-112.16264"><ele>632.0</ele></trkpt><trkpt lat="33.92496" lon="-112.16307"><ele>628.0</ele></trkpt><trkpt lat="33.92361" lon="-112.16396"><ele>627.0</ele></trkpt><trkpt lat="33.92332" lon="-112.16375"><ele>625.0</ele></trkpt><trkpt lat="33.92288" lon="-112.16394"><ele>622.0</ele></trkpt><trkpt lat="33.92270" lon="-112.16443"><ele>624.0</ele></trkpt><trkpt lat="33.92210" lon="-112.16427"><ele>622.0</ele></trkpt><trkpt lat="33.92129" lon="-112.16486"><ele>618.0</ele></trkpt><trkpt lat="33.92024" lon="-112.16523"><ele>618.0</ele></trkpt><trkpt lat="33.91979" lon="-112.16502"><ele>621.0</ele></trkpt><trkpt lat="33.91895" lon="-112.16679"><ele>618.0</ele></trkpt><trkpt lat="33.91882" lon="-112.16722"><ele>617.0</ele></trkpt><trkpt lat="33.91886" lon="-112.16775"><ele>616.0</ele></trkpt><trkpt lat="33.91856" lon="-112.16837"><ele>616.0</ele></trkpt><trkpt lat="33.91845" lon="-112.17017"><ele>613.0</ele></trkpt><trkpt lat="33.91868" lon="-112.17118"><ele>608.0</ele></trkpt><trkpt lat="33.91858" lon="-112.17170"><ele>608.0</ele></trkpt><trkpt lat="33.91870" lon="-112.17208"><ele>609.0</ele></trkpt><trkpt lat="33.91788" lon="-112.17460"><ele>607.0</ele></trkpt><trkpt lat="33.91651" lon="-112.17645"><ele>605.0</ele></trkpt><trkpt lat="33.91525" lon="-112.17736"><ele>602.0</ele></trkpt><trkpt lat="33.91479" lon="-112.17737"><ele>600.0</ele></trkpt><trkpt lat="33.91465" lon="-112.17753"><ele>599.0</ele></trkpt><trkpt lat="33.91443" lon="-112.17747"><ele>599.0</ele></trkpt><trkpt lat="33.91321" lon="-112.17854"><ele>598.0</ele></trkpt><trkpt lat="33.91288" lon="-112.17868"><ele>596.0</ele></trkpt><trkpt lat="33.91202" lon="-112.17870"><ele>595.0</ele></trkpt><trkpt lat="33.91128" lon="-112.17932"><ele>591.0</ele></trkpt><trkpt lat="33.91100" lon="-112.17923"><ele>591.0</ele></trkpt><trkpt lat="33.91105" lon="-112.17896"><ele>591.0</ele></trkpt><trkpt lat="33.91094" lon="-112.17888"><ele>591.0</ele></trkpt><trkpt lat="33.91036" lon="-112.17921"><ele>595.0</ele></trkpt><trkpt lat="33.90916" lon="-112.18096"><ele>605.0</ele></trkpt><trkpt lat="33.90834" lon="-112.18175"><ele>599.0</ele></trkpt><trkpt lat="33.90741" lon="-112.18184"><ele>593.0</ele></trkpt><trkpt lat="33.90704" lon="-112.18204"><ele>590.0</ele></trkpt><trkpt lat="33.90603" lon="-112.18193"><ele>585.0</ele></trkpt><trkpt lat="33.90554" lon="-112.18215"><ele>583.0</ele></trkpt><trkpt lat="33.90527" lon="-112.18213"><ele>583.0</ele></trkpt><trkpt lat="33.90491" lon="-112.18246"><ele>581.0</ele></trkpt><trkpt lat="33.90310" lon="-112.18254"><ele>580.0</ele></trkpt><trkpt lat="33.90251" lon="-112.18238"><ele>579.0</ele></trkpt><trkpt lat="33.90214" lon="-112.18207"><ele>578.0</ele></trkpt><trkpt lat="33.90132" lon="-112.18223"><ele>578.0</ele></trkpt><trkpt lat="33.90073" lon="-112.18192"><ele>577.0</ele></trkpt><trkpt lat="33.90010" lon="-112.18206"><ele>577.0</ele></trkpt><trkpt lat="33.89956" lon="-112.18182"><ele>576.0</ele></trkpt><trkpt lat="33.89794" lon="-112.18218"><ele>583.0</ele></trkpt><trkpt lat="33.89710" lon="-112.18204"><ele>583.0</ele></trkpt><trkpt lat="33.89670" lon="-112.18224"><ele>583.0</ele></trkpt><trkpt lat="33.89584" lon="-112.18202"><ele>581.0</ele></trkpt><trkpt lat="33.89536" lon="-112.18213"><ele>580.0</ele></trkpt><trkpt lat="33.89504" lon="-112.18185"><ele>578.0</ele></trkpt><trkpt lat="33.89461" lon="-112.18216"><ele>575.0</ele></trkpt><trkpt lat="33.89439" lon="-112.18184"><ele>573.0</ele></trkpt><trkpt lat="33.89401" lon="-112.18259"><ele>571.0</ele></trkpt><trkpt lat="33.89402" lon="-112.18350"><ele>570.0</ele></trkpt><trkpt lat="33.89383" lon="-112.18375"><ele>570.0</ele></trkpt><trkpt lat="33.89322" lon="-112.18286"><ele>574.0</ele></trkpt><trkpt lat="33.89283" lon="-112.18260"><ele>578.0</ele></trkpt><trkpt lat="33.89229" lon="-112.18152"><ele>581.0</ele></trkpt><trkpt lat="33.89185" lon="-112.18142"><ele>580.0</ele></trkpt><trkpt lat="33.89094" lon="-112.18169"><ele>580.0</ele></trkpt><trkpt lat="33.89077" lon="-112.18145"><ele>579.0</ele></trkpt><trkpt lat="33.89083" lon="-112.18090"><ele>577.0</ele></trkpt><trkpt lat="33.89074" lon="-112.18082"><ele>576.0</ele></trkpt><trkpt lat="33.88997" lon="-112.18100"><ele>577.0</ele></trkpt><trkpt lat="33.88978" lon="-112.18158"><ele>577.0</ele></trkpt><trkpt lat="33.88934" lon="-112.18184"><ele>576.0</ele></trkpt><trkpt lat="33.88490" lon="-112.18082"><ele>573.0</ele></trkpt><trkpt lat="33.88387" lon="-112.18085"><ele>570.0</ele></trkpt><trkpt lat="33.88344" lon="-112.18046"><ele>566.0</ele></trkpt><trkpt lat="33.88252" lon="-112.18038"><ele>562.0</ele></trkpt><trkpt lat="33.88177" lon="-112.18014"><ele>566.0</ele></trkpt></trkseg></trk></gpx>