<?xml version="1.0" encoding="UTF-8"?>
<gpx version="1.1" creator="alexrunsfar simplify-gpx"><metadata><name>miwok-100k-2025</name><desc>simplified from Strava export; 61.25 mi; 10459 ft gain (computed at full resolution)</desc></metadata><trk><name>miwok-100k-2025</name><trkseg><trkpt lat="37.89894" lon="-122.63752"><ele>2.0</ele></trkpt><trkpt lat="37.89850" lon="-122.63762"><ele>1.0</ele></trkpt><trkpt lat="37.89792" lon="-122.63723"><ele>5.0</ele></trkpt><trkpt lat="37.89705" lon="-122.63620"><ele>24.0</ele></trkpt><trkpt lat="37.89658" lon="-122.63596"><ele>26.0</ele></trkpt><trkpt lat="37.89654" lon="-122.63452"><ele>44.0</ele></trkpt><trkpt lat="37.89613" lon="-122.63296"><ele>62.0</ele></trkpt><trkpt lat="37.89590" lon="-122.63266"><ele>70.0</ele></trkpt><trkpt lat="37.89552" lon="-122.63245"><ele>80.0</ele></trkpt><trkpt lat="37.89541" lon="-122.63253"><ele>83.0</ele></trkpt><trkpt lat="37.89539" lon="-122.63290"><ele>88.0</ele></trkpt><trkpt lat="37.89499" lon="-122.63311"><ele>91.0</ele></trkpt><trkpt lat="37.89470" lon="-122.63305"><ele>92.0</ele></trkpt><trkpt lat="37.89428" lon="-122.63266"><ele>94.0</ele></trkpt><trkpt lat="37.89409" lon="-122.63217"><ele>102.0</ele></trkpt><trkpt lat="37.89372" lon="-122.63184"><ele>109.0</ele></trkpt><trkpt lat="37.89285" lon="-122.63028"><ele>130.0</ele></trkpt><trkpt lat="37.89188" lon="-122.62821"><ele>130.0</ele></trkpt><trkpt lat="37.89191" lon="-122.62773"><ele>132.0</ele></trkpt><trkpt lat="37.89173" lon="-122.62649"><ele>142.0</ele></trkpt><trkpt lat="37.89116" lon="-122.62588"><ele>150.0</ele></trkpt><trkpt lat="37.89075" lon="-122.62579"><ele>155.0</ele></trkpt><trkpt lat="37.89125" lon="-122.62544"><ele>162.0</ele></trkpt><trkpt lat="37.89115" lon="-122.62499"><ele>170.0</ele></trkpt><trkpt lat="37.89144" lon="-122.62316"><ele>165.0</ele></trkpt><trkpt lat="37.89124" lon="-122.62199"><ele>157.0</ele></trkpt><trkpt lat="37.89128" lon="-122.62163"><ele>150.0</ele></trkpt><trkpt lat="37.89146" lon="-122.62121"><ele>140.0</ele></trkpt><trkpt lat="37.89181" lon="-122.62098"><ele>142.0</ele></trkpt><trkpt lat="37.89182" lon="-122.62071"><ele>145.0</ele></trkpt><trkpt lat="37.89213" lon="-122.62051"><ele>152.0</ele></trkpt><trkpt lat="37.89245" lon="-122.61992"><ele>171.0</ele></trkpt><trkpt lat="37.89245" lon="-122.61955"><ele>187.0</ele></trkpt><trkpt lat="37.89203" lon="-122.61895"><ele>208.0</ele></trkpt><trkpt lat="37.89180" lon="-122.61804"><ele>228.0</ele></trkpt><trkpt lat="37.89239" lon="-122.61843"><ele>247.0</ele></trkpt><trkpt lat="37.89256" lon="-122.61835"><ele>249.0</ele></trkpt><trkpt lat="37.89268" lon="-122.61755"><ele>257.0</ele></trkpt><trkpt lat="37.89215" lon="-122.61669"><ele>267.0</ele></trkpt><trkpt lat="37.89272" lon="-122.61588"><ele>279.0</ele></trkpt><trkpt lat="37.89327" lon="-122.61565"><ele>287.0</ele></trkpt><trkpt lat="37.89342" lon="-122.61546"><ele>289.0</ele></trkpt><trkpt lat="37.89345" lon="-122.61425"><ele>305.0</ele></trkpt><trkpt lat="37.89274" lon="-122.61354"><ele>314.0</ele></trkpt><trkpt lat="37.89274" lon="-122.61289"><ele>321.0</ele></trkpt><trkpt lat="37.89245" lon="-122.61356"><ele>324.0</ele></trkpt><trkpt lat="37.89235" lon="-122.61318"><ele>330.0</ele></trkpt><trkpt lat="37.89248" lon="-122.61232"><ele>339.0</ele></trkpt><trkpt lat="37.89279" lon="-122.61152"><ele>347.0</ele></trkpt><trkpt lat="37.89274" lon="-122.61035"><ele>354.0</ele></trkpt><trkpt lat="37.89338" lon="-122.60955"><ele>366.0</ele></trkpt><trkpt lat="37.89352" lon="-122.60915"><ele>367.0</ele></trkpt><trkpt lat="37.89350" lon="-122.60896"><ele>368.0</ele></trkpt><trkpt lat="37.89313" lon="-122.60882"><ele>366.0</ele></trkpt><trkpt lat="37.89312" lon="-122.60801"><ele>363.0</ele></trkpt><trkpt lat="37.89398" lon="-122.60776"><ele>364.0</ele></trkpt><trkpt lat="37.89425" lon="-122.60731"><ele>367.0</ele></trkpt><trkpt lat="37.89514" lon="-122.60713"><ele>377.0</ele></trkpt><trkpt lat="37.89571" lon="-122.60643"><ele>380.0</ele></trkpt><trkpt lat="37.89589" lon="-122.60611"><ele>382.0</ele></trkpt><trkpt lat="37.89605" lon="-122.60432"><ele>396.0</ele></trkpt><trkpt lat="37.89622" lon="-122.60371"><ele>398.0</ele></trkpt><trkpt lat="37.89656" lon="-122.60309"><ele>396.0</ele></trkpt><trkpt lat="37.89695" lon="-122.60294"><ele>395.0</ele></trkpt><trkpt lat="37.89706" lon="-122.60242"><ele>394.0</ele></trkpt><trkpt lat="37.89742" lon="-122.60171"><ele>395.0</ele></trkpt><trkpt lat="37.89740" lon="-122.60146"><ele>396.0</ele></trkpt><trkpt lat="37.89697" lon="-122.60147"><ele>395.0</ele></trkpt><trkpt lat="37.89622" lon="-122.60076"><ele>384.0</ele></trkpt><trkpt lat="37.89574" lon="-122.60050"><ele>379.0</ele></trkpt><trkpt lat="37.89484" lon="-122.59953"><ele>372.0</ele></trkpt><trkpt lat="37.89435" lon="-122.59925"><ele>369.0</ele></trkpt><trkpt lat="37.89438" lon="-122.59883"><ele>366.0</ele></trkpt><trkpt lat="37.89402" lon="-122.59871"><ele>364.0</ele></trkpt><trkpt lat="37.89385" lon="-122.59831"><ele>362.0</ele></trkpt><trkpt lat="37.89337" lon="-122.59852"><ele>359.0</ele></trkpt><trkpt lat="37.89297" lon="-122.59823"><ele>357.0</ele></trkpt><trkpt lat="37.89257" lon="-122.59873"><ele>352.0</ele></trkpt><trkpt lat="37.89159" lon="-122.59801"><ele>342.0</ele></trkpt><trkpt lat="37.89146" lon="-122.59806"><ele>341.0</ele></trkpt><trkpt lat="37.89148" lon="-122.59841"><ele>338.0</ele></trkpt><trkpt lat="37.89137" lon="-122.59852"><ele>337.0</ele></trkpt><trkpt lat="37.89043" lon="-122.59832"><ele>331.0</ele></trkpt><trkpt lat="37.88847" lon="-122.59829"><ele>325.0</ele></trkpt><trkpt lat="37.88829" lon="-122.59783"><ele>323.0</ele></trkpt><trkpt lat="37.88845" lon="-122.59691"><ele>317.0</ele></trkpt><trkpt lat="37.88825" lon="-122.59572"><ele>309.0</ele></trkpt><trkpt lat="37.88858" lon="-122.59557"><ele>307.0</ele></trkpt><trkpt lat="37.88884" lon="-122.59524"><ele>305.0</ele></trkpt><trkpt lat="37.88958" lon="-122.59491"><ele>295.0</ele></trkpt><trkpt lat="37.88875" lon="-122.59448"><ele>288.0</ele></trkpt><trkpt lat="37.88827" lon="-122.59458"><ele>286.0</ele></trkpt><trkpt lat="37.88811" lon="-122.59425"><ele>282.0</ele></trkpt><trkpt lat="37.88734" lon="-122.59344"><ele>273.0</ele></trkpt><trkpt lat="37.88668" lon="-122.59365"><ele>270.0</ele></trkpt><trkpt lat="37.88639" lon="-122.59360"><ele>269.0</ele></trkpt><trkpt lat="37.88599" lon="-122.59384"><ele>272.0</ele></trkpt><trkpt lat="37.88548" lon="-122.59358"><ele>272.0</ele></trkpt><trkpt lat="37.88489" lon="-122.59365"><ele>274.0</ele></trkpt><trkpt lat="37.88468" lon="-122.59309"><ele>270.0</ele></trkpt><trkpt lat="37.88400" lon="-122.59261"><ele>266.0</ele></trkpt><trkpt lat="37.88347" lon="-122.59170"><ele>259.0</ele></trkpt><trkpt lat="37.88316" lon="-122.59187"><ele>257.0</ele></trkpt><trkpt lat="37.88314" lon="-122.59230"><ele>254.0</ele></trkpt><trkpt lat="37.88299" lon="-122.59258"><ele>252.0</ele></trkpt><trkpt lat="37.88201" lon="-122.59259"><ele>247.0</ele></trkpt><trkpt lat="37.88172" lon="-122.59273"><ele>245.0</ele></trkpt><trkpt lat="37.88156" lon="-122.59338"><ele>237.0</ele></trkpt><trkpt lat="37.88117" lon="-122.59373"><ele>233.0</ele></trkpt><trkpt lat="37.88112" lon="-122.59398"><ele>231.0</ele></trkpt><trkpt lat="37.88100" lon="-122.59377"><ele>229.0</ele></trkpt><trkpt lat="37.88099" lon="-122.59332"><ele>224.0</ele></trkpt><trkpt lat="37.88074" lon="-122.59356"><ele>222.0</ele></trkpt><trkpt lat="37.87965" lon="-122.59376"><ele>213.0</ele></trkpt><trkpt lat="37.87929" lon="-122.59352"><ele>209.0</ele></trkpt><trkpt lat="37.87894" lon="-122.59355"><ele>206.0</ele></trkpt><trkpt lat="37.87870" lon="-122.59327"><ele>202.0</ele></trkpt><trkpt lat="37.87769" lon="-122.59334"><ele>194.0</ele></trkpt><trkpt lat="37.87756" lon="-122.59322"><ele>192.0</ele></trkpt><trkpt lat="37.87756" lon="-122.59282"><ele>189.0</ele></trkpt><trkpt lat="37.87710" lon="-122.59265"><ele>185.0</ele></trkpt><trkpt lat="37.87698" lon="-122.59275"><ele>185.0</ele></trkpt><trkpt lat="37.87679" lon="-122.59346"><ele>176.0</ele></trkpt><trkpt lat="37.87653" lon="-122.59292"><ele>169.0</ele></trkpt><trkpt lat="37.87618" lon="-122.59256"><ele>164.0</ele></trkpt><trkpt lat="37.87481" lon="-122.59169"><ele>155.0</ele></trkpt><trkpt lat="37.87374" lon="-122.59123"><ele>145.0</ele></trkpt><trkpt lat="37.87331" lon="-122.59079"><ele>141.0</ele></trkpt><trkpt lat="37.87390" lon="-122.59021"><ele>136.0</ele></trkpt><trkpt lat="37.87424" lon="-122.58960"><ele>131.0</ele></trkpt><trkpt lat="37.87465" lon="-122.58946"><ele>128.0</ele></trkpt><trkpt lat="37.87501" lon="-122.58906"><ele>125.0</ele></trkpt><trkpt lat="37.87535" lon="-122.58930"><ele>123.0</ele></trkpt><trkpt lat="37.87512" lon="-122.58896"><ele>118.0</ele></trkpt><trkpt lat="37.87529" lon="-122.58902"><ele>115.0</ele></trkpt><trkpt lat="37.87495" lon="-122.58875"><ele>111.0</ele></trkpt><trkpt lat="37.87540" lon="-122.58883"><ele>106.0</ele></trkpt><trkpt lat="37.87539" lon="-122.58829"><ele>101.0</ele></trkpt><trkpt lat="37.87521" lon="-122.58772"><ele>94.0</ele></trkpt><trkpt lat="37.87507" lon="-122.58755"><ele>93.0</ele></trkpt><trkpt lat="37.87517" lon="-122.58796"><ele>90.0</ele></trkpt><trkpt lat="37.87498" lon="-122.58754"><ele>86.0</ele></trkpt><trkpt lat="37.87495" lon="-122.58726"><ele>84.0</ele></trkpt><trkpt lat="37.87506" lon="-122.58798"><ele>80.0</ele></trkpt><trkpt lat="37.87485" lon="-122.58758"><ele>77.0</ele></trkpt><trkpt lat="37.87482" lon="-122.58725"><ele>75.0</ele></trkpt><trkpt lat="37.87480" lon="-122.58762"><ele>74.0</ele></trkpt><trkpt lat="37.87492" lon="-122.58797"><ele>72.0</ele></trkpt><trkpt lat="37.87433" lon="-122.58789"><ele>67.0</ele></trkpt><trkpt lat="37.87416" lon="-122.58765"><ele>64.0</ele></trkpt><trkpt lat="37.87438" lon="-122.58780"><ele>62.0</ele></trkpt><trkpt lat="37.87459" lon="-122.58770"><ele>61.0</ele></trkpt><trkpt lat="37.87454" lon="-122.58706"><ele>57.0</ele></trkpt><trkpt lat="37.87448" lon="-122.58729"><ele>55.0</ele></trkpt><trkpt lat="37.87443" lon="-122.58692"><ele>52.0</ele></trkpt><trkpt lat="37.87438" lon="-122.58744"><ele>49.0</ele></trkpt><trkpt lat="37.87384" lon="-122.58700"><ele>41.0</ele></trkpt><trkpt lat="37.87427" lon="-122.58717"><ele>40.0</ele></trkpt><trkpt lat="37.87422" lon="-122.58688"><ele>38.0</ele></trkpt><trkpt lat="37.87401" lon="-122.58658"><ele>32.0</ele></trkpt><trkpt lat="37.87403" lon="-122.58636"><ele>31.0</ele></trkpt><trkpt lat="37.87394" lon="-122.58651"><ele>29.0</ele></trkpt><trkpt lat="37.87423" lon="-122.58599"><ele>24.0</ele></trkpt><trkpt lat="37.87419" lon="-122.58590"><ele>23.0</ele></trkpt><trkpt lat="37.87398" lon="-122.58608"><ele>19.0</ele></trkpt><trkpt lat="37.87399" lon="-122.58529"><ele>12.0</ele></trkpt><trkpt lat="37.87406" lon="-122.58503"><ele>10.0</ele></trkpt><trkpt lat="37.87439" lon="-122.58476"><ele>7.0</ele></trkpt><trkpt lat="37.87463" lon="-122.58430"><ele>3.0</ele></trkpt><trkpt lat="37.87429" lon="-122.58398"><ele>0.0</ele></trkpt><trkpt lat="37.87311" lon="-122.58347"><ele>0.0</ele></trkpt><trkpt lat="37.87340" lon="-122.58304"><ele>0.0</ele></trkpt><trkpt lat="37.87351" lon="-122.58267"><ele>4.0</ele></trkpt><trkpt lat="37.87337" lon="-122.58261"><ele>7.0</ele></trkpt><trkpt lat="37.87375" lon="-122.58266"><ele>9.0</ele></trkpt><trkpt lat="37.87361" lon="-122.58244"><ele>12.0</ele></trkpt><trkpt lat="37.87296" lon="-122.58242"><ele>14.0</ele></trkpt><trkpt lat="37.87241" lon="-122.58205"><ele>13.0</ele></trkpt><trkpt lat="37.87223" lon="-122.58181"><ele>12.0</ele></trkpt><trkpt lat="37.87201" lon="-122.58108"><ele>14.0</ele></trkpt><trkpt lat="37.87144" lon="-122.58137"><ele>14.0</ele></trkpt><trkpt lat="37.87101" lon="-122.58110"><ele>14.0</ele></trkpt><trkpt lat="37.87077" lon="-122.58066"><ele>14.0</ele></trkpt><trkpt lat="37.87025" lon="-122.58103"><ele>15.0</ele></trkpt><trkpt lat="37.87005" lon="-122.58098"><ele>16.0</ele></trkpt><trkpt lat="37.86928" lon="-122.57995"><ele>8.0</ele></trkpt><trkpt lat="37.86924" lon="-122.57899"><ele>5.0</ele></trkpt><trkpt lat="37.86879" lon="-122.57897"><ele>5.0</ele></trkpt><trkpt lat="37.86728" lon="-122.57750"><ele>-6.0</ele></trkpt><trkpt lat="37.86620" lon="-122.57591"><ele>-7.0</ele></trkpt><trkpt lat="37.86493" lon="-122.57472"><ele>-7.0</ele></trkpt><trkpt lat="37.86469" lon="-122.57461"><ele>-8.0</ele></trkpt><trkpt lat="37.86429" lon="-122.57470"><ele>-9.0</ele></trkpt><trkpt lat="37.86413" lon="-122.57426"><ele>-9.0</ele></trkpt><trkpt lat="37.86369" lon="-122.57388"><ele>-9.0</ele></trkpt><trkpt lat="37.86313" lon="-122.57301"><ele>-9.0</ele></trkpt><trkpt lat="37.86304" lon="-122.57272"><ele>-9.0</ele></trkpt><trkpt lat="37.86309" lon="-122.57189"><ele>-7.0</ele></trkpt><trkpt lat="37.86253" lon="-122.57146"><ele>-7.0</ele></trkpt><trkpt lat="37.86234" lon="-122.57152"><ele>-6.0</ele></trkpt><trkpt lat="37.86199" lon="-122.57270"><ele>-5.0</ele></trkpt><trkpt lat="37.86176" lon="-122.57302"><ele>-7.0</ele></trkpt><trkpt lat="37.86107" lon="-122.57312"><ele>-8.0</ele></trkpt><trkpt lat="37.86048" lon="-122.57287"><ele>-7.0</ele></trkpt><trkpt lat="37.86028" lon="-122.57297"><ele>-6.0</ele></trkpt><trkpt lat="37.86037" lon="-122.57372"><ele>-7.0</ele></trkpt><trkpt lat="37.86022" lon="-122.57428"><ele>-8.0</ele></trkpt><trkpt lat="37.86117" lon="-122.57542"><ele>-9.0</ele></trkpt><trkpt lat="37.86023" lon="-122.57428"><ele>-9.0</ele></trkpt><trkpt lat="37.86036" lon="-122.57371"><ele>-9.0</ele></trkpt><trkpt lat="37.86032" lon="-122.57291"><ele>-7.0</ele></trkpt><trkpt lat="37.86053" lon="-122.57286"><ele>-7.0</ele></trkpt><trkpt lat="37.86113" lon="-122.57312"><ele>-8.0</ele></trkpt><trkpt lat="37.86178" lon="-122.57300"><ele>-8.0</ele></trkpt><trkpt lat="37.86199" lon="-122.57271"><ele>-8.0</ele></trkpt><trkpt lat="37.86237" lon="-122.57148"><ele>-6.0</ele></trkpt><trkpt lat="37.86266" lon="-122.57143"><ele>-8.0</ele></trkpt><trkpt lat="37.86290" lon="-122.57086"><ele>-7.0</ele></trkpt><trkpt lat="37.86341" lon="-122.57030"><ele>-6.0</ele></trkpt><trkpt lat="37.86376" lon="-122.56763"><ele>0.0</ele></trkpt><trkpt lat="37.86436" lon="-122.56626"><ele>4.0</ele></trkpt><trkpt lat="37.86424" lon="-122.56609"><ele>5.0</ele></trkpt><trkpt lat="37.86357" lon="-122.56597"><ele>7.0</ele></trkpt><trkpt lat="37.86360" lon="-122.56520"><ele>14.0</ele></trkpt><trkpt lat="37.86377" lon="-122.56516"><ele>15.0</ele></trkpt><trkpt lat="37.86345" lon="-122.56472"><ele>22.0</ele></trkpt><trkpt lat="37.86377" lon="-122.56477"><ele>27.0</ele></trkpt><trkpt lat="37.86347" lon="-122.56438"><ele>31.0</ele></trkpt><trkpt lat="37.86384" lon="-122.56454"><ele>35.0</ele></trkpt><trkpt lat="37.86366" lon="-122.56413"><ele>44.0</ele></trkpt><trkpt lat="37.86410" lon="-122.56414"><ele>50.0</ele></trkpt><trkpt lat="37.86435" lon="-122.56384"><ele>53.0</ele></trkpt><trkpt lat="37.86402" lon="-122.56397"><ele>57.0</ele></trkpt><trkpt lat="37.86347" lon="-122.56364"><ele>63.0</ele></trkpt><trkpt lat="37.86269" lon="-122.56284"><ele>73.0</ele></trkpt><trkpt lat="37.86259" lon="-122.56247"><ele>76.0</ele></trkpt><trkpt lat="37.86226" lon="-122.56266"><ele>80.0</ele></trkpt><trkpt lat="37.86127" lon="-122.56285"><ele>87.0</ele></trkpt><trkpt lat="37.86138" lon="-122.56389"><ele>95.0</ele></trkpt><trkpt lat="37.86082" lon="-122.56437"><ele>103.0</ele></trkpt><trkpt lat="37.86077" lon="-122.56504"><ele>110.0</ele></trkpt><trkpt lat="37.86065" lon="-122.56503"><ele>113.0</ele></trkpt><trkpt lat="37.86039" lon="-122.56449"><ele>118.0</ele></trkpt><trkpt lat="37.86044" lon="-122.56389"><ele>125.0</ele></trkpt><trkpt lat="37.86026" lon="-122.56328"><ele>131.0</ele></trkpt><trkpt lat="37.85967" lon="-122.56215"><ele>145.0</ele></trkpt><trkpt lat="37.86022" lon="-122.56196"><ele>148.0</ele></trkpt><trkpt lat="37.86042" lon="-122.56146"><ele>151.0</ele></trkpt><trkpt lat="37.86097" lon="-122.56178"><ele>155.0</ele></trkpt><trkpt lat="37.86129" lon="-122.56173"><ele>156.0</ele></trkpt><trkpt lat="37.86164" lon="-122.56107"><ele>161.0</ele></trkpt><trkpt lat="37.86211" lon="-122.56101"><ele>164.0</ele></trkpt><trkpt lat="37.86242" lon="-122.56058"><ele>167.0</ele></trkpt><trkpt lat="37.86156" lon="-122.55998"><ele>188.0</ele></trkpt><trkpt lat="37.86098" lon="-122.55988"><ele>200.0</ele></trkpt><trkpt lat="37.86102" lon="-122.55951"><ele>203.0</ele></trkpt><trkpt lat="37.86081" lon="-122.55922"><ele>207.0</ele></trkpt><trkpt lat="37.86025" lon="-122.55921"><ele>213.0</ele></trkpt><trkpt lat="37.85947" lon="-122.55826"><ele>227.0</ele></trkpt><trkpt lat="37.85988" lon="-122.55797"><ele>235.0</ele></trkpt><trkpt lat="37.85993" lon="-122.55727"><ele>239.0</ele></trkpt><trkpt lat="37.86036" lon="-122.55709"><ele>241.0</ele></trkpt><trkpt lat="37.86053" lon="-122.55683"><ele>242.0</ele></trkpt><trkpt lat="37.86051" lon="-122.55648"><ele>245.0</ele></trkpt><trkpt lat="37.86023" lon="-122.55619"><ele>245.0</ele></trkpt><trkpt lat="37.86025" lon="-122.55531"><ele>247.0</ele></trkpt><trkpt lat="37.86069" lon="-122.55524"><ele>249.0</ele></trkpt><trkpt lat="37.86093" lon="-122.55486"><ele>250.0</ele></trkpt><trkpt lat="37.86130" lon="-122.55485"><ele>251.0</ele></trkpt><trkpt lat="37.86188" lon="-122.55419"><ele>256.0</ele></trkpt><trkpt lat="37.86292" lon="-122.55372"><ele>265.0</ele></trkpt><trkpt lat="37.86519" lon="-122.55310"><ele>277.0</ele></trkpt><trkpt lat="37.86601" lon="-122.55273"><ele>291.0</ele></trkpt><trkpt lat="37.86645" lon="-122.55210"><ele>292.0</ele></trkpt><trkpt lat="37.86681" lon="-122.55211"><ele>288.0</ele></trkpt><trkpt lat="37.86706" lon="-122.55230"><ele>286.0</ele></trkpt><trkpt lat="37.86703" lon="-122.55162"><ele>274.0</ele></trkpt><trkpt lat="37.86721" lon="-122.55065"><ele>267.0</ele></trkpt><trkpt lat="37.86702" lon="-122.54996"><ele>265.0</ele></trkpt><trkpt lat="37.86708" lon="-122.54886"><ele>251.0</ele></trkpt><trkpt lat="37.86723" lon="-122.54862"><ele>247.0</ele></trkpt><trkpt lat="37.86775" lon="-122.54841"><ele>245.0</ele></trkpt><trkpt lat="37.86753" lon="-122.54763"><ele>239.0</ele></trkpt><trkpt lat="37.86799" lon="-122.54616"><ele>225.0</ele></trkpt><trkpt lat="37.86830" lon="-122.54578"><ele>224.0</ele></trkpt><trkpt lat="37.86878" lon="-122.54563"><ele>222.0</ele></trkpt><trkpt lat="37.86941" lon="-122.54512"><ele>220.0</ele></trkpt><trkpt lat="37.86952" lon="-122.54428"><ele>214.0</ele></trkpt><trkpt lat="37.87013" lon="-122.54382"><ele>209.0</ele></trkpt><trkpt lat="37.87028" lon="-122.54314"><ele>206.0</ele></trkpt><trkpt lat="37.87015" lon="-122.54268"><ele>206.0</ele></trkpt><trkpt lat="37.87037" lon="-122.54222"><ele>204.0</ele></trkpt><trkpt lat="37.87027" lon="-122.54166"><ele>202.0</ele></trkpt><trkpt lat="37.87051" lon="-122.54062"><ele>189.0</ele></trkpt><trkpt lat="37.87035" lon="-122.53987"><ele>186.0</ele></trkpt><trkpt lat="37.86921" lon="-122.53927"><ele>198.0</ele></trkpt><trkpt lat="37.86862" lon="-122.53858"><ele>190.0</ele></trkpt><trkpt lat="37.86790" lon="-122.53835"><ele>179.0</ele></trkpt><trkpt lat="37.86742" lon="-122.53795"><ele>167.0</ele></trkpt><trkpt lat="37.86697" lon="-122.53817"><ele>158.0</ele></trkpt><trkpt lat="37.86657" lon="-122.53757"><ele>141.0</ele></trkpt><trkpt lat="37.86604" lon="-122.53725"><ele>129.0</ele></trkpt><trkpt lat="37.86584" lon="-122.53723"><ele>125.0</ele></trkpt><trkpt lat="37.86536" lon="-122.53767"><ele>117.0</ele></trkpt><trkpt lat="37.86430" lon="-122.53755"><ele>103.0</ele></trkpt><trkpt lat="37.86474" lon="-122.53796"><ele>95.0</ele></trkpt><trkpt lat="37.86495" lon="-122.53849"><ele>89.0</ele></trkpt><trkpt lat="37.86516" lon="-122.53864"><ele>85.0</ele></trkpt><trkpt lat="37.86488" lon="-122.53868"><ele>81.0</ele></trkpt><trkpt lat="37.86351" lon="-122.53814"><ele>69.0</ele></trkpt><trkpt lat="37.86234" lon="-122.53709"><ele>60.0</ele></trkpt><trkpt lat="37.86193" lon="-122.53653"><ele>54.0</ele></trkpt><trkpt lat="37.86199" lon="-122.53534"><ele>44.0</ele></trkpt><trkpt lat="37.86166" lon="-122.53532"><ele>44.0</ele></trkpt><trkpt lat="37.86082" lon="-122.53585"><ele>47.0</ele></trkpt><trkpt lat="37.86068" lon="-122.53574"><ele>47.0</ele></trkpt><trkpt lat="37.86059" lon="-122.53542"><ele>47.0</ele></trkpt><trkpt lat="37.86066" lon="-122.53505"><ele>49.0</ele></trkpt><trkpt lat="37.86145" lon="-122.53439"><ele>60.0</ele></trkpt><trkpt lat="37.86232" lon="-122.53277"><ele>75.0</ele></trkpt><trkpt lat="37.86291" lon="-122.53211"><ele>85.0</ele></trkpt><trkpt lat="37.86421" lon="-122.53110"><ele>102.0</ele></trkpt><trkpt lat="37.86460" lon="-122.53049"><ele>109.0</ele></trkpt><trkpt lat="37.86514" lon="-122.52885"><ele>123.0</ele></trkpt><trkpt lat="37.86504" lon="-122.52771"><ele>134.0</ele></trkpt><trkpt lat="37.86454" lon="-122.52688"><ele>142.0</ele></trkpt><trkpt lat="37.86299" lon="-122.52573"><ele>161.0</ele></trkpt><trkpt lat="37.86199" lon="-122.52449"><ele>177.0</ele></trkpt><trkpt lat="37.86100" lon="-122.52195"><ele>201.0</ele></trkpt><trkpt lat="37.86068" lon="-122.52147"><ele>206.0</ele></trkpt><trkpt lat="37.85985" lon="-122.52110"><ele>215.0</ele></trkpt><trkpt lat="37.85873" lon="-122.52130"><ele>224.0</ele></trkpt><trkpt lat="37.85820" lon="-122.52114"><ele>228.0</ele></trkpt><trkpt lat="37.85774" lon="-122.52067"><ele>233.0</ele></trkpt><trkpt lat="37.85732" lon="-122.51979"><ele>238.0</ele></trkpt><trkpt lat="37.85689" lon="-122.51829"><ele>252.0</ele></trkpt><trkpt lat="37.85682" lon="-122.51652"><ele>251.0</ele></trkpt><trkpt lat="37.85605" lon="-122.51435"><ele>238.0</ele></trkpt><trkpt lat="37.85581" lon="-122.51328"><ele>231.0</ele></trkpt><trkpt lat="37.85512" lon="-122.51213"><ele>222.0</ele></trkpt><trkpt lat="37.85492" lon="-122.51153"><ele>221.0</ele></trkpt><trkpt lat="37.85499" lon="-122.51115"><ele>219.0</ele></trkpt><trkpt lat="37.85541" lon="-122.51081"><ele>215.0</ele></trkpt><trkpt lat="37.85576" lon="-122.50958"><ele>211.0</ele></trkpt><trkpt lat="37.85586" lon="-122.50852"><ele>200.0</ele></trkpt><trkpt lat="37.85578" lon="-122.50768"><ele>197.0</ele></trkpt><trkpt lat="37.85543" lon="-122.50644"><ele>204.0</ele></trkpt><trkpt lat="37.85473" lon="-122.50471"><ele>207.0</ele></trkpt><trkpt lat="37.85490" lon="-122.50450"><ele>210.0</ele></trkpt><trkpt lat="37.85433" lon="-122.50284"><ele>217.0</ele></trkpt><trkpt lat="37.85428" lon="-122.50213"><ele>220.0</ele></trkpt><trkpt lat="37.85383" lon="-122.50151"><ele>226.0</ele></trkpt><trkpt lat="37.85378" lon="-122.50086"><ele>231.0</ele></trkpt><trkpt lat="37.85346" lon="-122.50063"><ele>235.0</ele></trkpt><trkpt lat="37.85305" lon="-122.49966"><ele>245.0</ele></trkpt><trkpt lat="37.85305" lon="-122.49870"><ele>250.0</ele></trkpt><trkpt lat="37.85263" lon="-122.49816"><ele>254.0</ele></trkpt><trkpt lat="37.85281" lon="-122.49756"><ele>255.0</ele></trkpt><trkpt lat="37.85275" lon="-122.49673"><ele>254.0</ele></trkpt><trkpt lat="37.85251" lon="-122.49652"><ele>254.0</ele></trkpt><trkpt lat="37.85204" lon="-122.49658"><ele>253.0</ele></trkpt><trkpt lat="37.85153" lon="-122.49610"><ele>253.0</ele></trkpt><trkpt lat="37.85108" lon="-122.49597"><ele>252.0</ele></trkpt><trkpt lat="37.85077" lon="-122.49556"><ele>250.0</ele></trkpt><trkpt lat="37.85052" lon="-122.49563"><ele>252.0</ele></trkpt><trkpt lat="37.84990" lon="-122.49514"><ele>252.0</ele></trkpt><trkpt lat="37.84974" lon="-122.49467"><ele>252.0</ele></trkpt><trkpt lat="37.85009" lon="-122.49405"><ele>248.0</ele></trkpt><trkpt lat="37.84960" lon="-122.49341"><ele>246.0</ele></trkpt><trkpt lat="37.84856" lon="-122.49294"><ele>245.0</ele></trkpt><trkpt lat="37.84819" lon="-122.49216"><ele>242.0</ele></trkpt><trkpt lat="37.84782" lon="-122.49206"><ele>242.0</ele></trkpt><trkpt lat="37.84704" lon="-122.49146"><ele>238.0</ele></trkpt><trkpt lat="37.84626" lon="-122.49116"><ele>235.0</ele></trkpt><trkpt lat="37.84609" lon="-122.49077"><ele>232.0</ele></trkpt><trkpt lat="37.84633" lon="-122.49016"><ele>226.0</ele></trkpt><trkpt lat="37.84595" lon="-122.48919"><ele>227.0</ele></trkpt><trkpt lat="37.84557" lon="-122.48874"><ele>230.0</ele></trkpt><trkpt lat="37.84509" lon="-122.48786"><ele>229.0</ele></trkpt><trkpt lat="37.84371" lon="-122.48793"><ele>227.0</ele></trkpt><trkpt lat="37.84216" lon="-122.48856"><ele>214.0</ele></trkpt><trkpt lat="37.84021" lon="-122.48902"><ele>193.0</ele></trkpt><trkpt lat="37.83927" lon="-122.48987"><ele>193.0</ele></trkpt><trkpt lat="37.83862" lon="-122.48998"><ele>200.0</ele></trkpt><trkpt lat="37.83866" lon="-122.49031"><ele>207.0</ele></trkpt><trkpt lat="37.83844" lon="-122.49074"><ele>214.0</ele></trkpt><trkpt lat="37.83841" lon="-122.49178"><ele>225.0</ele></trkpt><trkpt lat="37.83823" lon="-122.49205"><ele>229.0</ele></trkpt><trkpt lat="37.83787" lon="-122.49219"><ele>226.0</ele></trkpt><trkpt lat="37.83688" lon="-122.49192"><ele>213.0</ele></trkpt><trkpt lat="37.83653" lon="-122.49222"><ele>212.0</ele></trkpt><trkpt lat="37.83593" lon="-122.49228"><ele>203.0</ele></trkpt><trkpt lat="37.83553" lon="-122.49250"><ele>196.0</ele></trkpt><trkpt lat="37.83530" lon="-122.49300"><ele>186.0</ele></trkpt><trkpt lat="37.83532" lon="-122.49357"><ele>177.0</ele></trkpt><trkpt lat="37.83518" lon="-122.49389"><ele>171.0</ele></trkpt><trkpt lat="37.83461" lon="-122.49453"><ele>156.0</ele></trkpt><trkpt lat="37.83397" lon="-122.49437"><ele>160.0</ele></trkpt><trkpt lat="37.83385" lon="-122.49470"><ele>163.0</ele></trkpt><trkpt lat="37.83420" lon="-122.49616"><ele>159.0</ele></trkpt><trkpt lat="37.83466" lon="-122.49749"><ele>153.0</ele></trkpt><trkpt lat="37.83461" lon="-122.49805"><ele>149.0</ele></trkpt><trkpt lat="37.83442" lon="-122.49829"><ele>146.0</ele></trkpt><trkpt lat="37.83366" lon="-122.49833"><ele>142.0</ele></trkpt><trkpt lat="37.83275" lon="-122.49935"><ele>136.0</ele></trkpt><trkpt lat="37.83298" lon="-122.49980"><ele>134.0</ele></trkpt><trkpt lat="37.83397" lon="-122.50072"><ele>127.0</ele></trkpt><trkpt lat="37.83441" lon="-122.50131"><ele>124.0</ele></trkpt><trkpt lat="37.83450" lon="-122.50155"><ele>123.0</ele></trkpt><trkpt lat="37.83443" lon="-122.50182"><ele>121.0</ele></trkpt><trkpt lat="37.83413" lon="-122.50212"><ele>119.0</ele></trkpt><trkpt lat="37.83333" lon="-122.50194"><ele>115.0</ele></trkpt><trkpt lat="37.83282" lon="-122.50242"><ele>111.0</ele></trkpt><trkpt lat="37.83266" lon="-122.50305"><ele>108.0</ele></trkpt><trkpt lat="37.83270" lon="-122.50411"><ele>104.0</ele></trkpt><trkpt lat="37.83217" lon="-122.50525"><ele>96.0</ele></trkpt><trkpt lat="37.83123" lon="-122.50433"><ele>86.0</ele></trkpt><trkpt lat="37.83041" lon="-122.50321"><ele>77.0</ele></trkpt><trkpt lat="37.83026" lon="-122.50326"><ele>76.0</ele></trkpt><trkpt lat="37.83041" lon="-122.50693"><ele>47.0</ele></trkpt><trkpt lat="37.83177" lon="-122.51236"><ele>18.0</ele></trkpt><trkpt lat="37.83167" lon="-122.51351"><ele>13.0</ele></trkpt><trkpt lat="37.83178" lon="-122.51471"><ele>10.0</ele></trkpt><trkpt lat="37.83229" lon="-122.51529"><ele>5.0</ele></trkpt><trkpt lat="37.83266" lon="-122.51490"><ele>4.0</ele></trkpt><trkpt lat="37.83323" lon="-122.51474"><ele>6.0</ele></trkpt><trkpt lat="37.83327" lon="-122.51308"><ele>12.0</ele></trkpt><trkpt lat="37.83362" lon="-122.51087"><ele>16.0</ele></trkpt><trkpt lat="37.83449" lon="-122.50865"><ele>22.0</ele></trkpt><trkpt lat="37.83533" lon="-122.50768"><ele>26.0</ele></trkpt><trkpt lat="37.83564" lon="-122.50614"><ele>31.0</ele></trkpt><trkpt lat="37.83588" lon="-122.50561"><ele>32.0</ele></trkpt><trkpt lat="37.83751" lon="-122.50401"><ele>38.0</ele></trkpt><trkpt lat="37.83907" lon="-122.50297"><ele>53.0</ele></trkpt><trkpt lat="37.83964" lon="-122.50283"><ele>56.0</ele></trkpt><trkpt lat="37.84078" lon="-122.50301"><ele>63.0</ele></trkpt><trkpt lat="37.84155" lon="-122.50348"><ele>74.0</ele></trkpt><trkpt lat="37.84220" lon="-122.50296"><ele>82.0</ele></trkpt><trkpt lat="37.84264" lon="-122.50279"><ele>85.0</ele></trkpt><trkpt lat="37.84294" lon="-122.50103"><ele>101.0</ele></trkpt><trkpt lat="37.84229" lon="-122.50069"><ele>110.0</ele></trkpt><trkpt lat="37.84216" lon="-122.50000"><ele>118.0</ele></trkpt><trkpt lat="37.84231" lon="-122.49916"><ele>127.0</ele></trkpt><trkpt lat="37.84281" lon="-122.49874"><ele>136.0</ele></trkpt><trkpt lat="37.84304" lon="-122.49865"><ele>140.0</ele></trkpt><trkpt lat="37.84363" lon="-122.49878"><ele>148.0</ele></trkpt><trkpt lat="37.84439" lon="-122.49871"><ele>158.0</ele></trkpt><trkpt lat="37.84660" lon="-122.49886"><ele>187.0</ele></trkpt><trkpt lat="37.84693" lon="-122.49854"><ele>192.0</ele></trkpt><trkpt lat="37.84696" lon="-122.49805"><ele>197.0</ele></trkpt><trkpt lat="37.84748" lon="-122.49776"><ele>204.0</ele></trkpt><trkpt lat="37.84753" lon="-122.49742"><ele>207.0</ele></trkpt><trkpt lat="37.84777" lon="-122.49720"><ele>210.0</ele></trkpt><trkpt lat="37.84807" lon="-122.49662"><ele>217.0</ele></trkpt><trkpt lat="37.84882" lon="-122.49645"><ele>229.0</ele></trkpt><trkpt lat="37.84908" lon="-122.49654"><ele>233.0</ele></trkpt><trkpt lat="37.84940" lon="-122.49637"><ele>237.0</ele></trkpt><trkpt lat="37.84976" lon="-122.49572"><ele>245.0</ele></trkpt><trkpt lat="37.85025" lon="-122.49543"><ele>251.0</ele></trkpt><trkpt lat="37.85057" lon="-122.49565"><ele>253.0</ele></trkpt><trkpt lat="37.85071" lon="-122.49555"><ele>251.0</ele></trkpt><trkpt lat="37.85107" lon="-122.49600"><ele>252.0</ele></trkpt><trkpt lat="37.85153" lon="-122.49614"><ele>254.0</ele></trkpt><trkpt lat="37.85195" lon="-122.49661"><ele>253.0</ele></trkpt><trkpt lat="37.85237" lon="-122.49653"><ele>253.0</ele></trkpt><trkpt lat="37.85269" lon="-122.49680"><ele>255.0</ele></trkpt><trkpt lat="37.85281" lon="-122.49753"><ele>254.0</ele></trkpt><trkpt lat="37.85261" lon="-122.49810"><ele>254.0</ele></trkpt><trkpt lat="37.85310" lon="-122.49884"><ele>252.0</ele></trkpt><trkpt lat="37.85303" lon="-122.49966"><ele>246.0</ele></trkpt><trkpt lat="37.85348" lon="-122.50067"><ele>238.0</ele></trkpt><trkpt lat="37.85375" lon="-122.50086"><ele>234.0</ele></trkpt><trkpt lat="37.85383" lon="-122.50153"><ele>228.0</ele></trkpt><trkpt lat="37.85429" lon="-122.50218"><ele>221.0</ele></trkpt><trkpt lat="37.85433" lon="-122.50284"><ele>218.0</ele></trkpt><trkpt lat="37.85489" lon="-122.50451"><ele>211.0</ele></trkpt><trkpt lat="37.85473" lon="-122.50475"><ele>209.0</ele></trkpt><trkpt lat="37.85548" lon="-122.50662"><ele>206.0</ele></trkpt><trkpt lat="37.85582" lon="-122.50795"><ele>197.0</ele></trkpt><trkpt lat="37.85570" lon="-122.50975"><ele>212.0</ele></trkpt><trkpt lat="37.85539" lon="-122.51087"><ele>214.0</ele></trkpt><trkpt lat="37.85498" lon="-122.51117"><ele>219.0</ele></trkpt><trkpt lat="37.85491" lon="-122.51148"><ele>221.0</ele></trkpt><trkpt lat="37.85510" lon="-122.51211"><ele>222.0</ele></trkpt><trkpt lat="37.85583" lon="-122.51333"><ele>231.0</ele></trkpt><trkpt lat="37.85625" lon="-122.51504"><ele>240.0</ele></trkpt><trkpt lat="37.85679" lon="-122.51649"><ele>248.0</ele></trkpt><trkpt lat="37.85684" lon="-122.51695"><ele>254.0</ele></trkpt><trkpt lat="37.85664" lon="-122.51765"><ele>259.0</ele></trkpt><trkpt lat="37.85661" lon="-122.51904"><ele>269.0</ele></trkpt><trkpt lat="37.85622" lon="-122.52034"><ele>277.0</ele></trkpt><trkpt lat="37.85639" lon="-122.52164"><ele>292.0</ele></trkpt><trkpt lat="37.85665" lon="-122.52187"><ele>292.0</ele></trkpt><trkpt lat="37.85666" lon="-122.52205"><ele>291.0</ele></trkpt><trkpt lat="37.85612" lon="-122.52282"><ele>282.0</ele></trkpt><trkpt lat="37.85580" lon="-122.52366"><ele>284.0</ele></trkpt><trkpt lat="37.85505" lon="-122.52424"><ele>289.0</ele></trkpt><trkpt lat="37.85462" lon="-122.52494"><ele>284.0</ele></trkpt><trkpt lat="37.85229" lon="-122.52399"><ele>241.0</ele></trkpt><trkpt lat="37.85193" lon="-122.52443"><ele>230.0</ele></trkpt><trkpt lat="37.85115" lon="-122.52473"><ele>211.0</ele></trkpt><trkpt lat="37.85004" lon="-122.52594"><ele>182.0</ele></trkpt><trkpt lat="37.85003" lon="-122.52620"><ele>178.0</ele></trkpt><trkpt lat="37.85022" lon="-122.52656"><ele>177.0</ele></trkpt><trkpt lat="37.85012" lon="-122.52702"><ele>177.0</ele></trkpt><trkpt lat="37.85050" lon="-122.52800"><ele>178.0</ele></trkpt><trkpt lat="37.85134" lon="-122.52844"><ele>178.0</ele></trkpt><trkpt lat="37.85196" lon="-122.53001"><ele>174.0</ele></trkpt><trkpt lat="37.85257" lon="-122.53061"><ele>170.0</ele></trkpt><trkpt lat="37.85251" lon="-122.53161"><ele>166.0</ele></trkpt><trkpt lat="37.85262" lon="-122.53189"><ele>165.0</ele></trkpt><trkpt lat="37.85318" lon="-122.53229"><ele>164.0</ele></trkpt><trkpt lat="37.85327" lon="-122.53278"><ele>159.0</ele></trkpt><trkpt lat="37.85371" lon="-122.53327"><ele>152.0</ele></trkpt><trkpt lat="37.85454" lon="-122.53285"><ele>137.0</ele></trkpt><trkpt lat="37.85501" lon="-122.53289"><ele>134.0</ele></trkpt><trkpt lat="37.85546" lon="-122.53269"><ele>133.0</ele></trkpt><trkpt lat="37.85586" lon="-122.53313"><ele>127.0</ele></trkpt><trkpt lat="37.85632" lon="-122.53447"><ele>117.0</ele></trkpt><trkpt lat="37.85695" lon="-122.53517"><ele>108.0</ele></trkpt><trkpt lat="37.85715" lon="-122.53496"><ele>104.0</ele></trkpt><trkpt lat="37.85712" lon="-122.53427"><ele>98.0</ele></trkpt><trkpt lat="37.85745" lon="-122.53366"><ele>92.0</ele></trkpt><trkpt lat="37.85776" lon="-122.53348"><ele>90.0</ele></trkpt><trkpt lat="37.85836" lon="-122.53346"><ele>84.0</ele></trkpt><trkpt lat="37.85886" lon="-122.53308"><ele>78.0</ele></trkpt><trkpt lat="37.85887" lon="-122.53328"><ele>75.0</ele></trkpt><trkpt lat="37.85830" lon="-122.53416"><ele>67.0</ele></trkpt><trkpt lat="37.85963" lon="-122.53401"><ele>55.0</ele></trkpt><trkpt lat="37.86006" lon="-122.53461"><ele>57.0</ele></trkpt><trkpt lat="37.86052" lon="-122.53497"><ele>54.0</ele></trkpt><trkpt lat="37.86063" lon="-122.53565"><ele>49.0</ele></trkpt><trkpt lat="37.86079" lon="-122.53584"><ele>48.0</ele></trkpt><trkpt lat="37.85979" lon="-122.53701"><ele>45.0</ele></trkpt><trkpt lat="37.85839" lon="-122.53797"><ele>39.0</ele></trkpt><trkpt lat="37.85769" lon="-122.53881"><ele>37.0</ele></trkpt><trkpt lat="37.85730" lon="-122.53904"><ele>36.0</ele></trkpt><trkpt lat="37.85460" lon="-122.53972"><ele>30.0</ele></trkpt><trkpt lat="37.85225" lon="-122.53862"><ele>22.0</ele></trkpt><trkpt lat="37.85126" lon="-122.53855"><ele>21.0</ele></trkpt><trkpt lat="37.85072" lon="-122.53875"><ele>20.0</ele></trkpt><trkpt lat="37.84984" lon="-122.53969"><ele>22.0</ele></trkpt><trkpt lat="37.84927" lon="-122.54077"><ele>17.0</ele></trkpt><trkpt lat="37.84914" lon="-122.54159"><ele>14.0</ele></trkpt><trkpt lat="37.84916" lon="-122.54239"><ele>13.0</ele></trkpt><trkpt lat="37.84933" lon="-122.54327"><ele>16.0</ele></trkpt><trkpt lat="37.84930" lon="-122.54401"><ele>18.0</ele></trkpt><trkpt lat="37.84953" lon="-122.54470"><ele>18.0</ele></trkpt><trkpt lat="37.84951" lon="-122.54523"><ele>17.0</ele></trkpt><trkpt lat="37.84906" lon="-122.54589"><ele>23.0</ele></trkpt><trkpt lat="37.84853" lon="-122.54766"><ele>43.0</ele></trkpt><trkpt lat="37.84808" lon="-122.55039"><ele>72.0</ele></trkpt><trkpt lat="37.84824" lon="-122.55105"><ele>82.0</ele></trkpt><trkpt lat="37.84874" lon="-122.55120"><ele>89.0</ele></trkpt><trkpt lat="37.84872" lon="-122.55174"><ele>98.0</ele></trkpt><trkpt lat="37.84934" lon="-122.55295"><ele>113.0</ele></trkpt><trkpt lat="37.85019" lon="-122.55392"><ele>124.0</ele></trkpt><trkpt lat="37.85024" lon="-122.55438"><ele>129.0</ele></trkpt><trkpt lat="37.84996" lon="-122.55552"><ele>147.0</ele></trkpt><trkpt lat="37.84995" lon="-122.55655"><ele>159.0</ele></trkpt><trkpt lat="37.85127" lon="-122.55765"><ele>137.0</ele></trkpt><trkpt lat="37.85151" lon="-122.55807"><ele>126.0</ele></trkpt><trkpt lat="37.85164" lon="-122.55844"><ele>118.0</ele></trkpt><trkpt lat="37.85144" lon="-122.55924"><ele>103.0</ele></trkpt><trkpt lat="37.85151" lon="-122.56004"><ele>82.0</ele></trkpt><trkpt lat="37.85231" lon="-122.55993"><ele>63.0</ele></trkpt><trkpt lat="37.85240" lon="-122.56019"><ele>57.0</ele></trkpt><trkpt lat="37.85223" lon="-122.56052"><ele>45.0</ele></trkpt><trkpt lat="37.85228" lon="-122.56085"><ele>31.0</ele></trkpt><trkpt lat="37.85257" lon="-122.56037"><ele>35.0</ele></trkpt><trkpt lat="37.85270" lon="-122.55970"><ele>44.0</ele></trkpt><trkpt lat="37.85311" lon="-122.55875"><ele>56.0</ele></trkpt><trkpt lat="37.85391" lon="-122.55828"><ele>74.0</ele></trkpt><trkpt lat="37.85395" lon="-122.55884"><ele>76.0</ele></trkpt><trkpt lat="37.85356" lon="-122.55939"><ele>84.0</ele></trkpt><trkpt lat="37.85346" lon="-122.55979"><ele>84.0</ele></trkpt><trkpt lat="37.85376" lon="-122.56136"><ele>87.0</ele></trkpt><trkpt lat="37.85362" lon="-122.56218"><ele>93.0</ele></trkpt><trkpt lat="37.85386" lon="-122.56212"><ele>100.0</ele></trkpt><trkpt lat="37.85407" lon="-122.56259"><ele>100.0</ele></trkpt><trkpt lat="37.85453" lon="-122.56256"><ele>95.0</ele></trkpt><trkpt lat="37.85487" lon="-122.56280"><ele>91.0</ele></trkpt><trkpt lat="37.85532" lon="-122.56280"><ele>89.0</ele></trkpt><trkpt lat="37.85559" lon="-122.56313"><ele>88.0</ele></trkpt><trkpt lat="37.85618" lon="-122.56319"><ele>93.0</ele></trkpt><trkpt lat="37.85570" lon="-122.56489"><ele>92.0</ele></trkpt><trkpt lat="37.85597" lon="-122.56553"><ele>85.0</ele></trkpt><trkpt lat="37.85563" lon="-122.56605"><ele>87.0</ele></trkpt><trkpt lat="37.85555" lon="-122.56651"><ele>92.0</ele></trkpt><trkpt lat="37.85565" lon="-122.56683"><ele>95.0</ele></trkpt><trkpt lat="37.85616" lon="-122.56738"><ele>92.0</ele></trkpt><trkpt lat="37.85589" lon="-122.56779"><ele>93.0</ele></trkpt><trkpt lat="37.85580" lon="-122.56818"><ele>100.0</ele></trkpt><trkpt lat="37.85599" lon="-122.56805"><ele>104.0</ele></trkpt><trkpt lat="37.85627" lon="-122.56874"><ele>112.0</ele></trkpt><trkpt lat="37.85683" lon="-122.57090"><ele>104.0</ele></trkpt><trkpt lat="37.85738" lon="-122.57142"><ele>89.0</ele></trkpt><trkpt lat="37.85767" lon="-122.57221"><ele>74.0</ele></trkpt><trkpt lat="37.85867" lon="-122.57330"><ele>48.0</ele></trkpt><trkpt lat="37.85928" lon="-122.57368"><ele>33.0</ele></trkpt><trkpt lat="37.85956" lon="-122.57342"><ele>28.0</ele></trkpt><trkpt lat="37.85937" lon="-122.57207"><ele>11.0</ele></trkpt><trkpt lat="37.85977" lon="-122.57211"><ele>6.0</ele></trkpt><trkpt lat="37.86014" lon="-122.57232"><ele>0.0</ele></trkpt><trkpt lat="37.86057" lon="-122.57288"><ele>-7.0</ele></trkpt><trkpt lat="37.86028" lon="-122.57301"><ele>-8.0</ele></trkpt><trkpt lat="37.86035" lon="-122.57377"><ele>-7.0</ele></trkpt><trkpt lat="37.86021" lon="-122.57431"><ele>-9.0</ele></trkpt><trkpt lat="37.86116" lon="-122.57550"><ele>-10.0</ele></trkpt><trkpt lat="37.86022" lon="-122.57430"><ele>-10.0</ele></trkpt><trkpt lat="37.86035" lon="-122.57366"><ele>-10.0</ele></trkpt><trkpt lat="37.86029" lon="-122.57298"><ele>-8.0</ele></trkpt><trkpt lat="37.86059" lon="-122.57291"><ele>-8.0</ele></trkpt><trkpt lat="37.86104" lon="-122.57314"><ele>-9.0</ele></trkpt><trkpt lat="37.86175" lon="-122.57302"><ele>-9.0</ele></trkpt><trkpt lat="37.86197" lon="-122.57274"><ele>-9.0</ele></trkpt><trkpt lat="37.86232" lon="-122.57154"><ele>-7.0</ele></trkpt><trkpt lat="37.86260" lon="-122.57151"><ele>-8.0</ele></trkpt><trkpt lat="37.86311" lon="-122.57196"><ele>-7.0</ele></trkpt><trkpt lat="37.86304" lon="-122.57272"><ele>-9.0</ele></trkpt><trkpt lat="37.86316" lon="-122.57308"><ele>-9.0</ele></trkpt><trkpt lat="37.86373" lon="-122.57394"><ele>-10.0</ele></trkpt><trkpt lat="37.86413" lon="-122.57428"><ele>-10.0</ele></trkpt><trkpt lat="37.86429" lon="-122.57472"><ele>-10.0</ele></trkpt><trkpt lat="37.86486" lon="-122.57471"><ele>-8.0</ele></trkpt><trkpt lat="37.86627" lon="-122.57609"><ele>-8.0</ele></trkpt><trkpt lat="37.86727" lon="-122.57757"><ele>-6.0</ele></trkpt><trkpt lat="37.86742" lon="-122.57771"><ele>-6.0</ele></trkpt><trkpt lat="37.86743" lon="-122.57759"><ele>-4.0</ele></trkpt><trkpt lat="37.86875" lon="-122.57899"><ele>5.0</ele></trkpt><trkpt lat="37.86920" lon="-122.57898"><ele>4.0</ele></trkpt><trkpt lat="37.86930" lon="-122.58003"><ele>8.0</ele></trkpt><trkpt lat="37.86955" lon="-122.58046"><ele>11.0</ele></trkpt><trkpt lat="37.86987" lon="-122.58065"><ele>12.0</ele></trkpt><trkpt lat="37.87006" lon="-122.58104"><ele>15.0</ele></trkpt><trkpt lat="37.87025" lon="-122.58107"><ele>15.0</ele></trkpt><trkpt lat="37.87076" lon="-122.58069"><ele>13.0</ele></trkpt><trkpt lat="37.87104" lon="-122.58117"><ele>15.0</ele></trkpt><trkpt lat="37.87147" lon="-122.58141"><ele>13.0</ele></trkpt><trkpt lat="37.87201" lon="-122.58111"><ele>13.0</ele></trkpt><trkpt lat="37.87239" lon="-122.58207"><ele>13.0</ele></trkpt><trkpt lat="37.87298" lon="-122.58244"><ele>13.0</ele></trkpt><trkpt lat="37.87360" lon="-122.58247"><ele>12.0</ele></trkpt><trkpt lat="37.87374" lon="-122.58270"><ele>10.0</ele></trkpt><trkpt lat="37.87335" lon="-122.58263"><ele>7.0</ele></trkpt><trkpt lat="37.87350" lon="-122.58271"><ele>5.0</ele></trkpt><trkpt lat="37.87309" lon="-122.58351"><ele>-1.0</ele></trkpt><trkpt lat="37.87434" lon="-122.58404"><ele>0.0</ele></trkpt><trkpt lat="37.87464" lon="-122.58432"><ele>1.0</ele></trkpt><trkpt lat="37.87436" lon="-122.58480"><ele>5.0</ele></trkpt><trkpt lat="37.87407" lon="-122.58502"><ele>9.0</ele></trkpt><trkpt lat="37.87397" lon="-122.58537"><ele>11.0</ele></trkpt><trkpt lat="37.87405" lon="-122.58589"><ele>14.0</ele></trkpt><trkpt lat="37.87396" lon="-122.58610"><ele>17.0</ele></trkpt><trkpt lat="37.87418" lon="-122.58592"><ele>20.0</ele></trkpt><trkpt lat="37.87423" lon="-122.58605"><ele>22.0</ele></trkpt><trkpt lat="37.87393" lon="-122.58653"><ele>26.0</ele></trkpt><trkpt lat="37.87403" lon="-122.58637"><ele>27.0</ele></trkpt><trkpt lat="37.87399" lon="-122.58664"><ele>30.0</ele></trkpt><trkpt lat="37.87404" lon="-122.58652"><ele>31.0</ele></trkpt><trkpt lat="37.87426" lon="-122.58718"><ele>38.0</ele></trkpt><trkpt lat="37.87383" lon="-122.58701"><ele>40.0</ele></trkpt><trkpt lat="37.87436" lon="-122.58746"><ele>46.0</ele></trkpt><trkpt lat="37.87442" lon="-122.58692"><ele>48.0</ele></trkpt><trkpt lat="37.87445" lon="-122.58734"><ele>53.0</ele></trkpt><trkpt lat="37.87453" lon="-122.58710"><ele>55.0</ele></trkpt><trkpt lat="37.87458" lon="-122.58772"><ele>59.0</ele></trkpt><trkpt lat="37.87435" lon="-122.58779"><ele>61.0</ele></trkpt><trkpt lat="37.87418" lon="-122.58763"><ele>62.0</ele></trkpt><trkpt lat="37.87436" lon="-122.58791"><ele>65.0</ele></trkpt><trkpt lat="37.87490" lon="-122.58801"><ele>70.0</ele></trkpt><trkpt lat="37.87477" lon="-122.58763"><ele>73.0</ele></trkpt><trkpt lat="37.87481" lon="-122.58728"><ele>74.0</ele></trkpt><trkpt lat="37.87484" lon="-122.58763"><ele>75.0</ele></trkpt><trkpt lat="37.87503" lon="-122.58801"><ele>78.0</ele></trkpt><trkpt lat="37.87491" lon="-122.58759"><ele>80.0</ele></trkpt><trkpt lat="37.87496" lon="-122.58726"><ele>81.0</ele></trkpt><trkpt lat="37.87498" lon="-122.58761"><ele>84.0</ele></trkpt><trkpt lat="37.87516" lon="-122.58798"><ele>88.0</ele></trkpt><trkpt lat="37.87505" lon="-122.58757"><ele>91.0</ele></trkpt><trkpt lat="37.87520" lon="-122.58776"><ele>92.0</ele></trkpt><trkpt lat="37.87539" lon="-122.58834"><ele>97.0</ele></trkpt><trkpt lat="37.87537" lon="-122.58889"><ele>104.0</ele></trkpt><trkpt lat="37.87495" lon="-122.58874"><ele>109.0</ele></trkpt><trkpt lat="37.87531" lon="-122.58907"><ele>113.0</ele></trkpt><trkpt lat="37.87511" lon="-122.58898"><ele>115.0</ele></trkpt><trkpt lat="37.87532" lon="-122.58932"><ele>119.0</ele></trkpt><trkpt lat="37.87495" lon="-122.58908"><ele>123.0</ele></trkpt><trkpt lat="37.87464" lon="-122.58946"><ele>124.0</ele></trkpt><trkpt lat="37.87422" lon="-122.58959"><ele>128.0</ele></trkpt><trkpt lat="37.87385" lon="-122.59027"><ele>133.0</ele></trkpt><trkpt lat="37.87330" lon="-122.59082"><ele>139.0</ele></trkpt><trkpt lat="37.87373" lon="-122.59126"><ele>142.0</ele></trkpt><trkpt lat="37.87481" lon="-122.59172"><ele>152.0</ele></trkpt><trkpt lat="37.87600" lon="-122.59247"><ele>159.0</ele></trkpt><trkpt lat="37.87649" lon="-122.59293"><ele>166.0</ele></trkpt><trkpt lat="37.87678" lon="-122.59350"><ele>171.0</ele></trkpt><trkpt lat="37.87697" lon="-122.59277"><ele>180.0</ele></trkpt><trkpt lat="37.87711" lon="-122.59266"><ele>181.0</ele></trkpt><trkpt lat="37.87755" lon="-122.59282"><ele>185.0</ele></trkpt><trkpt lat="37.87765" lon="-122.59336"><ele>190.0</ele></trkpt><trkpt lat="37.87869" lon="-122.59329"><ele>200.0</ele></trkpt><trkpt lat="37.87898" lon="-122.59359"><ele>202.0</ele></trkpt><trkpt lat="37.87931" lon="-122.59353"><ele>205.0</ele></trkpt><trkpt lat="37.87964" lon="-122.59378"><ele>210.0</ele></trkpt><trkpt lat="37.88072" lon="-122.59359"><ele>220.0</ele></trkpt><trkpt lat="37.88098" lon="-122.59335"><ele>222.0</ele></trkpt><trkpt lat="37.88097" lon="-122.59377"><ele>225.0</ele></trkpt><trkpt lat="37.88113" lon="-122.59399"><ele>228.0</ele></trkpt><trkpt lat="37.88115" lon="-122.59374"><ele>229.0</ele></trkpt><trkpt lat="37.88155" lon="-122.59338"><ele>234.0</ele></trkpt><trkpt lat="37.88174" lon="-122.59271"><ele>240.0</ele></trkpt><trkpt lat="37.88297" lon="-122.59259"><ele>249.0</ele></trkpt><trkpt lat="37.88314" lon="-122.59231"><ele>250.0</ele></trkpt><trkpt lat="37.88317" lon="-122.59186"><ele>252.0</ele></trkpt><trkpt lat="37.88347" lon="-122.59171"><ele>256.0</ele></trkpt><trkpt lat="37.88400" lon="-122.59265"><ele>263.0</ele></trkpt><trkpt lat="37.88467" lon="-122.59313"><ele>268.0</ele></trkpt><trkpt lat="37.88490" lon="-122.59369"><ele>271.0</ele></trkpt><trkpt lat="37.88550" lon="-122.59362"><ele>271.0</ele></trkpt><trkpt lat="37.88598" lon="-122.59385"><ele>269.0</ele></trkpt><trkpt lat="37.88641" lon="-122.59360"><ele>267.0</ele></trkpt><trkpt lat="37.88671" lon="-122.59365"><ele>267.0</ele></trkpt><trkpt lat="37.88736" lon="-122.59348"><ele>271.0</ele></trkpt><trkpt lat="37.88815" lon="-122.59431"><ele>279.0</ele></trkpt><trkpt lat="37.88824" lon="-122.59459"><ele>282.0</ele></trkpt><trkpt lat="37.88877" lon="-122.59449"><ele>285.0</ele></trkpt><trkpt lat="37.88902" lon="-122.59479"><ele>288.0</ele></trkpt><trkpt lat="37.88957" lon="-122.59498"><ele>291.0</ele></trkpt><trkpt lat="37.88885" lon="-122.59522"><ele>299.0</ele></trkpt><trkpt lat="37.88853" lon="-122.59561"><ele>303.0</ele></trkpt><trkpt lat="37.88823" lon="-122.59571"><ele>305.0</ele></trkpt><trkpt lat="37.88843" lon="-122.59679"><ele>311.0</ele></trkpt><trkpt lat="37.88829" lon="-122.59787"><ele>319.0</ele></trkpt><trkpt lat="37.88851" lon="-122.59833"><ele>322.0</ele></trkpt><trkpt lat="37.89042" lon="-122.59834"><ele>329.0</ele></trkpt><trkpt lat="37.89136" lon="-122.59854"><ele>335.0</ele></trkpt><trkpt lat="37.89156" lon="-122.59799"><ele>338.0</ele></trkpt><trkpt lat="37.89257" lon="-122.59874"><ele>348.0</ele></trkpt><trkpt lat="37.89298" lon="-122.59824"><ele>352.0</ele></trkpt><trkpt lat="37.89341" lon="-122.59853"><ele>355.0</ele></trkpt><trkpt lat="37.89385" lon="-122.59832"><ele>357.0</ele></trkpt><trkpt lat="37.89400" lon="-122.59871"><ele>360.0</ele></trkpt><trkpt lat="37.89437" lon="-122.59885"><ele>362.0</ele></trkpt><trkpt lat="37.89435" lon="-122.59927"><ele>364.0</ele></trkpt><trkpt lat="37.89487" lon="-122.59957"><ele>367.0</ele></trkpt><trkpt lat="37.89578" lon="-122.60055"><ele>373.0</ele></trkpt><trkpt lat="37.89618" lon="-122.60074"><ele>378.0</ele></trkpt><trkpt lat="37.89702" lon="-122.60154"><ele>391.0</ele></trkpt><trkpt lat="37.89741" lon="-122.60137"><ele>395.0</ele></trkpt><trkpt lat="37.89764" lon="-122.60178"><ele>397.0</ele></trkpt><trkpt lat="37.89773" lon="-122.60255"><ele>405.0</ele></trkpt><trkpt lat="37.89798" lon="-122.60277"><ele>407.0</ele></trkpt><trkpt lat="37.89849" lon="-122.60284"><ele>411.0</ele></trkpt><trkpt lat="37.89853" lon="-122.60326"><ele>414.0</ele></trkpt><trkpt lat="37.89884" lon="-122.60350"><ele>415.0</ele></trkpt><trkpt lat="37.89898" lon="-122.60401"><ele>416.0</ele></trkpt><trkpt lat="37.90064" lon="-122.60395"><ele>416.0</ele></trkpt><trkpt lat="37.90097" lon="-122.60361"><ele>416.0</ele></trkpt><trkpt lat="37.90155" lon="-122.60407"><ele>416.0</ele></trkpt><trkpt lat="37.90186" lon="-122.60392"><ele>416.0</ele></trkpt><trkpt lat="37.90264" lon="-122.60403"><ele>420.0</ele></trkpt><trkpt lat="37.90297" lon="-122.60336"><ele>423.0</ele></trkpt><trkpt lat="37.90288" lon="-122.60380"><ele>426.0</ele></trkpt><trkpt lat="37.90296" lon="-122.60404"><ele>426.0</ele></trkpt><trkpt lat="37.90379" lon="-122.60424"><ele>429.0</ele></trkpt><trkpt lat="37.90384" lon="-122.60446"><ele>430.0</ele></trkpt><trkpt lat="37.90361" lon="-122.60498"><ele>437.0</ele></trkpt><trkpt lat="37.90400" lon="-122.60555"><ele>435.0</ele></trkpt><trkpt lat="37.90402" lon="-122.60602"><ele>436.0</ele></trkpt><trkpt lat="37.90455" lon="-122.60635"><ele>434.0</ele></trkpt><trkpt lat="37.90448" lon="-122.60710"><ele>431.0</ele></trkpt><trkpt lat="37.90459" lon="-122.60730"><ele>431.0</ele></trkpt><trkpt lat="37.90485" lon="-122.60734"><ele>429.0</ele></trkpt><trkpt lat="37.90476" lon="-122.60771"><ele>428.0</ele></trkpt><trkpt lat="37.90497" lon="-122.60825"><ele>427.0</ele></trkpt><trkpt lat="37.90525" lon="-122.60851"><ele>424.0</ele></trkpt><trkpt lat="37.90557" lon="-122.60858"><ele>421.0</ele></trkpt><trkpt lat="37.90539" lon="-122.60965"><ele>424.0</ele></trkpt><trkpt lat="37.90571" lon="-122.60987"><ele>426.0</ele></trkpt><trkpt lat="37.90589" lon="-122.61057"><ele>431.0</ele></trkpt><trkpt lat="37.90656" lon="-122.61132"><ele>439.0</ele></trkpt><trkpt lat="37.90644" lon="-122.61156"><ele>439.0</ele></trkpt><trkpt lat="37.90571" lon="-122.61179"><ele>440.0</ele></trkpt><trkpt lat="37.90573" lon="-122.61233"><ele>443.0</ele></trkpt><trkpt lat="37.90522" lon="-122.61217"><ele>444.0</ele></trkpt><trkpt lat="37.90447" lon="-122.61163"><ele>448.0</ele></trkpt><trkpt lat="37.90402" lon="-122.61177"><ele>449.0</ele></trkpt><trkpt lat="37.90376" lon="-122.61225"><ele>449.0</ele></trkpt><trkpt lat="37.90353" lon="-122.61239"><ele>449.0</ele></trkpt><trkpt lat="37.90352" lon="-122.61283"><ele>450.0</ele></trkpt><trkpt lat="37.90307" lon="-122.61361"><ele>453.0</ele></trkpt><trkpt lat="37.90322" lon="-122.61408"><ele>456.0</ele></trkpt><trkpt lat="37.90322" lon="-122.61468"><ele>457.0</ele></trkpt><trkpt lat="37.90302" lon="-122.61541"><ele>459.0</ele></trkpt><trkpt lat="37.90339" lon="-122.61584"><ele>458.0</ele></trkpt><trkpt lat="37.90375" lon="-122.61593"><ele>455.0</ele></trkpt><trkpt lat="37.90352" lon="-122.61619"><ele>455.0</ele></trkpt><trkpt lat="37.90355" lon="-122.61645"><ele>454.0</ele></trkpt><trkpt lat="37.90284" lon="-122.61661"><ele>459.0</ele></trkpt><trkpt lat="37.90292" lon="-122.61785"><ele>456.0</ele></trkpt><trkpt lat="37.90240" lon="-122.61763"><ele>456.0</ele></trkpt><trkpt lat="37.90212" lon="-122.61800"><ele>458.0</ele></trkpt><trkpt lat="37.90217" lon="-122.61829"><ele>456.0</ele></trkpt><trkpt lat="37.90251" lon="-122.61865"><ele>451.0</ele></trkpt><trkpt lat="37.90302" lon="-122.62003"><ele>440.0</ele></trkpt><trkpt lat="37.90409" lon="-122.62006"><ele>436.0</ele></trkpt><trkpt lat="37.90361" lon="-122.62069"><ele>433.0</ele></trkpt><trkpt lat="37.90344" lon="-122.62129"><ele>435.0</ele></trkpt><trkpt lat="37.90438" lon="-122.62164"><ele>444.0</ele></trkpt><trkpt lat="37.90423" lon="-122.62228"><ele>448.0</ele></trkpt><trkpt lat="37.90428" lon="-122.62252"><ele>448.0</ele></trkpt><trkpt lat="37.90500" lon="-122.62269"><ele>456.0</ele></trkpt><trkpt lat="37.90501" lon="-122.62328"><ele>462.0</ele></trkpt><trkpt lat="37.90531" lon="-122.62357"><ele>468.0</ele></trkpt><trkpt lat="37.90630" lon="-122.62301"><ele>479.0</ele></trkpt><trkpt lat="37.90637" lon="-122.62344"><ele>480.0</ele></trkpt><trkpt lat="37.90696" lon="-122.62471"><ele>489.0</ele></trkpt><trkpt lat="37.90747" lon="-122.62472"><ele>491.0</ele></trkpt><trkpt lat="37.90789" lon="-122.62426"><ele>488.0</ele></trkpt><trkpt lat="37.90789" lon="-122.62458"><ele>488.0</ele></trkpt><trkpt lat="37.90826" lon="-122.62541"><ele>491.0</ele></trkpt><trkpt lat="37.90928" lon="-122.62570"><ele>494.0</ele></trkpt><trkpt lat="37.90979" lon="-122.62648"><ele>498.0</ele></trkpt><trkpt lat="37.91049" lon="-122.62635"><ele>502.0</ele></trkpt><trkpt lat="37.91094" lon="-122.62692"><ele>509.0</ele></trkpt><trkpt lat="37.91191" lon="-122.62713"><ele>514.0</ele></trkpt><trkpt lat="37.91235" lon="-122.62665"><ele>518.0</ele></trkpt><trkpt lat="37.91314" lon="-122.62670"><ele>526.0</ele></trkpt><trkpt lat="37.91328" lon="-122.62735"><ele>526.0</ele></trkpt><trkpt lat="37.91370" lon="-122.62767"><ele>523.0</ele></trkpt><trkpt lat="37.91365" lon="-122.62841"><ele>518.0</ele></trkpt><trkpt lat="37.91448" lon="-122.62850"><ele>518.0</ele></trkpt><trkpt lat="37.91451" lon="-122.63005"><ele>526.0</ele></trkpt><trkpt lat="37.91474" lon="-122.63004"><ele>527.0</ele></trkpt><trkpt lat="37.91512" lon="-122.62925"><ele>528.0</ele></trkpt><trkpt lat="37.91556" lon="-122.62892"><ele>526.0</ele></trkpt><trkpt lat="37.91585" lon="-122.62983"><ele>527.0</ele></trkpt><trkpt lat="37.91601" lon="-122.62990"><ele>527.0</ele></trkpt><trkpt lat="37.91623" lon="-122.62973"><ele>527.0</ele></trkpt><trkpt lat="37.91641" lon="-122.63020"><ele>526.0</ele></trkpt><trkpt lat="37.91708" lon="-122.63036"><ele>526.0</ele></trkpt><trkpt lat="37.91747" lon="-122.63005"><ele>529.0</ele></trkpt><trkpt lat="37.91710" lon="-122.63109"><ele>534.0</ele></trkpt><trkpt lat="37.91755" lon="-122.63124"><ele>528.0</ele></trkpt><trkpt lat="37.91775" lon="-122.63205"><ele>521.0</ele></trkpt><trkpt lat="37.91796" lon="-122.63208"><ele>518.0</ele></trkpt><trkpt lat="37.91845" lon="-122.63143"><ele>512.0</ele></trkpt><trkpt lat="37.91840" lon="-122.63203"><ele>506.0</ele></trkpt><trkpt lat="37.91787" lon="-122.63329"><ele>493.0</ele></trkpt><trkpt lat="37.91816" lon="-122.63405"><ele>488.0</ele></trkpt><trkpt lat="37.91891" lon="-122.63408"><ele>485.0</ele></trkpt><trkpt lat="37.91907" lon="-122.63337"><ele>483.0</ele></trkpt><trkpt lat="37.91916" lon="-122.63333"><ele>482.0</ele></trkpt><trkpt lat="37.91947" lon="-122.63393"><ele>474.0</ele></trkpt><trkpt lat="37.91973" lon="-122.63408"><ele>473.0</ele></trkpt><trkpt lat="37.91991" lon="-122.63461"><ele>475.0</ele></trkpt><trkpt lat="37.92029" lon="-122.63466"><ele>479.0</ele></trkpt><trkpt lat="37.92058" lon="-122.63450"><ele>482.0</ele></trkpt><trkpt lat="37.92068" lon="-122.63498"><ele>487.0</ele></trkpt><trkpt lat="37.92104" lon="-122.63506"><ele>489.0</ele></trkpt><trkpt lat="37.92154" lon="-122.63542"><ele>494.0</ele></trkpt><trkpt lat="37.92164" lon="-122.63598"><ele>498.0</ele></trkpt><trkpt lat="37.92251" lon="-122.63624"><ele>502.0</ele></trkpt><trkpt lat="37.92274" lon="-122.63665"><ele>504.0</ele></trkpt><trkpt lat="37.92244" lon="-122.63700"><ele>508.0</ele></trkpt><trkpt lat="37.92277" lon="-122.63721"><ele>508.0</ele></trkpt><trkpt lat="37.92295" lon="-122.63774"><ele>508.0</ele></trkpt><trkpt lat="37.92340" lon="-122.63786"><ele>510.0</ele></trkpt><trkpt lat="37.92382" lon="-122.63877"><ele>508.0</ele></trkpt><trkpt lat="37.92406" lon="-122.63902"><ele>507.0</ele></trkpt><trkpt lat="37.92432" lon="-122.63916"><ele>507.0</ele></trkpt><trkpt lat="37.92457" lon="-122.63891"><ele>506.0</ele></trkpt><trkpt lat="37.92470" lon="-122.63902"><ele>505.0</ele></trkpt><trkpt lat="37.92484" lon="-122.63957"><ele>503.0</ele></trkpt><trkpt lat="37.92453" lon="-122.63999"><ele>502.0</ele></trkpt><trkpt lat="37.92445" lon="-122.64031"><ele>504.0</ele></trkpt><trkpt lat="37.92462" lon="-122.64070"><ele>501.0</ele></trkpt><trkpt lat="37.92547" lon="-122.64132"><ele>486.0</ele></trkpt><trkpt lat="37.92596" lon="-122.64150"><ele>474.0</ele></trkpt><trkpt lat="37.92613" lon="-122.64224"><ele>473.0</ele></trkpt><trkpt lat="37.92673" lon="-122.64237"><ele>478.0</ele></trkpt><trkpt lat="37.92717" lon="-122.64300"><ele>479.0</ele></trkpt><trkpt lat="37.92755" lon="-122.64314"><ele>478.0</ele></trkpt><trkpt lat="37.92770" lon="-122.64356"><ele>477.0</ele></trkpt><trkpt lat="37.92818" lon="-122.64383"><ele>479.0</ele></trkpt><trkpt lat="37.92892" lon="-122.64390"><ele>476.0</ele></trkpt><trkpt lat="37.92960" lon="-122.64526"><ele>480.0</ele></trkpt><trkpt lat="37.93005" lon="-122.64513"><ele>479.0</ele></trkpt><trkpt lat="37.93051" lon="-122.64578"><ele>479.0</ele></trkpt><trkpt lat="37.93077" lon="-122.64554"><ele>478.0</ele></trkpt><trkpt lat="37.93108" lon="-122.64556"><ele>477.0</ele></trkpt><trkpt lat="37.93135" lon="-122.64579"><ele>477.0</ele></trkpt><trkpt lat="37.93170" lon="-122.64566"><ele>476.0</ele></trkpt><trkpt lat="37.93216" lon="-122.64631"><ele>471.0</ele></trkpt><trkpt lat="37.93277" lon="-122.64621"><ele>468.0</ele></trkpt><trkpt lat="37.93296" lon="-122.64679"><ele>468.0</ele></trkpt><trkpt lat="37.93362" lon="-122.64677"><ele>468.0</ele></trkpt><trkpt lat="37.93381" lon="-122.64717"><ele>468.0</ele></trkpt><trkpt lat="37.93379" lon="-122.64787"><ele>467.0</ele></trkpt><trkpt lat="37.93432" lon="-122.64815"><ele>465.0</ele></trkpt><trkpt lat="37.93433" lon="-122.64878"><ele>460.0</ele></trkpt><trkpt lat="37.93467" lon="-122.64875"><ele>459.0</ele></trkpt><trkpt lat="37.93478" lon="-122.64887"><ele>458.0</ele></trkpt><trkpt lat="37.93478" lon="-122.64925"><ele>456.0</ele></trkpt><trkpt lat="37.93459" lon="-122.64985"><ele>450.0</ele></trkpt><trkpt lat="37.93515" lon="-122.64989"><ele>447.0</ele></trkpt><trkpt lat="37.93527" lon="-122.65014"><ele>446.0</ele></trkpt><trkpt lat="37.93529" lon="-122.65065"><ele>443.0</ele></trkpt><trkpt lat="37.93563" lon="-122.65097"><ele>440.0</ele></trkpt><trkpt lat="37.93527" lon="-122.65207"><ele>436.0</ele></trkpt><trkpt lat="37.93465" lon="-122.65186"><ele>440.0</ele></trkpt><trkpt lat="37.93441" lon="-122.65221"><ele>445.0</ele></trkpt><trkpt lat="37.93451" lon="-122.65285"><ele>447.0</ele></trkpt><trkpt lat="37.93439" lon="-122.65321"><ele>449.0</ele></trkpt><trkpt lat="37.93457" lon="-122.65368"><ele>449.0</ele></trkpt><trkpt lat="37.93433" lon="-122.65430"><ele>445.0</ele></trkpt><trkpt lat="37.93490" lon="-122.65495"><ele>432.0</ele></trkpt><trkpt lat="37.93460" lon="-122.65496"><ele>424.0</ele></trkpt><trkpt lat="37.93454" lon="-122.65534"><ele>420.0</ele></trkpt><trkpt lat="37.93468" lon="-122.65525"><ele>416.0</ele></trkpt><trkpt lat="37.93493" lon="-122.65546"><ele>409.0</ele></trkpt><trkpt lat="37.93520" lon="-122.65542"><ele>405.0</ele></trkpt><trkpt lat="37.93515" lon="-122.65564"><ele>402.0</ele></trkpt><trkpt lat="37.93546" lon="-122.65605"><ele>413.0</ele></trkpt><trkpt lat="37.93609" lon="-122.65586"><ele>422.0</ele></trkpt><trkpt lat="37.93631" lon="-122.65621"><ele>428.0</ele></trkpt><trkpt lat="37.93663" lon="-122.65641"><ele>430.0</ele></trkpt><trkpt lat="37.93695" lon="-122.65719"><ele>434.0</ele></trkpt><trkpt lat="37.93779" lon="-122.65726"><ele>431.0</ele></trkpt><trkpt lat="37.93794" lon="-122.65754"><ele>432.0</ele></trkpt><trkpt lat="37.93791" lon="-122.65785"><ele>435.0</ele></trkpt><trkpt lat="37.93811" lon="-122.65787"><ele>439.0</ele></trkpt><trkpt lat="37.93823" lon="-122.65817"><ele>442.0</ele></trkpt><trkpt lat="37.93892" lon="-122.65866"><ele>451.0</ele></trkpt><trkpt lat="37.94023" lon="-122.65832"><ele>446.0</ele></trkpt><trkpt lat="37.94054" lon="-122.65847"><ele>448.0</ele></trkpt><trkpt lat="37.94081" lon="-122.65884"><ele>453.0</ele></trkpt><trkpt lat="37.94098" lon="-122.65960"><ele>456.0</ele></trkpt><trkpt lat="37.94154" lon="-122.65956"><ele>461.0</ele></trkpt><trkpt lat="37.94203" lon="-122.66004"><ele>461.0</ele></trkpt><trkpt lat="37.94222" lon="-122.66074"><ele>462.0</ele></trkpt><trkpt lat="37.94265" lon="-122.66088"><ele>463.0</ele></trkpt><trkpt lat="37.94295" lon="-122.66132"><ele>460.0</ele></trkpt><trkpt lat="37.94339" lon="-122.66135"><ele>459.0</ele></trkpt><trkpt lat="37.94420" lon="-122.66226"><ele>469.0</ele></trkpt><trkpt lat="37.94526" lon="-122.66316"><ele>469.0</ele></trkpt><trkpt lat="37.94555" lon="-122.66403"><ele>470.0</ele></trkpt><trkpt lat="37.94599" lon="-122.66445"><ele>472.0</ele></trkpt><trkpt lat="37.94624" lon="-122.66500"><ele>472.0</ele></trkpt><trkpt lat="37.94659" lon="-122.66625"><ele>481.0</ele></trkpt><trkpt lat="37.94700" lon="-122.66719"><ele>482.0</ele></trkpt><trkpt lat="37.94710" lon="-122.66894"><ele>472.0</ele></trkpt><trkpt lat="37.94733" lon="-122.66909"><ele>470.0</ele></trkpt><trkpt lat="37.94828" lon="-122.66873"><ele>478.0</ele></trkpt><trkpt lat="37.94900" lon="-122.66906"><ele>491.0</ele></trkpt><trkpt lat="37.94933" lon="-122.67064"><ele>479.0</ele></trkpt><trkpt lat="37.95004" lon="-122.67159"><ele>467.0</ele></trkpt><trkpt lat="37.95023" lon="-122.67259"><ele>466.0</ele></trkpt><trkpt lat="37.95052" lon="-122.67285"><ele>467.0</ele></trkpt><trkpt lat="37.95105" lon="-122.67287"><ele>469.0</ele></trkpt><trkpt lat="37.95160" lon="-122.67337"><ele>466.0</ele></trkpt><trkpt lat="37.95212" lon="-122.67462"><ele>452.0</ele></trkpt><trkpt lat="37.95211" lon="-122.67486"><ele>454.0</ele></trkpt><trkpt lat="37.95175" lon="-122.67526"><ele>459.0</ele></trkpt><trkpt lat="37.95132" lon="-122.67607"><ele>470.0</ele></trkpt><trkpt lat="37.95159" lon="-122.67627"><ele>476.0</ele></trkpt><trkpt lat="37.95230" lon="-122.67642"><ele>483.0</ele></trkpt><trkpt lat="37.95278" lon="-122.67682"><ele>479.0</ele></trkpt><trkpt lat="37.95346" lon="-122.67674"><ele>477.0</ele></trkpt><trkpt lat="37.95359" lon="-122.67706"><ele>474.0</ele></trkpt><trkpt lat="37.95394" lon="-122.67738"><ele>473.0</ele></trkpt><trkpt lat="37.95406" lon="-122.67834"><ele>472.0</ele></trkpt><trkpt lat="37.95430" lon="-122.67861"><ele>469.0</ele></trkpt><trkpt lat="37.95438" lon="-122.67904"><ele>466.0</ele></trkpt><trkpt lat="37.95485" lon="-122.67963"><ele>461.0</ele></trkpt><trkpt lat="37.95497" lon="-122.68031"><ele>461.0</ele></trkpt><trkpt lat="37.95520" lon="-122.68079"><ele>463.0</ele></trkpt><trkpt lat="37.95564" lon="-122.68092"><ele>458.0</ele></trkpt><trkpt lat="37.95636" lon="-122.68196"><ele>450.0</ele></trkpt><trkpt lat="37.95714" lon="-122.68248"><ele>447.0</ele></trkpt><trkpt lat="37.95797" lon="-122.68352"><ele>444.0</ele></trkpt><trkpt lat="37.95834" lon="-122.68349"><ele>448.0</ele></trkpt><trkpt lat="37.95889" lon="-122.68370"><ele>456.0</ele></trkpt><trkpt lat="37.95957" lon="-122.68278"><ele>461.0</ele></trkpt><trkpt lat="37.95976" lon="-122.68272"><ele>459.0</ele></trkpt><trkpt lat="37.95994" lon="-122.68280"><ele>456.0</ele></trkpt><trkpt lat="37.96048" lon="-122.68362"><ele>449.0</ele></trkpt><trkpt lat="37.96099" lon="-122.68364"><ele>453.0</ele></trkpt><trkpt lat="37.96174" lon="-122.68400"><ele>455.0</ele></trkpt><trkpt lat="37.96193" lon="-122.68436"><ele>454.0</ele></trkpt><trkpt lat="37.96192" lon="-122.68525"><ele>452.0</ele></trkpt><trkpt lat="37.96215" lon="-122.68601"><ele>452.0</ele></trkpt><trkpt lat="37.96243" lon="-122.68635"><ele>456.0</ele></trkpt><trkpt lat="37.96311" lon="-122.68671"><ele>461.0</ele></trkpt><trkpt lat="37.96313" lon="-122.68738"><ele>455.0</ele></trkpt><trkpt lat="37.96341" lon="-122.68777"><ele>453.0</ele></trkpt><trkpt lat="37.96387" lon="-122.68803"><ele>452.0</ele></trkpt><trkpt lat="37.96431" lon="-122.68858"><ele>450.0</ele></trkpt><trkpt lat="37.96518" lon="-122.68890"><ele>441.0</ele></trkpt><trkpt lat="37.96612" lon="-122.69046"><ele>433.0</ele></trkpt><trkpt lat="37.96640" lon="-122.69113"><ele>435.0</ele></trkpt><trkpt lat="37.96644" lon="-122.69168"><ele>432.0</ele></trkpt><trkpt lat="37.96763" lon="-122.69329"><ele>422.0</ele></trkpt><trkpt lat="37.96823" lon="-122.69460"><ele>426.0</ele></trkpt><trkpt lat="37.96903" lon="-122.69479"><ele>423.0</ele></trkpt><trkpt lat="37.96957" lon="-122.69555"><ele>418.0</ele></trkpt><trkpt lat="37.97021" lon="-122.69616"><ele>415.0</ele></trkpt><trkpt lat="37.97198" lon="-122.69713"><ele>412.0</ele></trkpt><trkpt lat="37.97223" lon="-122.69753"><ele>413.0</ele></trkpt><trkpt lat="37.97309" lon="-122.69832"><ele>414.0</ele></trkpt><trkpt lat="37.97336" lon="-122.69897"><ele>416.0</ele></trkpt><trkpt lat="37.97385" lon="-122.69964"><ele>417.0</ele></trkpt><trkpt lat="37.97571" lon="-122.70127"><ele>417.0</ele></trkpt><trkpt lat="37.97621" lon="-122.70252"><ele>419.0</ele></trkpt><trkpt lat="37.97739" lon="-122.70369"><ele>412.0</ele></trkpt><trkpt lat="37.97836" lon="-122.70450"><ele>416.0</ele></trkpt><trkpt lat="37.97880" lon="-122.70452"><ele>420.0</ele></trkpt><trkpt lat="37.98002" lon="-122.70513"><ele>424.0</ele></trkpt><trkpt lat="37.98055" lon="-122.70526"><ele>422.0</ele></trkpt><trkpt lat="37.98141" lon="-122.70689"><ele>416.0</ele></trkpt><trkpt lat="37.98188" lon="-122.70741"><ele>412.0</ele></trkpt><trkpt lat="37.98330" lon="-122.70958"><ele>395.0</ele></trkpt><trkpt lat="37.98372" lon="-122.71073"><ele>393.0</ele></trkpt><trkpt lat="37.98367" lon="-122.71144"><ele>394.0</ele></trkpt><trkpt lat="37.98335" lon="-122.71248"><ele>392.0</ele></trkpt><trkpt lat="37.98268" lon="-122.71289"><ele>385.0</ele></trkpt><trkpt lat="37.98244" lon="-122.71357"><ele>377.0</ele></trkpt><trkpt lat="37.98167" lon="-122.71409"><ele>366.0</ele></trkpt><trkpt lat="37.98181" lon="-122.71489"><ele>356.0</ele></trkpt><trkpt lat="37.98146" lon="-122.71452"><ele>352.0</ele></trkpt><trkpt lat="37.98114" lon="-122.71458"><ele>348.0</ele></trkpt><trkpt lat="37.98131" lon="-122.71508"><ele>344.0</ele></trkpt><trkpt lat="37.98130" lon="-122.71555"><ele>337.0</ele></trkpt><trkpt lat="37.98099" lon="-122.71585"><ele>331.0</ele></trkpt><trkpt lat="37.98073" lon="-122.71587"><ele>327.0</ele></trkpt><trkpt lat="37.98062" lon="-122.71622"><ele>322.0</ele></trkpt><trkpt lat="37.98019" lon="-122.71627"><ele>315.0</ele></trkpt><trkpt lat="37.97998" lon="-122.71674"><ele>307.0</ele></trkpt><trkpt lat="37.97929" lon="-122.71650"><ele>299.0</ele></trkpt><trkpt lat="37.97909" lon="-122.71663"><ele>295.0</ele></trkpt><trkpt lat="37.97914" lon="-122.71712"><ele>292.0</ele></trkpt><trkpt lat="37.97968" lon="-122.71785"><ele>285.0</ele></trkpt><trkpt lat="37.97881" lon="-122.71823"><ele>270.0</ele></trkpt><trkpt lat="37.97863" lon="-122.71850"><ele>266.0</ele></trkpt><trkpt lat="37.97868" lon="-122.71895"><ele>261.0</ele></trkpt><trkpt lat="37.97906" lon="-122.71905"><ele>258.0</ele></trkpt><trkpt lat="37.97914" lon="-122.71935"><ele>255.0</ele></trkpt><trkpt lat="37.97899" lon="-122.71965"><ele>251.0</ele></trkpt><trkpt lat="37.97822" lon="-122.72035"><ele>239.0</ele></trkpt><trkpt lat="37.97819" lon="-122.72093"><ele>233.0</ele></trkpt><trkpt lat="37.97855" lon="-122.72167"><ele>228.0</ele></trkpt><trkpt lat="37.97840" lon="-122.72183"><ele>226.0</ele></trkpt><trkpt lat="37.97791" lon="-122.72182"><ele>221.0</ele></trkpt><trkpt lat="37.97777" lon="-122.72194"><ele>220.0</ele></trkpt><trkpt lat="37.97776" lon="-122.72375"><ele>195.0</ele></trkpt><trkpt lat="37.97758" lon="-122.72393"><ele>193.0</ele></trkpt><trkpt lat="37.97678" lon="-122.72387"><ele>186.0</ele></trkpt><trkpt lat="37.97655" lon="-122.72398"><ele>185.0</ele></trkpt><trkpt lat="37.97626" lon="-122.72468"><ele>178.0</ele></trkpt><trkpt lat="37.97583" lon="-122.72504"><ele>175.0</ele></trkpt><trkpt lat="37.97515" lon="-122.72622"><ele>160.0</ele></trkpt><trkpt lat="37.97489" lon="-122.72719"><ele>156.0</ele></trkpt><trkpt lat="37.97439" lon="-122.72794"><ele>147.0</ele></trkpt><trkpt lat="37.97391" lon="-122.72955"><ele>133.0</ele></trkpt><trkpt lat="37.97317" lon="-122.73018"><ele>119.0</ele></trkpt><trkpt lat="37.97395" lon="-122.72959"><ele>133.0</ele></trkpt><trkpt lat="37.97438" lon="-122.72800"><ele>147.0</ele></trkpt><trkpt lat="37.97497" lon="-122.72707"><ele>159.0</ele></trkpt><trkpt lat="37.97528" lon="-122.72598"><ele>163.0</ele></trkpt><trkpt lat="37.97579" lon="-122.72521"><ele>174.0</ele></trkpt><trkpt lat="37.97624" lon="-122.72481"><ele>181.0</ele></trkpt><trkpt lat="37.97652" lon="-122.72411"><ele>186.0</ele></trkpt><trkpt lat="37.97674" lon="-122.72395"><ele>189.0</ele></trkpt><trkpt lat="37.97749" lon="-122.72401"><ele>196.0</ele></trkpt><trkpt lat="37.97775" lon="-122.72381"><ele>197.0</ele></trkpt><trkpt lat="37.97777" lon="-122.72200"><ele>220.0</ele></trkpt><trkpt lat="37.97792" lon="-122.72187"><ele>224.0</ele></trkpt><trkpt lat="37.97842" lon="-122.72188"><ele>229.0</ele></trkpt><trkpt lat="37.97854" lon="-122.72169"><ele>230.0</ele></trkpt><trkpt lat="37.97819" lon="-122.72099"><ele>237.0</ele></trkpt><trkpt lat="37.97818" lon="-122.72035"><ele>242.0</ele></trkpt><trkpt lat="37.97897" lon="-122.71972"><ele>254.0</ele></trkpt><trkpt lat="37.97914" lon="-122.71931"><ele>259.0</ele></trkpt><trkpt lat="37.97905" lon="-122.71908"><ele>262.0</ele></trkpt><trkpt lat="37.97870" lon="-122.71903"><ele>264.0</ele></trkpt><trkpt lat="37.97864" lon="-122.71850"><ele>270.0</ele></trkpt><trkpt lat="37.97894" lon="-122.71819"><ele>277.0</ele></trkpt><trkpt lat="37.97967" lon="-122.71794"><ele>288.0</ele></trkpt><trkpt lat="37.97963" lon="-122.71775"><ele>290.0</ele></trkpt><trkpt lat="37.97920" lon="-122.71733"><ele>295.0</ele></trkpt><trkpt lat="37.97906" lon="-122.71667"><ele>299.0</ele></trkpt><trkpt lat="37.97919" lon="-122.71655"><ele>301.0</ele></trkpt><trkpt lat="37.97990" lon="-122.71688"><ele>312.0</ele></trkpt><trkpt lat="37.98016" lon="-122.71636"><ele>320.0</ele></trkpt><trkpt lat="37.98057" lon="-122.71631"><ele>326.0</ele></trkpt><trkpt lat="37.98067" lon="-122.71595"><ele>331.0</ele></trkpt><trkpt lat="37.98089" lon="-122.71598"><ele>333.0</ele></trkpt><trkpt lat="37.98125" lon="-122.71574"><ele>341.0</ele></trkpt><trkpt lat="37.98134" lon="-122.71524"><ele>347.0</ele></trkpt><trkpt lat="37.98117" lon="-122.71461"><ele>351.0</ele></trkpt><trkpt lat="37.98137" lon="-122.71460"><ele>356.0</ele></trkpt><trkpt lat="37.98179" lon="-122.71496"><ele>360.0</ele></trkpt><trkpt lat="37.98175" lon="-122.71415"><ele>369.0</ele></trkpt><trkpt lat="37.98244" lon="-122.71368"><ele>381.0</ele></trkpt><trkpt lat="37.98273" lon="-122.71293"><ele>390.0</ele></trkpt><trkpt lat="37.98333" lon="-122.71262"><ele>397.0</ele></trkpt><trkpt lat="37.98377" lon="-122.71125"><ele>399.0</ele></trkpt><trkpt lat="37.98374" lon="-122.71078"><ele>399.0</ele></trkpt><trkpt lat="37.98341" lon="-122.70975"><ele>401.0</ele></trkpt><trkpt lat="37.98283" lon="-122.70897"><ele>408.0</ele></trkpt><trkpt lat="37.98253" lon="-122.70827"><ele>413.0</ele></trkpt><trkpt lat="37.98160" lon="-122.70720"><ele>419.0</ele></trkpt><trkpt lat="37.98064" lon="-122.70521"><ele>430.0</ele></trkpt><trkpt lat="37.97788" lon="-122.70413"><ele>417.0</ele></trkpt><trkpt lat="37.97679" lon="-122.70286"><ele>419.0</ele></trkpt><trkpt lat="37.97628" lon="-122.70246"><ele>424.0</ele></trkpt><trkpt lat="37.97578" lon="-122.70122"><ele>425.0</ele></trkpt><trkpt lat="37.97355" lon="-122.69913"><ele>423.0</ele></trkpt><trkpt lat="37.97320" lon="-122.69832"><ele>421.0</ele></trkpt><trkpt lat="37.97278" lon="-122.69785"><ele>420.0</ele></trkpt><trkpt lat="37.97167" lon="-122.69683"><ele>419.0</ele></trkpt><trkpt lat="37.97100" lon="-122.69660"><ele>420.0</ele></trkpt><trkpt lat="37.96964" lon="-122.69557"><ele>423.0</ele></trkpt><trkpt lat="37.96915" lon="-122.69477"><ele>428.0</ele></trkpt><trkpt lat="37.96834" lon="-122.69457"><ele>433.0</ele></trkpt><trkpt lat="37.96799" lon="-122.69377"><ele>431.0</ele></trkpt><trkpt lat="37.96728" lon="-122.69269"><ele>433.0</ele></trkpt><trkpt lat="37.96642" lon="-122.69170"><ele>440.0</ele></trkpt><trkpt lat="37.96644" lon="-122.69122"><ele>441.0</ele></trkpt><trkpt lat="37.96620" lon="-122.69054"><ele>439.0</ele></trkpt><trkpt lat="37.96525" lon="-122.68889"><ele>446.0</ele></trkpt><trkpt lat="37.96432" lon="-122.68849"><ele>455.0</ele></trkpt><trkpt lat="37.96397" lon="-122.68799"><ele>456.0</ele></trkpt><trkpt lat="37.96345" lon="-122.68775"><ele>460.0</ele></trkpt><trkpt lat="37.96320" lon="-122.68741"><ele>460.0</ele></trkpt><trkpt lat="37.96309" lon="-122.68665"><ele>466.0</ele></trkpt><trkpt lat="37.96220" lon="-122.68604"><ele>459.0</ele></trkpt><trkpt lat="37.96197" lon="-122.68538"><ele>458.0</ele></trkpt><trkpt lat="37.96196" lon="-122.68430"><ele>459.0</ele></trkpt><trkpt lat="37.96185" lon="-122.68405"><ele>459.0</ele></trkpt><trkpt lat="37.96108" lon="-122.68360"><ele>459.0</ele></trkpt><trkpt lat="37.96052" lon="-122.68358"><ele>456.0</ele></trkpt><trkpt lat="37.96002" lon="-122.68278"><ele>459.0</ele></trkpt><trkpt lat="37.95984" lon="-122.68269"><ele>461.0</ele></trkpt><trkpt lat="37.95951" lon="-122.68276"><ele>467.0</ele></trkpt><trkpt lat="37.95889" lon="-122.68361"><ele>462.0</ele></trkpt><trkpt lat="37.95787" lon="-122.68342"><ele>452.0</ele></trkpt><trkpt lat="37.95763" lon="-122.68295"><ele>447.0</ele></trkpt><trkpt lat="37.95709" lon="-122.68236"><ele>455.0</ele></trkpt><trkpt lat="37.95617" lon="-122.68172"><ele>457.0</ele></trkpt><trkpt lat="37.95575" lon="-122.68096"><ele>462.0</ele></trkpt><trkpt lat="37.95524" lon="-122.68076"><ele>468.0</ele></trkpt><trkpt lat="37.95508" lon="-122.68055"><ele>471.0</ele></trkpt><trkpt lat="37.95487" lon="-122.67977"><ele>468.0</ele></trkpt><trkpt lat="37.95454" lon="-122.67933"><ele>471.0</ele></trkpt><trkpt lat="37.95436" lon="-122.67864"><ele>476.0</ele></trkpt><trkpt lat="37.95403" lon="-122.67824"><ele>479.0</ele></trkpt><trkpt lat="37.95396" lon="-122.67743"><ele>480.0</ele></trkpt><trkpt lat="37.95364" lon="-122.67715"><ele>480.0</ele></trkpt><trkpt lat="37.95351" lon="-122.67679"><ele>483.0</ele></trkpt><trkpt lat="37.95335" lon="-122.67669"><ele>483.0</ele></trkpt><trkpt lat="37.95282" lon="-122.67680"><ele>483.0</ele></trkpt><trkpt lat="37.95230" lon="-122.67637"><ele>490.0</ele></trkpt><trkpt lat="37.95157" lon="-122.67625"><ele>484.0</ele></trkpt><trkpt lat="37.95131" lon="-122.67607"><ele>480.0</ele></trkpt><trkpt lat="37.95132" lon="-122.67587"><ele>478.0</ele></trkpt><trkpt lat="37.95210" lon="-122.67480"><ele>463.0</ele></trkpt><trkpt lat="37.95174" lon="-122.67355"><ele>472.0</ele></trkpt><trkpt lat="37.95106" lon="-122.67284"><ele>479.0</ele></trkpt><trkpt lat="37.95054" lon="-122.67284"><ele>475.0</ele></trkpt><trkpt lat="37.95025" lon="-122.67255"><ele>475.0</ele></trkpt><trkpt lat="37.95002" lon="-122.67158"><ele>474.0</ele></trkpt><trkpt lat="37.94933" lon="-122.67069"><ele>485.0</ele></trkpt><trkpt lat="37.94933" lon="-122.67032"><ele>490.0</ele></trkpt><trkpt lat="37.94894" lon="-122.66896"><ele>498.0</ele></trkpt><trkpt lat="37.94823" lon="-122.66871"><ele>487.0</ele></trkpt><trkpt lat="37.94735" lon="-122.66912"><ele>477.0</ele></trkpt><trkpt lat="37.94713" lon="-122.66900"><ele>478.0</ele></trkpt><trkpt lat="37.94696" lon="-122.66708"><ele>490.0</ele></trkpt><trkpt lat="37.94656" lon="-122.66619"><ele>489.0</ele></trkpt><trkpt lat="37.94621" lon="-122.66497"><ele>482.0</ele></trkpt><trkpt lat="37.94593" lon="-122.66436"><ele>481.0</ele></trkpt><trkpt lat="37.94550" lon="-122.66398"><ele>481.0</ele></trkpt><trkpt lat="37.94527" lon="-122.66315"><ele>478.0</ele></trkpt><trkpt lat="37.94423" lon="-122.66228"><ele>478.0</ele></trkpt><trkpt lat="37.94366" lon="-122.66150"><ele>467.0</ele></trkpt><trkpt lat="37.94339" lon="-122.66133"><ele>466.0</ele></trkpt><trkpt lat="37.94306" lon="-122.66134"><ele>468.0</ele></trkpt><trkpt lat="37.94268" lon="-122.66087"><ele>471.0</ele></trkpt><trkpt lat="37.94223" lon="-122.66072"><ele>471.0</ele></trkpt><trkpt lat="37.94209" lon="-122.66006"><ele>470.0</ele></trkpt><trkpt lat="37.94156" lon="-122.65955"><ele>469.0</ele></trkpt><trkpt lat="37.94098" lon="-122.65960"><ele>465.0</ele></trkpt><trkpt lat="37.94086" lon="-122.65890"><ele>461.0</ele></trkpt><trkpt lat="37.94049" lon="-122.65840"><ele>457.0</ele></trkpt><trkpt lat="37.94024" lon="-122.65833"><ele>455.0</ele></trkpt><trkpt lat="37.93918" lon="-122.65863"><ele>455.0</ele></trkpt><trkpt lat="37.93887" lon="-122.65858"><ele>459.0</ele></trkpt><trkpt lat="37.93859" lon="-122.65827"><ele>458.0</ele></trkpt><trkpt lat="37.93824" lon="-122.65813"><ele>452.0</ele></trkpt><trkpt lat="37.93809" lon="-122.65784"><ele>449.0</ele></trkpt><trkpt lat="37.93793" lon="-122.65785"><ele>446.0</ele></trkpt><trkpt lat="37.93789" lon="-122.65735"><ele>440.0</ele></trkpt><trkpt lat="37.93694" lon="-122.65709"><ele>443.0</ele></trkpt><trkpt lat="37.93674" lon="-122.65677"><ele>441.0</ele></trkpt><trkpt lat="37.93674" lon="-122.65654"><ele>440.0</ele></trkpt><trkpt lat="37.93636" lon="-122.65625"><ele>438.0</ele></trkpt><trkpt lat="37.93611" lon="-122.65581"><ele>431.0</ele></trkpt><trkpt lat="37.93548" lon="-122.65605"><ele>421.0</ele></trkpt><trkpt lat="37.93521" lon="-122.65573"><ele>413.0</ele></trkpt><trkpt lat="37.93527" lon="-122.65543"><ele>413.0</ele></trkpt><trkpt lat="37.93502" lon="-122.65546"><ele>415.0</ele></trkpt><trkpt lat="37.93474" lon="-122.65526"><ele>420.0</ele></trkpt><trkpt lat="37.93453" lon="-122.65538"><ele>426.0</ele></trkpt><trkpt lat="37.93460" lon="-122.65500"><ele>431.0</ele></trkpt><trkpt lat="37.93488" lon="-122.65499"><ele>438.0</ele></trkpt><trkpt lat="37.93434" lon="-122.65434"><ele>451.0</ele></trkpt><trkpt lat="37.93458" lon="-122.65376"><ele>457.0</ele></trkpt><trkpt lat="37.93439" lon="-122.65323"><ele>458.0</ele></trkpt><trkpt lat="37.93450" lon="-122.65296"><ele>458.0</ele></trkpt><trkpt lat="37.93438" lon="-122.65215"><ele>455.0</ele></trkpt><trkpt lat="37.93458" lon="-122.65183"><ele>451.0</ele></trkpt><trkpt lat="37.93521" lon="-122.65207"><ele>445.0</ele></trkpt><trkpt lat="37.93561" lon="-122.65089"><ele>449.0</ele></trkpt><trkpt lat="37.93528" lon="-122.65066"><ele>451.0</ele></trkpt><trkpt lat="37.93526" lon="-122.65011"><ele>455.0</ele></trkpt><trkpt lat="37.93514" lon="-122.64988"><ele>457.0</ele></trkpt><trkpt lat="37.93454" lon="-122.64980"><ele>459.0</ele></trkpt><trkpt lat="37.93476" lon="-122.64923"><ele>463.0</ele></trkpt><trkpt lat="37.93475" lon="-122.64883"><ele>467.0</ele></trkpt><trkpt lat="37.93432" lon="-122.64874"><ele>469.0</ele></trkpt><trkpt lat="37.93432" lon="-122.64813"><ele>473.0</ele></trkpt><trkpt lat="37.93378" lon="-122.64785"><ele>477.0</ele></trkpt><trkpt lat="37.93380" lon="-122.64717"><ele>478.0</ele></trkpt><trkpt lat="37.93362" lon="-122.64676"><ele>478.0</ele></trkpt><trkpt lat="37.93293" lon="-122.64677"><ele>479.0</ele></trkpt><trkpt lat="37.93273" lon="-122.64620"><ele>478.0</ele></trkpt><trkpt lat="37.93213" lon="-122.64629"><ele>481.0</ele></trkpt><trkpt lat="37.93165" lon="-122.64564"><ele>486.0</ele></trkpt><trkpt lat="37.93135" lon="-122.64576"><ele>487.0</ele></trkpt><trkpt lat="37.93105" lon="-122.64553"><ele>486.0</ele></trkpt><trkpt lat="37.93071" lon="-122.64554"><ele>489.0</ele></trkpt><trkpt lat="37.93048" lon="-122.64576"><ele>490.0</ele></trkpt><trkpt lat="37.93035" lon="-122.64543"><ele>490.0</ele></trkpt><trkpt lat="37.93001" lon="-122.64509"><ele>489.0</ele></trkpt><trkpt lat="37.92959" lon="-122.64525"><ele>489.0</ele></trkpt><trkpt lat="37.92940" lon="-122.64499"><ele>491.0</ele></trkpt><trkpt lat="37.92924" lon="-122.64439"><ele>487.0</ele></trkpt><trkpt lat="37.92889" lon="-122.64388"><ele>485.0</ele></trkpt><trkpt lat="37.92817" lon="-122.64380"><ele>488.0</ele></trkpt><trkpt lat="37.92768" lon="-122.64350"><ele>487.0</ele></trkpt><trkpt lat="37.92754" lon="-122.64313"><ele>488.0</ele></trkpt><trkpt lat="37.92714" lon="-122.64297"><ele>488.0</ele></trkpt><trkpt lat="37.92677" lon="-122.64238"><ele>487.0</ele></trkpt><trkpt lat="37.92610" lon="-122.64221"><ele>483.0</ele></trkpt><trkpt lat="37.92594" lon="-122.64149"><ele>484.0</ele></trkpt><trkpt lat="37.92585" lon="-122.64152"><ele>485.0</ele></trkpt><trkpt lat="37.92575" lon="-122.64133"><ele>488.0</ele></trkpt><trkpt lat="37.92545" lon="-122.64131"><ele>494.0</ele></trkpt><trkpt lat="37.92453" lon="-122.64059"><ele>510.0</ele></trkpt><trkpt lat="37.92445" lon="-122.64036"><ele>513.0</ele></trkpt><trkpt lat="37.92451" lon="-122.64004"><ele>514.0</ele></trkpt><trkpt lat="37.92484" lon="-122.63950"><ele>514.0</ele></trkpt><trkpt lat="37.92473" lon="-122.63907"><ele>515.0</ele></trkpt><trkpt lat="37.92459" lon="-122.63889"><ele>516.0</ele></trkpt><trkpt lat="37.92435" lon="-122.63913"><ele>517.0</ele></trkpt><trkpt lat="37.92409" lon="-122.63902"><ele>516.0</ele></trkpt><trkpt lat="37.92381" lon="-122.63876"><ele>518.0</ele></trkpt><trkpt lat="37.92339" lon="-122.63786"><ele>520.0</ele></trkpt><trkpt lat="37.92291" lon="-122.63770"><ele>520.0</ele></trkpt><trkpt lat="37.92274" lon="-122.63718"><ele>519.0</ele></trkpt><trkpt lat="37.92242" lon="-122.63696"><ele>519.0</ele></trkpt><trkpt lat="37.92274" lon="-122.63664"><ele>517.0</ele></trkpt><trkpt lat="37.92249" lon="-122.63622"><ele>512.0</ele></trkpt><trkpt lat="37.92162" lon="-122.63594"><ele>510.0</ele></trkpt><trkpt lat="37.92154" lon="-122.63540"><ele>505.0</ele></trkpt><trkpt lat="37.92068" lon="-122.63493"><ele>498.0</ele></trkpt><trkpt lat="37.92057" lon="-122.63447"><ele>495.0</ele></trkpt><trkpt lat="37.92028" lon="-122.63465"><ele>491.0</ele></trkpt><trkpt lat="37.91992" lon="-122.63460"><ele>487.0</ele></trkpt><trkpt lat="37.91973" lon="-122.63410"><ele>484.0</ele></trkpt><trkpt lat="37.91951" lon="-122.63402"><ele>484.0</ele></trkpt><trkpt lat="37.91914" lon="-122.63334"><ele>492.0</ele></trkpt><trkpt lat="37.91888" lon="-122.63407"><ele>495.0</ele></trkpt><trkpt lat="37.91815" lon="-122.63403"><ele>499.0</ele></trkpt><trkpt lat="37.91788" lon="-122.63324"><ele>502.0</ele></trkpt><trkpt lat="37.91843" lon="-122.63194"><ele>517.0</ele></trkpt><trkpt lat="37.91845" lon="-122.63139"><ele>523.0</ele></trkpt><trkpt lat="37.91794" lon="-122.63205"><ele>528.0</ele></trkpt><trkpt lat="37.91772" lon="-122.63197"><ele>531.0</ele></trkpt><trkpt lat="37.91756" lon="-122.63123"><ele>538.0</ele></trkpt><trkpt lat="37.91709" lon="-122.63108"><ele>543.0</ele></trkpt><trkpt lat="37.91746" lon="-122.63004"><ele>541.0</ele></trkpt><trkpt lat="37.91708" lon="-122.63035"><ele>537.0</ele></trkpt><trkpt lat="37.91638" lon="-122.63017"><ele>535.0</ele></trkpt><trkpt lat="37.91623" lon="-122.62973"><ele>538.0</ele></trkpt><trkpt lat="37.91597" lon="-122.62988"><ele>538.0</ele></trkpt><trkpt lat="37.91582" lon="-122.62978"><ele>538.0</ele></trkpt><trkpt lat="37.91554" lon="-122.62891"><ele>538.0</ele></trkpt><trkpt lat="37.91505" lon="-122.62934"><ele>539.0</ele></trkpt><trkpt lat="37.91476" lon="-122.63001"><ele>539.0</ele></trkpt><trkpt lat="37.91453" lon="-122.63005"><ele>539.0</ele></trkpt><trkpt lat="37.91449" lon="-122.62847"><ele>532.0</ele></trkpt><trkpt lat="37.91365" lon="-122.62840"><ele>529.0</ele></trkpt><trkpt lat="37.91371" lon="-122.62765"><ele>534.0</ele></trkpt><trkpt lat="37.91329" lon="-122.62734"><ele>537.0</ele></trkpt><trkpt lat="37.91317" lon="-122.62668"><ele>540.0</ele></trkpt><trkpt lat="37.91237" lon="-122.62662"><ele>530.0</ele></trkpt><trkpt lat="37.91189" lon="-122.62711"><ele>527.0</ele></trkpt><trkpt lat="37.91095" lon="-122.62689"><ele>523.0</ele></trkpt><trkpt lat="37.91049" lon="-122.62636"><ele>514.0</ele></trkpt><trkpt lat="37.90977" lon="-122.62645"><ele>511.0</ele></trkpt><trkpt lat="37.90928" lon="-122.62569"><ele>507.0</ele></trkpt><trkpt lat="37.90825" lon="-122.62535"><ele>503.0</ele></trkpt><trkpt lat="37.90794" lon="-122.62469"><ele>502.0</ele></trkpt><trkpt lat="37.90790" lon="-122.62431"><ele>501.0</ele></trkpt><trkpt lat="37.90747" lon="-122.62467"><ele>503.0</ele></trkpt><trkpt lat="37.90692" lon="-122.62463"><ele>502.0</ele></trkpt><trkpt lat="37.90635" lon="-122.62301"><ele>494.0</ele></trkpt><trkpt lat="37.90535" lon="-122.62355"><ele>487.0</ele></trkpt><trkpt lat="37.90512" lon="-122.62345"><ele>481.0</ele></trkpt><trkpt lat="37.90499" lon="-122.62319"><ele>477.0</ele></trkpt><trkpt lat="37.90501" lon="-122.62265"><ele>470.0</ele></trkpt><trkpt lat="37.90426" lon="-122.62246"><ele>462.0</ele></trkpt><trkpt lat="37.90438" lon="-122.62159"><ele>459.0</ele></trkpt><trkpt lat="37.90346" lon="-122.62131"><ele>449.0</ele></trkpt><trkpt lat="37.90357" lon="-122.62082"><ele>446.0</ele></trkpt><trkpt lat="37.90331" lon="-122.62125"><ele>443.0</ele></trkpt><trkpt lat="37.90333" lon="-122.62147"><ele>442.0</ele></trkpt><trkpt lat="37.90404" lon="-122.62183"><ele>438.0</ele></trkpt><trkpt lat="37.90368" lon="-122.62234"><ele>433.0</ele></trkpt><trkpt lat="37.90360" lon="-122.62270"><ele>432.0</ele></trkpt><trkpt lat="37.90384" lon="-122.62296"><ele>428.0</ele></trkpt><trkpt lat="37.90430" lon="-122.62314"><ele>426.0</ele></trkpt><trkpt lat="37.90393" lon="-122.62375"><ele>426.0</ele></trkpt><trkpt lat="37.90391" lon="-122.62430"><ele>423.0</ele></trkpt><trkpt lat="37.90361" lon="-122.62495"><ele>413.0</ele></trkpt><trkpt lat="37.90353" lon="-122.62544"><ele>405.0</ele></trkpt><trkpt lat="37.90298" lon="-122.62633"><ele>392.0</ele></trkpt><trkpt lat="37.90263" lon="-122.62608"><ele>385.0</ele></trkpt><trkpt lat="37.90293" lon="-122.62665"><ele>381.0</ele></trkpt><trkpt lat="37.90320" lon="-122.62656"><ele>379.0</ele></trkpt><trkpt lat="37.90303" lon="-122.62703"><ele>372.0</ele></trkpt><trkpt lat="37.90277" lon="-122.62706"><ele>369.0</ele></trkpt><trkpt lat="37.90248" lon="-122.62651"><ele>366.0</ele></trkpt><trkpt lat="37.90251" lon="-122.62740"><ele>357.0</ele></trkpt><trkpt lat="37.90299" lon="-122.62781"><ele>352.0</ele></trkpt><trkpt lat="37.90327" lon="-122.62747"><ele>350.0</ele></trkpt><trkpt lat="37.90304" lon="-122.62811"><ele>341.0</ele></trkpt><trkpt lat="37.90270" lon="-122.62794"><ele>336.0</ele></trkpt><trkpt lat="37.90238" lon="-122.62806"><ele>331.0</ele></trkpt><trkpt lat="37.90214" lon="-122.62882"><ele>321.0</ele></trkpt><trkpt lat="37.90230" lon="-122.62880"><ele>316.0</ele></trkpt><trkpt lat="37.90248" lon="-122.62845"><ele>316.0</ele></trkpt><trkpt lat="37.90280" lon="-122.62874"><ele>311.0</ele></trkpt><trkpt lat="37.90254" lon="-122.62875"><ele>307.0</ele></trkpt><trkpt lat="37.90240" lon="-122.62940"><ele>298.0</ele></trkpt><trkpt lat="37.90224" lon="-122.62963"><ele>293.0</ele></trkpt><trkpt lat="37.90271" lon="-122.62915"><ele>289.0</ele></trkpt><trkpt lat="37.90301" lon="-122.62919"><ele>287.0</ele></trkpt><trkpt lat="37.90280" lon="-122.62926"><ele>283.0</ele></trkpt><trkpt lat="37.90240" lon="-122.63019"><ele>266.0</ele></trkpt><trkpt lat="37.90269" lon="-122.63001"><ele>255.0</ele></trkpt><trkpt lat="37.90246" lon="-122.63062"><ele>244.0</ele></trkpt><trkpt lat="37.90255" lon="-122.63060"><ele>238.0</ele></trkpt><trkpt lat="37.90231" lon="-122.63086"><ele>231.0</ele></trkpt><trkpt lat="37.90262" lon="-122.63078"><ele>225.0</ele></trkpt><trkpt lat="37.90195" lon="-122.63138"><ele>209.0</ele></trkpt><trkpt lat="37.90223" lon="-122.63132"><ele>202.0</ele></trkpt><trkpt lat="37.90174" lon="-122.63202"><ele>178.0</ele></trkpt><trkpt lat="37.90150" lon="-122.63217"><ele>171.0</ele></trkpt><trkpt lat="37.90175" lon="-122.63223"><ele>165.0</ele></trkpt><trkpt lat="37.90141" lon="-122.63239"><ele>160.0</ele></trkpt><trkpt lat="37.90157" lon="-122.63242"><ele>156.0</ele></trkpt><trkpt lat="37.90116" lon="-122.63284"><ele>147.0</ele></trkpt><trkpt lat="37.90129" lon="-122.63290"><ele>144.0</ele></trkpt><trkpt lat="37.90130" lon="-122.63326"><ele>133.0</ele></trkpt><trkpt lat="37.90152" lon="-122.63338"><ele>125.0</ele></trkpt><trkpt lat="37.90164" lon="-122.63381"><ele>122.0</ele></trkpt><trkpt lat="37.90172" lon="-122.63430"><ele>118.0</ele></trkpt><trkpt lat="37.90154" lon="-122.63387"><ele>116.0</ele></trkpt><trkpt lat="37.90161" lon="-122.63440"><ele>109.0</ele></trkpt><trkpt lat="37.90153" lon="-122.63475"><ele>107.0</ele></trkpt><trkpt lat="37.90190" lon="-122.63498"><ele>102.0</ele></trkpt><trkpt lat="37.90220" lon="-122.63552"><ele>95.0</ele></trkpt><trkpt lat="37.90248" lon="-122.63534"><ele>89.0</ele></trkpt><trkpt lat="37.90231" lon="-122.63567"><ele>85.0</ele></trkpt><trkpt lat="37.90207" lon="-122.63570"><ele>81.0</ele></trkpt><trkpt lat="37.90226" lon="-122.63580"><ele>79.0</ele></trkpt><trkpt lat="37.90247" lon="-122.63566"><ele>76.0</ele></trkpt><trkpt lat="37.90240" lon="-122.63632"><ele>68.0</ele></trkpt><trkpt lat="37.90237" lon="-122.63622"><ele>65.0</ele></trkpt><trkpt lat="37.90228" lon="-122.63652"><ele>61.0</ele></trkpt><trkpt lat="37.90216" lon="-122.63627"><ele>60.0</ele></trkpt><trkpt lat="37.90193" lon="-122.63620"><ele>60.0</ele></trkpt><trkpt lat="37.90137" lon="-122.63661"><ele>56.0</ele></trkpt><trkpt lat="37.90041" lon="-122.63692"><ele>38.0</ele></trkpt><trkpt lat="37.89964" lon="-122.63739"><ele>25.0</ele></trkpt><trkpt lat="37.89884" lon="-122.63760"><ele>20.0</ele></trkpt></trkseg></trk></gpx>