<?xml version="1.0" encoding="UTF-8"?>
<gpx version="1.1" creator="alexrunsfar simplify-gpx"><metadata><name>rocky-raccoon-100-2022</name><desc>simplified from Strava export; 99.87 mi; 5210 ft gain (computed at full resolution)</desc></metadata><trk><name>rocky-raccoon-100-2022</name><trkseg><trkpt lat="30.61363" lon="-95.53346"><ele>2.0</ele></trkpt><trkpt lat="30.61513" lon="-95.53280"><ele>4.0</ele></trkpt><trkpt lat="30.61562" lon="-95.53271"><ele>5.0</ele></trkpt><trkpt lat="30.61608" lon="-95.53347"><ele>7.0</ele></trkpt><trkpt lat="30.61654" lon="-95.53350"><ele>9.0</ele></trkpt><trkpt lat="30.61774" lon="-95.53298"><ele>11.0</ele></trkpt><trkpt lat="30.61831" lon="-95.53213"><ele>9.0</ele></trkpt><trkpt lat="30.61919" lon="-95.53131"><ele>2.0</ele></trkpt><trkpt lat="30.61979" lon="-95.53128"><ele>3.0</ele></trkpt><trkpt lat="30.62040" lon="-95.53164"><ele>7.0</ele></trkpt><trkpt lat="30.62102" lon="-95.53089"><ele>8.0</ele></trkpt><trkpt lat="30.62146" lon="-95.53065"><ele>4.0</ele></trkpt><trkpt lat="30.62165" lon="-95.53028"><ele>4.0</ele></trkpt><trkpt lat="30.62202" lon="-95.52999"><ele>6.0</ele></trkpt><trkpt lat="30.62224" lon="-95.53042"><ele>9.0</ele></trkpt><trkpt lat="30.62338" lon="-95.53088"><ele>16.0</ele></trkpt><trkpt lat="30.62347" lon="-95.53178"><ele>18.0</ele></trkpt><trkpt lat="30.62387" lon="-95.53223"><ele>20.0</ele></trkpt><trkpt lat="30.62396" lon="-95.53259"><ele>21.0</ele></trkpt><trkpt lat="30.62379" lon="-95.53329"><ele>22.0</ele></trkpt><trkpt lat="30.62355" lon="-95.53372"><ele>22.0</ele></trkpt><trkpt lat="30.62425" lon="-95.53372"><ele>21.0</ele></trkpt><trkpt lat="30.62452" lon="-95.53530"><ele>15.0</ele></trkpt><trkpt lat="30.62556" lon="-95.53532"><ele>13.0</ele></trkpt><trkpt lat="30.62637" lon="-95.53567"><ele>13.0</ele></trkpt><trkpt lat="30.62726" lon="-95.53576"><ele>12.0</ele></trkpt><trkpt lat="30.62770" lon="-95.53622"><ele>10.0</ele></trkpt><trkpt lat="30.62908" lon="-95.53584"><ele>12.0</ele></trkpt><trkpt lat="30.62935" lon="-95.53656"><ele>10.0</ele></trkpt><trkpt lat="30.62998" lon="-95.53678"><ele>7.0</ele></trkpt><trkpt lat="30.63054" lon="-95.53660"><ele>7.0</ele></trkpt><trkpt lat="30.63009" lon="-95.53608"><ele>10.0</ele></trkpt><trkpt lat="30.62974" lon="-95.53528"><ele>13.0</ele></trkpt><trkpt lat="30.62948" lon="-95.53520"><ele>13.0</ele></trkpt><trkpt lat="30.62968" lon="-95.53488"><ele>12.0</ele></trkpt><trkpt lat="30.62961" lon="-95.53472"><ele>12.0</ele></trkpt><trkpt lat="30.62911" lon="-95.53480"><ele>14.0</ele></trkpt><trkpt lat="30.62824" lon="-95.53426"><ele>16.0</ele></trkpt><trkpt lat="30.62763" lon="-95.53429"><ele>16.0</ele></trkpt><trkpt lat="30.62756" lon="-95.53377"><ele>19.0</ele></trkpt><trkpt lat="30.62713" lon="-95.53302"><ele>23.0</ele></trkpt><trkpt lat="30.62737" lon="-95.53256"><ele>23.0</ele></trkpt><trkpt lat="30.62752" lon="-95.53247"><ele>23.0</ele></trkpt><trkpt lat="30.62749" lon="-95.53235"><ele>23.0</ele></trkpt><trkpt lat="30.62724" lon="-95.53234"><ele>22.0</ele></trkpt><trkpt lat="30.62681" lon="-95.53263"><ele>21.0</ele></trkpt><trkpt lat="30.62639" lon="-95.53236"><ele>19.0</ele></trkpt><trkpt lat="30.62642" lon="-95.53217"><ele>19.0</ele></trkpt><trkpt lat="30.62667" lon="-95.53212"><ele>18.0</ele></trkpt><trkpt lat="30.62666" lon="-95.53183"><ele>17.0</ele></trkpt><trkpt lat="30.62698" lon="-95.53144"><ele>15.0</ele></trkpt><trkpt lat="30.62630" lon="-95.53089"><ele>11.0</ele></trkpt><trkpt lat="30.62606" lon="-95.53088"><ele>11.0</ele></trkpt><trkpt lat="30.62590" lon="-95.53072"><ele>11.0</ele></trkpt><trkpt lat="30.62553" lon="-95.53001"><ele>11.0</ele></trkpt><trkpt lat="30.62549" lon="-95.52962"><ele>10.0</ele></trkpt><trkpt lat="30.62530" lon="-95.52925"><ele>10.0</ele></trkpt><trkpt lat="30.62541" lon="-95.52919"><ele>11.0</ele></trkpt><trkpt lat="30.62560" lon="-95.52944"><ele>12.0</ele></trkpt><trkpt lat="30.62609" lon="-95.52935"><ele>14.0</ele></trkpt><trkpt lat="30.62571" lon="-95.52872"><ele>16.0</ele></trkpt><trkpt lat="30.62623" lon="-95.52871"><ele>19.0</ele></trkpt><trkpt lat="30.62621" lon="-95.52854"><ele>20.0</ele></trkpt><trkpt lat="30.62574" lon="-95.52823"><ele>20.0</ele></trkpt><trkpt lat="30.62543" lon="-95.52850"><ele>18.0</ele></trkpt><trkpt lat="30.62506" lon="-95.52852"><ele>15.0</ele></trkpt><trkpt lat="30.62462" lon="-95.52881"><ele>12.0</ele></trkpt><trkpt lat="30.62383" lon="-95.52889"><ele>5.0</ele></trkpt><trkpt lat="30.62334" lon="-95.52925"><ele>4.0</ele></trkpt><trkpt lat="30.62309" lon="-95.52929"><ele>5.0</ele></trkpt><trkpt lat="30.62311" lon="-95.52865"><ele>2.0</ele></trkpt><trkpt lat="30.62350" lon="-95.52830"><ele>2.0</ele></trkpt><trkpt lat="30.62365" lon="-95.52747"><ele>2.0</ele></trkpt><trkpt lat="30.62353" lon="-95.52731"><ele>2.0</ele></trkpt><trkpt lat="30.62238" lon="-95.52744"><ele>3.0</ele></trkpt><trkpt lat="30.62167" lon="-95.52691"><ele>10.0</ele></trkpt><trkpt lat="30.62055" lon="-95.52706"><ele>18.0</ele></trkpt><trkpt lat="30.61903" lon="-95.52661"><ele>23.0</ele></trkpt><trkpt lat="30.61835" lon="-95.52702"><ele>21.0</ele></trkpt><trkpt lat="30.61821" lon="-95.52699"><ele>20.0</ele></trkpt><trkpt lat="30.61777" lon="-95.52628"><ele>18.0</ele></trkpt><trkpt lat="30.61793" lon="-95.52506"><ele>18.0</ele></trkpt><trkpt lat="30.61781" lon="-95.52459"><ele>15.0</ele></trkpt><trkpt lat="30.61731" lon="-95.52419"><ele>10.0</ele></trkpt><trkpt lat="30.61712" lon="-95.52379"><ele>7.0</ele></trkpt><trkpt lat="30.61630" lon="-95.52282"><ele>6.0</ele></trkpt><trkpt lat="30.61651" lon="-95.52226"><ele>6.0</ele></trkpt><trkpt lat="30.61618" lon="-95.52174"><ele>3.0</ele></trkpt><trkpt lat="30.61624" lon="-95.52147"><ele>5.0</ele></trkpt><trkpt lat="30.61600" lon="-95.52079"><ele>4.0</ele></trkpt><trkpt lat="30.61606" lon="-95.52040"><ele>3.0</ele></trkpt><trkpt lat="30.61506" lon="-95.52019"><ele>2.0</ele></trkpt><trkpt lat="30.61485" lon="-95.52026"><ele>2.0</ele></trkpt><trkpt lat="30.61835" lon="-95.52055"><ele>9.0</ele></trkpt><trkpt lat="30.61970" lon="-95.52083"><ele>10.0</ele></trkpt><trkpt lat="30.62223" lon="-95.51997"><ele>21.0</ele></trkpt><trkpt lat="30.62355" lon="-95.51916"><ele>22.0</ele></trkpt><trkpt lat="30.62455" lon="-95.51829"><ele>25.0</ele></trkpt><trkpt lat="30.62496" lon="-95.51836"><ele>27.0</ele></trkpt><trkpt lat="30.63044" lon="-95.51219"><ele>21.0</ele></trkpt><trkpt lat="30.63184" lon="-95.51043"><ele>26.0</ele></trkpt><trkpt lat="30.63319" lon="-95.50911"><ele>29.0</ele></trkpt><trkpt lat="30.63359" lon="-95.50921"><ele>26.0</ele></trkpt><trkpt lat="30.63601" lon="-95.51211"><ele>28.0</ele></trkpt><trkpt lat="30.63597" lon="-95.51314"><ele>29.0</ele></trkpt><trkpt lat="30.63562" lon="-95.51386"><ele>29.0</ele></trkpt><trkpt lat="30.63606" lon="-95.51302"><ele>29.0</ele></trkpt><trkpt lat="30.63610" lon="-95.51205"><ele>28.0</ele></trkpt><trkpt lat="30.63416" lon="-95.50976"><ele>22.0</ele></trkpt><trkpt lat="30.63336" lon="-95.50905"><ele>28.0</ele></trkpt><trkpt lat="30.63306" lon="-95.50910"><ele>29.0</ele></trkpt><trkpt lat="30.63258" lon="-95.50956"><ele>28.0</ele></trkpt><trkpt lat="30.62502" lon="-95.51819"><ele>28.0</ele></trkpt><trkpt lat="30.62480" lon="-95.51828"><ele>28.0</ele></trkpt><trkpt lat="30.62448" lon="-95.51820"><ele>26.0</ele></trkpt><trkpt lat="30.62320" lon="-95.51923"><ele>23.0</ele></trkpt><trkpt lat="30.62167" lon="-95.52009"><ele>21.0</ele></trkpt><trkpt lat="30.61990" lon="-95.52067"><ele>13.0</ele></trkpt><trkpt lat="30.61902" lon="-95.52075"><ele>8.0</ele></trkpt><trkpt lat="30.61801" lon="-95.52125"><ele>5.0</ele></trkpt><trkpt lat="30.61711" lon="-95.52148"><ele>3.0</ele></trkpt><trkpt lat="30.61653" lon="-95.52194"><ele>3.0</ele></trkpt><trkpt lat="30.61627" lon="-95.52271"><ele>5.0</ele></trkpt><trkpt lat="30.61664" lon="-95.52328"><ele>6.0</ele></trkpt><trkpt lat="30.61698" lon="-95.52318"><ele>7.0</ele></trkpt><trkpt lat="30.61732" lon="-95.52327"><ele>9.0</ele></trkpt><trkpt lat="30.61765" lon="-95.52231"><ele>11.0</ele></trkpt><trkpt lat="30.61797" lon="-95.52185"><ele>9.0</ele></trkpt><trkpt lat="30.61843" lon="-95.52181"><ele>10.0</ele></trkpt><trkpt lat="30.61912" lon="-95.52150"><ele>10.0</ele></trkpt><trkpt lat="30.62019" lon="-95.52162"><ele>14.0</ele></trkpt><trkpt lat="30.62054" lon="-95.52178"><ele>16.0</ele></trkpt><trkpt lat="30.62007" lon="-95.52220"><ele>19.0</ele></trkpt><trkpt lat="30.62027" lon="-95.52246"><ele>21.0</ele></trkpt><trkpt lat="30.62172" lon="-95.52235"><ele>24.0</ele></trkpt><trkpt lat="30.62231" lon="-95.52253"><ele>25.0</ele></trkpt><trkpt lat="30.62277" lon="-95.52239"><ele>22.0</ele></trkpt><trkpt lat="30.62246" lon="-95.52331"><ele>16.0</ele></trkpt><trkpt lat="30.62246" lon="-95.52365"><ele>15.0</ele></trkpt><trkpt lat="30.62306" lon="-95.52359"><ele>11.0</ele></trkpt><trkpt lat="30.62371" lon="-95.52420"><ele>7.0</ele></trkpt><trkpt lat="30.62372" lon="-95.52464"><ele>4.0</ele></trkpt><trkpt lat="30.62393" lon="-95.52463"><ele>4.0</ele></trkpt><trkpt lat="30.62419" lon="-95.52441"><ele>3.0</ele></trkpt><trkpt lat="30.62469" lon="-95.52476"><ele>3.0</ele></trkpt><trkpt lat="30.62525" lon="-95.52454"><ele>5.0</ele></trkpt><trkpt lat="30.62539" lon="-95.52512"><ele>7.0</ele></trkpt><trkpt lat="30.62580" lon="-95.52512"><ele>8.0</ele></trkpt><trkpt lat="30.62612" lon="-95.52534"><ele>9.0</ele></trkpt><trkpt lat="30.62650" lon="-95.52599"><ele>12.0</ele></trkpt><trkpt lat="30.62700" lon="-95.52645"><ele>15.0</ele></trkpt><trkpt lat="30.62696" lon="-95.52665"><ele>15.0</ele></trkpt><trkpt lat="30.62666" lon="-95.52670"><ele>16.0</ele></trkpt><trkpt lat="30.62652" lon="-95.52698"><ele>16.0</ele></trkpt><trkpt lat="30.62672" lon="-95.52766"><ele>20.0</ele></trkpt><trkpt lat="30.62641" lon="-95.52805"><ele>21.0</ele></trkpt><trkpt lat="30.62629" lon="-95.52851"><ele>20.0</ele></trkpt><trkpt lat="30.62648" lon="-95.52907"><ele>17.0</ele></trkpt><trkpt lat="30.62618" lon="-95.52937"><ele>14.0</ele></trkpt><trkpt lat="30.62618" lon="-95.52957"><ele>13.0</ele></trkpt><trkpt lat="30.63129" lon="-95.53560"><ele>4.0</ele></trkpt><trkpt lat="30.63141" lon="-95.53582"><ele>3.0</ele></trkpt><trkpt lat="30.63130" lon="-95.53621"><ele>1.0</ele></trkpt><trkpt lat="30.63137" lon="-95.53651"><ele>0.0</ele></trkpt><trkpt lat="30.63240" lon="-95.53677"><ele>0.0</ele></trkpt><trkpt lat="30.63264" lon="-95.53694"><ele>1.0</ele></trkpt><trkpt lat="30.63284" lon="-95.53744"><ele>3.0</ele></trkpt><trkpt lat="30.63367" lon="-95.53856"><ele>0.0</ele></trkpt><trkpt lat="30.63356" lon="-95.53875"><ele>0.0</ele></trkpt><trkpt lat="30.63323" lon="-95.53882"><ele>0.0</ele></trkpt><trkpt lat="30.63309" lon="-95.53950"><ele>1.0</ele></trkpt><trkpt lat="30.63319" lon="-95.53973"><ele>2.0</ele></trkpt><trkpt lat="30.62780" lon="-95.54604"><ele>27.0</ele></trkpt><trkpt lat="30.61134" lon="-95.54633"><ele>23.0</ele></trkpt><trkpt lat="30.61029" lon="-95.54529"><ele>22.0</ele></trkpt><trkpt lat="30.60904" lon="-95.54371"><ele>22.0</ele></trkpt><trkpt lat="30.60856" lon="-95.54330"><ele>19.0</ele></trkpt><trkpt lat="30.60815" lon="-95.54265"><ele>15.0</ele></trkpt><trkpt lat="30.60771" lon="-95.54110"><ele>10.0</ele></trkpt><trkpt lat="30.60734" lon="-95.53877"><ele>5.0</ele></trkpt><trkpt lat="30.60677" lon="-95.53645"><ele>-2.0</ele></trkpt><trkpt lat="30.60683" lon="-95.53635"><ele>-3.0</ele></trkpt><trkpt lat="30.60743" lon="-95.53641"><ele>-6.0</ele></trkpt><trkpt lat="30.60798" lon="-95.53601"><ele>-6.0</ele></trkpt><trkpt lat="30.60765" lon="-95.53570"><ele>-7.0</ele></trkpt><trkpt lat="30.60770" lon="-95.53553"><ele>-7.0</ele></trkpt><trkpt lat="30.60758" lon="-95.53543"><ele>-6.0</ele></trkpt><trkpt lat="30.60715" lon="-95.53566"><ele>-6.0</ele></trkpt><trkpt lat="30.60653" lon="-95.53552"><ele>-7.0</ele></trkpt><trkpt lat="30.60644" lon="-95.53498"><ele>-6.0</ele></trkpt><trkpt lat="30.60614" lon="-95.53455"><ele>-2.0</ele></trkpt><trkpt lat="30.60307" lon="-95.53104"><ele>3.0</ele></trkpt><trkpt lat="30.60512" lon="-95.52886"><ele>10.0</ele></trkpt><trkpt lat="30.61205" lon="-95.52088"><ele>18.0</ele></trkpt><trkpt lat="30.61238" lon="-95.52069"><ele>20.0</ele></trkpt><trkpt lat="30.61330" lon="-95.52073"><ele>17.0</ele></trkpt><trkpt lat="30.61484" lon="-95.52034"><ele>3.0</ele></trkpt><trkpt lat="30.61443" lon="-95.52092"><ele>6.0</ele></trkpt><trkpt lat="30.61432" lon="-95.52143"><ele>7.0</ele></trkpt><trkpt lat="30.61331" lon="-95.52219"><ele>7.0</ele></trkpt><trkpt lat="30.61335" lon="-95.52296"><ele>4.0</ele></trkpt><trkpt lat="30.61400" lon="-95.52406"><ele>8.0</ele></trkpt><trkpt lat="30.61381" lon="-95.52424"><ele>11.0</ele></trkpt><trkpt lat="30.61310" lon="-95.52433"><ele>14.0</ele></trkpt><trkpt lat="30.61288" lon="-95.52450"><ele>15.0</ele></trkpt><trkpt lat="30.61284" lon="-95.52591"><ele>7.0</ele></trkpt><trkpt lat="30.61219" lon="-95.52616"><ele>4.0</ele></trkpt><trkpt lat="30.61139" lon="-95.52581"><ele>4.0</ele></trkpt><trkpt lat="30.61067" lon="-95.52593"><ele>2.0</ele></trkpt><trkpt lat="30.61035" lon="-95.52715"><ele>9.0</ele></trkpt><trkpt lat="30.61032" lon="-95.52776"><ele>12.0</ele></trkpt><trkpt lat="30.60959" lon="-95.52859"><ele>15.0</ele></trkpt><trkpt lat="30.60936" lon="-95.52922"><ele>14.0</ele></trkpt><trkpt lat="30.60833" lon="-95.52961"><ele>12.0</ele></trkpt><trkpt lat="30.60837" lon="-95.53050"><ele>9.0</ele></trkpt><trkpt lat="30.60874" lon="-95.53151"><ele>6.0</ele></trkpt><trkpt lat="30.60841" lon="-95.53238"><ele>4.0</ele></trkpt><trkpt lat="30.60832" lon="-95.53333"><ele>1.0</ele></trkpt><trkpt lat="30.60744" lon="-95.53533"><ele>-5.0</ele></trkpt><trkpt lat="30.60759" lon="-95.53574"><ele>-7.0</ele></trkpt><trkpt lat="30.60790" lon="-95.53600"><ele>-6.0</ele></trkpt><trkpt lat="30.60821" lon="-95.53572"><ele>-6.0</ele></trkpt><trkpt lat="30.60847" lon="-95.53506"><ele>-5.0</ele></trkpt><trkpt lat="30.60881" lon="-95.53471"><ele>-2.0</ele></trkpt><trkpt lat="30.60913" lon="-95.53407"><ele>-1.0</ele></trkpt><trkpt lat="30.60917" lon="-95.53353"><ele>2.0</ele></trkpt><trkpt lat="30.60983" lon="-95.53401"><ele>5.0</ele></trkpt><trkpt lat="30.61139" lon="-95.53596"><ele>5.0</ele></trkpt><trkpt lat="30.61203" lon="-95.53698"><ele>5.0</ele></trkpt><trkpt lat="30.61212" lon="-95.53827"><ele>7.0</ele></trkpt><trkpt lat="30.61277" lon="-95.53998"><ele>7.0</ele></trkpt><trkpt lat="30.61283" lon="-95.54117"><ele>8.0</ele></trkpt><trkpt lat="30.61405" lon="-95.54149"><ele>3.0</ele></trkpt><trkpt lat="30.61406" lon="-95.54209"><ele>5.0</ele></trkpt><trkpt lat="30.61391" lon="-95.54248"><ele>6.0</ele></trkpt><trkpt lat="30.61369" lon="-95.54267"><ele>7.0</ele></trkpt><trkpt lat="30.61369" lon="-95.54293"><ele>8.0</ele></trkpt><trkpt lat="30.61435" lon="-95.54327"><ele>7.0</ele></trkpt><trkpt lat="30.61447" lon="-95.54352"><ele>5.0</ele></trkpt><trkpt lat="30.61475" lon="-95.54358"><ele>5.0</ele></trkpt><trkpt lat="30.61498" lon="-95.54445"><ele>9.0</ele></trkpt><trkpt lat="30.61560" lon="-95.54470"><ele>12.0</ele></trkpt><trkpt lat="30.61572" lon="-95.54492"><ele>13.0</ele></trkpt><trkpt lat="30.61587" lon="-95.54481"><ele>14.0</ele></trkpt><trkpt lat="30.61576" lon="-95.54449"><ele>15.0</ele></trkpt><trkpt lat="30.61583" lon="-95.54412"><ele>16.0</ele></trkpt><trkpt lat="30.61628" lon="-95.54387"><ele>18.0</ele></trkpt><trkpt lat="30.61743" lon="-95.54411"><ele>22.0</ele></trkpt><trkpt lat="30.61802" lon="-95.54404"><ele>24.0</ele></trkpt><trkpt lat="30.61962" lon="-95.54454"><ele>22.0</ele></trkpt><trkpt lat="30.62019" lon="-95.54440"><ele>19.0</ele></trkpt><trkpt lat="30.62042" lon="-95.54415"><ele>17.0</ele></trkpt><trkpt lat="30.62055" lon="-95.54456"><ele>15.0</ele></trkpt><trkpt lat="30.62075" lon="-95.54477"><ele>14.0</ele></trkpt><trkpt lat="30.62109" lon="-95.54450"><ele>14.0</ele></trkpt><trkpt lat="30.62154" lon="-95.54440"><ele>15.0</ele></trkpt><trkpt lat="30.62167" lon="-95.54499"><ele>20.0</ele></trkpt><trkpt lat="30.62244" lon="-95.54551"><ele>22.0</ele></trkpt><trkpt lat="30.62308" lon="-95.54533"><ele>18.0</ele></trkpt><trkpt lat="30.62407" lon="-95.54535"><ele>12.0</ele></trkpt><trkpt lat="30.62470" lon="-95.54480"><ele>17.0</ele></trkpt><trkpt lat="30.62497" lon="-95.54497"><ele>19.0</ele></trkpt><trkpt lat="30.62520" lon="-95.54539"><ele>22.0</ele></trkpt><trkpt lat="30.62590" lon="-95.54554"><ele>24.0</ele></trkpt><trkpt lat="30.62734" lon="-95.54471"><ele>28.0</ele></trkpt><trkpt lat="30.62828" lon="-95.54381"><ele>24.0</ele></trkpt><trkpt lat="30.62916" lon="-95.54347"><ele>22.0</ele></trkpt><trkpt lat="30.62948" lon="-95.54301"><ele>20.0</ele></trkpt><trkpt lat="30.62964" lon="-95.54218"><ele>18.0</ele></trkpt><trkpt lat="30.63019" lon="-95.54186"><ele>17.0</ele></trkpt><trkpt lat="30.63060" lon="-95.54138"><ele>16.0</ele></trkpt><trkpt lat="30.63111" lon="-95.54105"><ele>14.0</ele></trkpt><trkpt lat="30.63092" lon="-95.54032"><ele>11.0</ele></trkpt><trkpt lat="30.63073" lon="-95.54004"><ele>9.0</ele></trkpt><trkpt lat="30.63131" lon="-95.54007"><ele>6.0</ele></trkpt><trkpt lat="30.63208" lon="-95.54067"><ele>6.0</ele></trkpt><trkpt lat="30.63239" lon="-95.54014"><ele>5.0</ele></trkpt><trkpt lat="30.63263" lon="-95.54007"><ele>5.0</ele></trkpt><trkpt lat="30.63272" lon="-95.53978"><ele>5.0</ele></trkpt><trkpt lat="30.63306" lon="-95.53966"><ele>3.0</ele></trkpt><trkpt lat="30.63323" lon="-95.53936"><ele>2.0</ele></trkpt><trkpt lat="30.63331" lon="-95.53888"><ele>1.0</ele></trkpt><trkpt lat="30.63366" lon="-95.53872"><ele>1.0</ele></trkpt><trkpt lat="30.63365" lon="-95.53850"><ele>1.0</ele></trkpt><trkpt lat="30.63323" lon="-95.53806"><ele>2.0</ele></trkpt><trkpt lat="30.63271" lon="-95.53720"><ele>3.0</ele></trkpt><trkpt lat="30.63265" lon="-95.53690"><ele>2.0</ele></trkpt><trkpt lat="30.63246" lon="-95.53675"><ele>2.0</ele></trkpt><trkpt lat="30.63133" lon="-95.53645"><ele>1.0</ele></trkpt><trkpt lat="30.63114" lon="-95.53678"><ele>1.0</ele></trkpt><trkpt lat="30.63079" lon="-95.53702"><ele>1.0</ele></trkpt><trkpt lat="30.63028" lon="-95.53696"><ele>2.0</ele></trkpt><trkpt lat="30.62963" lon="-95.53718"><ele>1.0</ele></trkpt><trkpt lat="30.62881" lon="-95.53724"><ele>1.0</ele></trkpt><trkpt lat="30.62828" lon="-95.53759"><ele>1.0</ele></trkpt><trkpt lat="30.62714" lon="-95.53696"><ele>1.0</ele></trkpt><trkpt lat="30.62556" lon="-95.53673"><ele>1.0</ele></trkpt><trkpt lat="30.62508" lon="-95.53686"><ele>1.0</ele></trkpt><trkpt lat="30.62314" lon="-95.53675"><ele>2.0</ele></trkpt><trkpt lat="30.62230" lon="-95.53630"><ele>2.0</ele></trkpt><trkpt lat="30.62193" lon="-95.53567"><ele>5.0</ele></trkpt><trkpt lat="30.62197" lon="-95.53517"><ele>6.0</ele></trkpt><trkpt lat="30.62134" lon="-95.53455"><ele>5.0</ele></trkpt><trkpt lat="30.62057" lon="-95.53429"><ele>3.0</ele></trkpt><trkpt lat="30.62018" lon="-95.53431"><ele>3.0</ele></trkpt><trkpt lat="30.61894" lon="-95.53384"><ele>9.0</ele></trkpt><trkpt lat="30.61637" lon="-95.53438"><ele>8.0</ele></trkpt><trkpt lat="30.61478" lon="-95.53451"><ele>5.0</ele></trkpt><trkpt lat="30.61366" lon="-95.53430"><ele>1.0</ele></trkpt><trkpt lat="30.61310" lon="-95.53373"><ele>1.0</ele></trkpt><trkpt lat="30.61345" lon="-95.53321"><ele>2.0</ele></trkpt><trkpt lat="30.61402" lon="-95.53336"><ele>3.0</ele></trkpt><trkpt lat="30.61553" lon="-95.53274"><ele>5.0</ele></trkpt><trkpt lat="30.61570" lon="-95.53281"><ele>6.0</ele></trkpt><trkpt lat="30.61612" lon="-95.53346"><ele>8.0</ele></trkpt><trkpt lat="30.61671" lon="-95.53355"><ele>10.0</ele></trkpt><trkpt lat="30.61775" lon="-95.53304"><ele>12.0</ele></trkpt><trkpt lat="30.61820" lon="-95.53230"><ele>10.0</ele></trkpt><trkpt lat="30.61903" lon="-95.53134"><ele>3.0</ele></trkpt><trkpt lat="30.61972" lon="-95.53132"><ele>3.0</ele></trkpt><trkpt lat="30.62032" lon="-95.53166"><ele>8.0</ele></trkpt><trkpt lat="30.62102" lon="-95.53091"><ele>9.0</ele></trkpt><trkpt lat="30.62130" lon="-95.53084"><ele>6.0</ele></trkpt><trkpt lat="30.62172" lon="-95.53013"><ele>5.0</ele></trkpt><trkpt lat="30.62197" lon="-95.53000"><ele>6.0</ele></trkpt><trkpt lat="30.62251" lon="-95.53062"><ele>12.0</ele></trkpt><trkpt lat="30.62293" lon="-95.53066"><ele>15.0</ele></trkpt><trkpt lat="30.62339" lon="-95.53092"><ele>17.0</ele></trkpt><trkpt lat="30.62352" lon="-95.53144"><ele>17.0</ele></trkpt><trkpt lat="30.62345" lon="-95.53172"><ele>18.0</ele></trkpt><trkpt lat="30.62387" lon="-95.53223"><ele>20.0</ele></trkpt><trkpt lat="30.62396" lon="-95.53254"><ele>21.0</ele></trkpt><trkpt lat="30.62353" lon="-95.53375"><ele>22.0</ele></trkpt><trkpt lat="30.62429" lon="-95.53381"><ele>21.0</ele></trkpt><trkpt lat="30.62434" lon="-95.53468"><ele>17.0</ele></trkpt><trkpt lat="30.62451" lon="-95.53526"><ele>16.0</ele></trkpt><trkpt lat="30.62567" lon="-95.53541"><ele>14.0</ele></trkpt><trkpt lat="30.62631" lon="-95.53573"><ele>14.0</ele></trkpt><trkpt lat="30.62725" lon="-95.53584"><ele>13.0</ele></trkpt><trkpt lat="30.62775" lon="-95.53619"><ele>12.0</ele></trkpt><trkpt lat="30.62863" lon="-95.53589"><ele>12.0</ele></trkpt><trkpt lat="30.62903" lon="-95.53590"><ele>13.0</ele></trkpt><trkpt lat="30.62914" lon="-95.53627"><ele>13.0</ele></trkpt><trkpt lat="30.62942" lon="-95.53657"><ele>12.0</ele></trkpt><trkpt lat="30.63013" lon="-95.53683"><ele>9.0</ele></trkpt><trkpt lat="30.63051" lon="-95.53671"><ele>9.0</ele></trkpt><trkpt lat="30.63051" lon="-95.53648"><ele>10.0</ele></trkpt><trkpt lat="30.63006" lon="-95.53607"><ele>11.0</ele></trkpt><trkpt lat="30.63000" lon="-95.53572"><ele>13.0</ele></trkpt><trkpt lat="30.62972" lon="-95.53529"><ele>15.0</ele></trkpt><trkpt lat="30.62947" lon="-95.53520"><ele>15.0</ele></trkpt><trkpt lat="30.62965" lon="-95.53493"><ele>14.0</ele></trkpt><trkpt lat="30.62957" lon="-95.53476"><ele>14.0</ele></trkpt><trkpt lat="30.62911" lon="-95.53476"><ele>16.0</ele></trkpt><trkpt lat="30.62823" lon="-95.53427"><ele>19.0</ele></trkpt><trkpt lat="30.62768" lon="-95.53435"><ele>18.0</ele></trkpt><trkpt lat="30.62754" lon="-95.53376"><ele>22.0</ele></trkpt><trkpt lat="30.62716" lon="-95.53319"><ele>25.0</ele></trkpt><trkpt lat="30.62728" lon="-95.53257"><ele>26.0</ele></trkpt><trkpt lat="30.62750" lon="-95.53247"><ele>26.0</ele></trkpt><trkpt lat="30.62744" lon="-95.53232"><ele>25.0</ele></trkpt><trkpt lat="30.62724" lon="-95.53228"><ele>25.0</ele></trkpt><trkpt lat="30.62674" lon="-95.53259"><ele>24.0</ele></trkpt><trkpt lat="30.62639" lon="-95.53228"><ele>22.0</ele></trkpt><trkpt lat="30.62646" lon="-95.53213"><ele>21.0</ele></trkpt><trkpt lat="30.62667" lon="-95.53211"><ele>21.0</ele></trkpt><trkpt lat="30.62666" lon="-95.53182"><ele>20.0</ele></trkpt><trkpt lat="30.62695" lon="-95.53142"><ele>17.0</ele></trkpt><trkpt lat="30.62632" lon="-95.53086"><ele>15.0</ele></trkpt><trkpt lat="30.62596" lon="-95.53070"><ele>15.0</ele></trkpt><trkpt lat="30.62557" lon="-95.53001"><ele>15.0</ele></trkpt><trkpt lat="30.62533" lon="-95.52926"><ele>14.0</ele></trkpt><trkpt lat="30.62540" lon="-95.52920"><ele>15.0</ele></trkpt><trkpt lat="30.62570" lon="-95.52946"><ele>16.0</ele></trkpt><trkpt lat="30.62607" lon="-95.52939"><ele>17.0</ele></trkpt><trkpt lat="30.62576" lon="-95.52875"><ele>20.0</ele></trkpt><trkpt lat="30.62623" lon="-95.52877"><ele>23.0</ele></trkpt><trkpt lat="30.62630" lon="-95.52869"><ele>24.0</ele></trkpt><trkpt lat="30.62621" lon="-95.52850"><ele>24.0</ele></trkpt><trkpt lat="30.62575" lon="-95.52824"><ele>23.0</ele></trkpt><trkpt lat="30.62549" lon="-95.52847"><ele>22.0</ele></trkpt><trkpt lat="30.62460" lon="-95.52884"><ele>16.0</ele></trkpt><trkpt lat="30.62411" lon="-95.52900"><ele>12.0</ele></trkpt><trkpt lat="30.62378" lon="-95.52896"><ele>10.0</ele></trkpt><trkpt lat="30.62306" lon="-95.52930"><ele>9.0</ele></trkpt><trkpt lat="30.62307" lon="-95.52868"><ele>7.0</ele></trkpt><trkpt lat="30.62343" lon="-95.52848"><ele>6.0</ele></trkpt><trkpt lat="30.62361" lon="-95.52793"><ele>6.0</ele></trkpt><trkpt lat="30.62366" lon="-95.52744"><ele>7.0</ele></trkpt><trkpt lat="30.62355" lon="-95.52728"><ele>7.0</ele></trkpt><trkpt lat="30.62242" lon="-95.52746"><ele>8.0</ele></trkpt><trkpt lat="30.62172" lon="-95.52686"><ele>15.0</ele></trkpt><trkpt lat="30.62058" lon="-95.52705"><ele>24.0</ele></trkpt><trkpt lat="30.61906" lon="-95.52657"><ele>28.0</ele></trkpt><trkpt lat="30.61826" lon="-95.52705"><ele>25.0</ele></trkpt><trkpt lat="30.61779" lon="-95.52619"><ele>24.0</ele></trkpt><trkpt lat="30.61791" lon="-95.52515"><ele>24.0</ele></trkpt><trkpt lat="30.61782" lon="-95.52462"><ele>21.0</ele></trkpt><trkpt lat="30.61729" lon="-95.52416"><ele>15.0</ele></trkpt><trkpt lat="30.61629" lon="-95.52279"><ele>12.0</ele></trkpt><trkpt lat="30.61651" lon="-95.52222"><ele>11.0</ele></trkpt><trkpt lat="30.61622" lon="-95.52178"><ele>9.0</ele></trkpt><trkpt lat="30.61602" lon="-95.52072"><ele>9.0</ele></trkpt><trkpt lat="30.61606" lon="-95.52038"><ele>9.0</ele></trkpt><trkpt lat="30.61487" lon="-95.52026"><ele>9.0</ele></trkpt><trkpt lat="30.61632" lon="-95.52047"><ele>10.0</ele></trkpt><trkpt lat="30.61758" lon="-95.52043"><ele>16.0</ele></trkpt><trkpt lat="30.61881" lon="-95.52061"><ele>16.0</ele></trkpt><trkpt lat="30.61951" lon="-95.52088"><ele>17.0</ele></trkpt><trkpt lat="30.62170" lon="-95.52016"><ele>28.0</ele></trkpt><trkpt lat="30.62338" lon="-95.51925"><ele>31.0</ele></trkpt><trkpt lat="30.62451" lon="-95.51828"><ele>34.0</ele></trkpt><trkpt lat="30.62493" lon="-95.51833"><ele>36.0</ele></trkpt><trkpt lat="30.62964" lon="-95.51310"><ele>31.0</ele></trkpt><trkpt lat="30.63310" lon="-95.50905"><ele>38.0</ele></trkpt><trkpt lat="30.63364" lon="-95.50923"><ele>35.0</ele></trkpt><trkpt lat="30.63501" lon="-95.51099"><ele>33.0</ele></trkpt><trkpt lat="30.63599" lon="-95.51200"><ele>36.0</ele></trkpt><trkpt lat="30.63593" lon="-95.51309"><ele>38.0</ele></trkpt><trkpt lat="30.63560" lon="-95.51380"><ele>38.0</ele></trkpt><trkpt lat="30.63607" lon="-95.51307"><ele>38.0</ele></trkpt><trkpt lat="30.63614" lon="-95.51211"><ele>37.0</ele></trkpt><trkpt lat="30.63435" lon="-95.50987"><ele>32.0</ele></trkpt><trkpt lat="30.63362" lon="-95.50913"><ele>35.0</ele></trkpt><trkpt lat="30.63317" lon="-95.50902"><ele>39.0</ele></trkpt><trkpt lat="30.63262" lon="-95.50948"><ele>37.0</ele></trkpt><trkpt lat="30.62499" lon="-95.51820"><ele>40.0</ele></trkpt><trkpt lat="30.62451" lon="-95.51820"><ele>38.0</ele></trkpt><trkpt lat="30.62253" lon="-95.51969"><ele>35.0</ele></trkpt><trkpt lat="30.62152" lon="-95.52017"><ele>33.0</ele></trkpt><trkpt lat="30.61987" lon="-95.52065"><ele>25.0</ele></trkpt><trkpt lat="30.61920" lon="-95.52071"><ele>22.0</ele></trkpt><trkpt lat="30.61806" lon="-95.52126"><ele>19.0</ele></trkpt><trkpt lat="30.61709" lon="-95.52155"><ele>18.0</ele></trkpt><trkpt lat="30.61652" lon="-95.52197"><ele>17.0</ele></trkpt><trkpt lat="30.61626" lon="-95.52257"><ele>20.0</ele></trkpt><trkpt lat="30.61629" lon="-95.52283"><ele>20.0</ele></trkpt><trkpt lat="30.61659" lon="-95.52329"><ele>20.0</ele></trkpt><trkpt lat="30.61697" lon="-95.52318"><ele>21.0</ele></trkpt><trkpt lat="30.61731" lon="-95.52325"><ele>24.0</ele></trkpt><trkpt lat="30.61762" lon="-95.52280"><ele>25.0</ele></trkpt><trkpt lat="30.61767" lon="-95.52226"><ele>26.0</ele></trkpt><trkpt lat="30.61800" lon="-95.52182"><ele>24.0</ele></trkpt><trkpt lat="30.61836" lon="-95.52181"><ele>24.0</ele></trkpt><trkpt lat="30.61915" lon="-95.52147"><ele>25.0</ele></trkpt><trkpt lat="30.62017" lon="-95.52161"><ele>29.0</ele></trkpt><trkpt lat="30.62049" lon="-95.52176"><ele>31.0</ele></trkpt><trkpt lat="30.62007" lon="-95.52217"><ele>34.0</ele></trkpt><trkpt lat="30.62041" lon="-95.52247"><ele>36.0</ele></trkpt><trkpt lat="30.62095" lon="-95.52233"><ele>37.0</ele></trkpt><trkpt lat="30.62163" lon="-95.52232"><ele>39.0</ele></trkpt><trkpt lat="30.62204" lon="-95.52247"><ele>40.0</ele></trkpt><trkpt lat="30.62279" lon="-95.52240"><ele>38.0</ele></trkpt><trkpt lat="30.62241" lon="-95.52357"><ele>31.0</ele></trkpt><trkpt lat="30.62260" lon="-95.52367"><ele>30.0</ele></trkpt><trkpt lat="30.62308" lon="-95.52358"><ele>27.0</ele></trkpt><trkpt lat="30.62325" lon="-95.52387"><ele>26.0</ele></trkpt><trkpt lat="30.62365" lon="-95.52413"><ele>23.0</ele></trkpt><trkpt lat="30.62373" lon="-95.52464"><ele>21.0</ele></trkpt><trkpt lat="30.62419" lon="-95.52441"><ele>20.0</ele></trkpt><trkpt lat="30.62462" lon="-95.52477"><ele>19.0</ele></trkpt><trkpt lat="30.62508" lon="-95.52449"><ele>21.0</ele></trkpt><trkpt lat="30.62524" lon="-95.52456"><ele>22.0</ele></trkpt><trkpt lat="30.62539" lon="-95.52510"><ele>24.0</ele></trkpt><trkpt lat="30.62576" lon="-95.52511"><ele>25.0</ele></trkpt><trkpt lat="30.62609" lon="-95.52537"><ele>26.0</ele></trkpt><trkpt lat="30.62696" lon="-95.52650"><ele>32.0</ele></trkpt><trkpt lat="30.62693" lon="-95.52662"><ele>32.0</ele></trkpt><trkpt lat="30.62667" lon="-95.52670"><ele>33.0</ele></trkpt><trkpt lat="30.62653" lon="-95.52702"><ele>34.0</ele></trkpt><trkpt lat="30.62669" lon="-95.52770"><ele>36.0</ele></trkpt><trkpt lat="30.62645" lon="-95.52791"><ele>38.0</ele></trkpt><trkpt lat="30.62630" lon="-95.52851"><ele>38.0</ele></trkpt><trkpt lat="30.62646" lon="-95.52908"><ele>35.0</ele></trkpt><trkpt lat="30.62616" lon="-95.52940"><ele>31.0</ele></trkpt><trkpt lat="30.62643" lon="-95.53009"><ele>31.0</ele></trkpt><trkpt lat="30.62693" lon="-95.53057"><ele>34.0</ele></trkpt><trkpt lat="30.62756" lon="-95.53147"><ele>32.0</ele></trkpt><trkpt lat="30.62832" lon="-95.53214"><ele>38.0</ele></trkpt><trkpt lat="30.63128" lon="-95.53583"><ele>23.0</ele></trkpt><trkpt lat="30.63130" lon="-95.53647"><ele>21.0</ele></trkpt><trkpt lat="30.63254" lon="-95.53694"><ele>20.0</ele></trkpt><trkpt lat="30.63362" lon="-95.53860"><ele>21.0</ele></trkpt><trkpt lat="30.63324" lon="-95.53891"><ele>20.0</ele></trkpt><trkpt lat="30.63311" lon="-95.53951"><ele>21.0</ele></trkpt><trkpt lat="30.63320" lon="-95.53976"><ele>23.0</ele></trkpt><trkpt lat="30.62792" lon="-95.54596"><ele>47.0</ele></trkpt><trkpt lat="30.62474" lon="-95.54616"><ele>38.0</ele></trkpt><trkpt lat="30.62235" lon="-95.54609"><ele>47.0</ele></trkpt><trkpt lat="30.62135" lon="-95.54621"><ele>46.0</ele></trkpt><trkpt lat="30.61779" lon="-95.54615"><ele>48.0</ele></trkpt><trkpt lat="30.61353" lon="-95.54637"><ele>35.0</ele></trkpt><trkpt lat="30.61132" lon="-95.54633"><ele>48.0</ele></trkpt><trkpt lat="30.61066" lon="-95.54552"><ele>48.0</ele></trkpt><trkpt lat="30.61023" lon="-95.54523"><ele>47.0</ele></trkpt><trkpt lat="30.60903" lon="-95.54367"><ele>48.0</ele></trkpt><trkpt lat="30.60868" lon="-95.54339"><ele>46.0</ele></trkpt><trkpt lat="30.60803" lon="-95.54232"><ele>39.0</ele></trkpt><trkpt lat="30.60763" lon="-95.54077"><ele>38.0</ele></trkpt><trkpt lat="30.60754" lon="-95.53959"><ele>36.0</ele></trkpt><trkpt lat="30.60718" lon="-95.53845"><ele>33.0</ele></trkpt><trkpt lat="30.60707" lon="-95.53788"><ele>33.0</ele></trkpt><trkpt lat="30.60712" lon="-95.53755"><ele>32.0</ele></trkpt><trkpt lat="30.60696" lon="-95.53728"><ele>31.0</ele></trkpt><trkpt lat="30.60684" lon="-95.53652"><ele>26.0</ele></trkpt><trkpt lat="30.60687" lon="-95.53635"><ele>24.0</ele></trkpt><trkpt lat="30.60731" lon="-95.53644"><ele>22.0</ele></trkpt><trkpt lat="30.60792" lon="-95.53613"><ele>21.0</ele></trkpt><trkpt lat="30.60791" lon="-95.53594"><ele>21.0</ele></trkpt><trkpt lat="30.60763" lon="-95.53570"><ele>20.0</ele></trkpt><trkpt lat="30.60767" lon="-95.53546"><ele>20.0</ele></trkpt><trkpt lat="30.60718" lon="-95.53563"><ele>21.0</ele></trkpt><trkpt lat="30.60656" lon="-95.53549"><ele>21.0</ele></trkpt><trkpt lat="30.60647" lon="-95.53498"><ele>21.0</ele></trkpt><trkpt lat="30.60611" lon="-95.53444"><ele>24.0</ele></trkpt><trkpt lat="30.60308" lon="-95.53097"><ele>32.0</ele></trkpt><trkpt lat="30.60461" lon="-95.52940"><ele>35.0</ele></trkpt><trkpt lat="30.61209" lon="-95.52085"><ele>48.0</ele></trkpt><trkpt lat="30.61231" lon="-95.52070"><ele>50.0</ele></trkpt><trkpt lat="30.61298" lon="-95.52076"><ele>48.0</ele></trkpt><trkpt lat="30.61429" lon="-95.52054"><ele>40.0</ele></trkpt><trkpt lat="30.61484" lon="-95.52029"><ele>33.0</ele></trkpt><trkpt lat="30.61458" lon="-95.52055"><ele>35.0</ele></trkpt><trkpt lat="30.61433" lon="-95.52148"><ele>37.0</ele></trkpt><trkpt lat="30.61362" lon="-95.52180"><ele>38.0</ele></trkpt><trkpt lat="30.61338" lon="-95.52214"><ele>38.0</ele></trkpt><trkpt lat="30.61331" lon="-95.52288"><ele>35.0</ele></trkpt><trkpt lat="30.61366" lon="-95.52311"><ele>35.0</ele></trkpt><trkpt lat="30.61402" lon="-95.52406"><ele>39.0</ele></trkpt><trkpt lat="30.61317" lon="-95.52427"><ele>45.0</ele></trkpt><trkpt lat="30.61291" lon="-95.52448"><ele>46.0</ele></trkpt><trkpt lat="30.61298" lon="-95.52511"><ele>44.0</ele></trkpt><trkpt lat="30.61283" lon="-95.52585"><ele>39.0</ele></trkpt><trkpt lat="30.61225" lon="-95.52609"><ele>36.0</ele></trkpt><trkpt lat="30.61143" lon="-95.52580"><ele>36.0</ele></trkpt><trkpt lat="30.61073" lon="-95.52586"><ele>34.0</ele></trkpt><trkpt lat="30.61056" lon="-95.52621"><ele>35.0</ele></trkpt><trkpt lat="30.61064" lon="-95.52641"><ele>35.0</ele></trkpt><trkpt lat="30.61049" lon="-95.52665"><ele>38.0</ele></trkpt><trkpt lat="30.61033" lon="-95.52771"><ele>44.0</ele></trkpt><trkpt lat="30.60964" lon="-95.52842"><ele>47.0</ele></trkpt><trkpt lat="30.60938" lon="-95.52911"><ele>47.0</ele></trkpt><trkpt lat="30.60888" lon="-95.52925"><ele>46.0</ele></trkpt><trkpt lat="30.60838" lon="-95.52963"><ele>45.0</ele></trkpt><trkpt lat="30.60838" lon="-95.53041"><ele>42.0</ele></trkpt><trkpt lat="30.60874" lon="-95.53146"><ele>39.0</ele></trkpt><trkpt lat="30.60846" lon="-95.53228"><ele>36.0</ele></trkpt><trkpt lat="30.60837" lon="-95.53329"><ele>34.0</ele></trkpt><trkpt lat="30.60747" lon="-95.53533"><ele>28.0</ele></trkpt><trkpt lat="30.60761" lon="-95.53569"><ele>27.0</ele></trkpt><trkpt lat="30.60793" lon="-95.53600"><ele>27.0</ele></trkpt><trkpt lat="30.60817" lon="-95.53578"><ele>28.0</ele></trkpt><trkpt lat="30.60840" lon="-95.53509"><ele>28.0</ele></trkpt><trkpt lat="30.60906" lon="-95.53408"><ele>32.0</ele></trkpt><trkpt lat="30.60915" lon="-95.53352"><ele>35.0</ele></trkpt><trkpt lat="30.60990" lon="-95.53403"><ele>39.0</ele></trkpt><trkpt lat="30.61210" lon="-95.53697"><ele>39.0</ele></trkpt><trkpt lat="30.61215" lon="-95.53815"><ele>40.0</ele></trkpt><trkpt lat="30.61237" lon="-95.53865"><ele>42.0</ele></trkpt><trkpt lat="30.61243" lon="-95.53914"><ele>42.0</ele></trkpt><trkpt lat="30.61283" lon="-95.53991"><ele>42.0</ele></trkpt><trkpt lat="30.61285" lon="-95.54103"><ele>43.0</ele></trkpt><trkpt lat="30.61296" lon="-95.54115"><ele>43.0</ele></trkpt><trkpt lat="30.61320" lon="-95.54111"><ele>43.0</ele></trkpt><trkpt lat="30.61414" lon="-95.54143"><ele>39.0</ele></trkpt><trkpt lat="30.61413" lon="-95.54190"><ele>40.0</ele></trkpt><trkpt lat="30.61378" lon="-95.54255"><ele>42.0</ele></trkpt><trkpt lat="30.61382" lon="-95.54286"><ele>43.0</ele></trkpt><trkpt lat="30.61443" lon="-95.54326"><ele>42.0</ele></trkpt><trkpt lat="30.61456" lon="-95.54350"><ele>41.0</ele></trkpt><trkpt lat="30.61479" lon="-95.54354"><ele>41.0</ele></trkpt><trkpt lat="30.61505" lon="-95.54438"><ele>45.0</ele></trkpt><trkpt lat="30.61557" lon="-95.54465"><ele>47.0</ele></trkpt><trkpt lat="30.61573" lon="-95.54490"><ele>49.0</ele></trkpt><trkpt lat="30.61591" lon="-95.54477"><ele>50.0</ele></trkpt><trkpt lat="30.61581" lon="-95.54443"><ele>51.0</ele></trkpt><trkpt lat="30.61593" lon="-95.54400"><ele>52.0</ele></trkpt><trkpt lat="30.61646" lon="-95.54385"><ele>55.0</ele></trkpt><trkpt lat="30.61749" lon="-95.54411"><ele>59.0</ele></trkpt><trkpt lat="30.61813" lon="-95.54410"><ele>60.0</ele></trkpt><trkpt lat="30.61959" lon="-95.54450"><ele>60.0</ele></trkpt><trkpt lat="30.62002" lon="-95.54442"><ele>57.0</ele></trkpt><trkpt lat="30.62045" lon="-95.54415"><ele>55.0</ele></trkpt><trkpt lat="30.62073" lon="-95.54474"><ele>52.0</ele></trkpt><trkpt lat="30.62107" lon="-95.54448"><ele>52.0</ele></trkpt><trkpt lat="30.62159" lon="-95.54436"><ele>53.0</ele></trkpt><trkpt lat="30.62173" lon="-95.54496"><ele>57.0</ele></trkpt><trkpt lat="30.62244" lon="-95.54551"><ele>60.0</ele></trkpt><trkpt lat="30.62303" lon="-95.54530"><ele>56.0</ele></trkpt><trkpt lat="30.62398" lon="-95.54536"><ele>51.0</ele></trkpt><trkpt lat="30.62477" lon="-95.54481"><ele>54.0</ele></trkpt><trkpt lat="30.62535" lon="-95.54549"><ele>59.0</ele></trkpt><trkpt lat="30.62584" lon="-95.54552"><ele>62.0</ele></trkpt><trkpt lat="30.62765" lon="-95.54454"><ele>66.0</ele></trkpt><trkpt lat="30.62843" lon="-95.54371"><ele>63.0</ele></trkpt><trkpt lat="30.62921" lon="-95.54343"><ele>61.0</ele></trkpt><trkpt lat="30.62950" lon="-95.54297"><ele>59.0</ele></trkpt><trkpt lat="30.62974" lon="-95.54205"><ele>57.0</ele></trkpt><trkpt lat="30.63115" lon="-95.54100"><ele>53.0</ele></trkpt><trkpt lat="30.63073" lon="-95.54005"><ele>49.0</ele></trkpt><trkpt lat="30.63134" lon="-95.54010"><ele>46.0</ele></trkpt><trkpt lat="30.63211" lon="-95.54064"><ele>46.0</ele></trkpt><trkpt lat="30.63232" lon="-95.54014"><ele>44.0</ele></trkpt><trkpt lat="30.63259" lon="-95.54009"><ele>45.0</ele></trkpt><trkpt lat="30.63271" lon="-95.53981"><ele>45.0</ele></trkpt><trkpt lat="30.63302" lon="-95.53965"><ele>43.0</ele></trkpt><trkpt lat="30.63328" lon="-95.53886"><ele>41.0</ele></trkpt><trkpt lat="30.63370" lon="-95.53869"><ele>41.0</ele></trkpt><trkpt lat="30.63266" lon="-95.53692"><ele>43.0</ele></trkpt><trkpt lat="30.63245" lon="-95.53675"><ele>42.0</ele></trkpt><trkpt lat="30.63142" lon="-95.53650"><ele>41.0</ele></trkpt><trkpt lat="30.63130" lon="-95.53680"><ele>42.0</ele></trkpt><trkpt lat="30.63108" lon="-95.53696"><ele>42.0</ele></trkpt><trkpt lat="30.62882" lon="-95.53718"><ele>42.0</ele></trkpt><trkpt lat="30.62826" lon="-95.53760"><ele>41.0</ele></trkpt><trkpt lat="30.62716" lon="-95.53692"><ele>41.0</ele></trkpt><trkpt lat="30.62662" lon="-95.53697"><ele>42.0</ele></trkpt><trkpt lat="30.62541" lon="-95.53671"><ele>42.0</ele></trkpt><trkpt lat="30.62506" lon="-95.53682"><ele>42.0</ele></trkpt><trkpt lat="30.62331" lon="-95.53674"><ele>43.0</ele></trkpt><trkpt lat="30.62249" lon="-95.53643"><ele>42.0</ele></trkpt><trkpt lat="30.62195" lon="-95.53563"><ele>46.0</ele></trkpt><trkpt lat="30.62197" lon="-95.53516"><ele>47.0</ele></trkpt><trkpt lat="30.62139" lon="-95.53459"><ele>46.0</ele></trkpt><trkpt lat="30.61901" lon="-95.53389"><ele>49.0</ele></trkpt><trkpt lat="30.61519" lon="-95.53450"><ele>47.0</ele></trkpt><trkpt lat="30.61369" lon="-95.53427"><ele>43.0</ele></trkpt><trkpt lat="30.61311" lon="-95.53374"><ele>42.0</ele></trkpt><trkpt lat="30.61343" lon="-95.53317"><ele>43.0</ele></trkpt><trkpt lat="30.61385" lon="-95.53330"><ele>44.0</ele></trkpt><trkpt lat="30.61418" lon="-95.53326"><ele>45.0</ele></trkpt><trkpt lat="30.61540" lon="-95.53270"><ele>46.0</ele></trkpt><trkpt lat="30.61562" lon="-95.53274"><ele>47.0</ele></trkpt><trkpt lat="30.61577" lon="-95.53311"><ele>48.0</ele></trkpt><trkpt lat="30.61614" lon="-95.53350"><ele>50.0</ele></trkpt><trkpt lat="30.61650" lon="-95.53350"><ele>51.0</ele></trkpt><trkpt lat="30.61723" lon="-95.53321"><ele>53.0</ele></trkpt><trkpt lat="30.61769" lon="-95.53295"><ele>53.0</ele></trkpt><trkpt lat="30.61830" lon="-95.53212"><ele>51.0</ele></trkpt><trkpt lat="30.61903" lon="-95.53138"><ele>45.0</ele></trkpt><trkpt lat="30.61931" lon="-95.53125"><ele>45.0</ele></trkpt><trkpt lat="30.61997" lon="-95.53137"><ele>47.0</ele></trkpt><trkpt lat="30.62029" lon="-95.53169"><ele>50.0</ele></trkpt><trkpt lat="30.62142" lon="-95.53058"><ele>48.0</ele></trkpt><trkpt lat="30.62171" lon="-95.53015"><ele>48.0</ele></trkpt><trkpt lat="30.62196" lon="-95.53001"><ele>49.0</ele></trkpt><trkpt lat="30.62210" lon="-95.53032"><ele>51.0</ele></trkpt><trkpt lat="30.62258" lon="-95.53069"><ele>55.0</ele></trkpt><trkpt lat="30.62300" lon="-95.53070"><ele>58.0</ele></trkpt><trkpt lat="30.62332" lon="-95.53092"><ele>60.0</ele></trkpt><trkpt lat="30.62345" lon="-95.53178"><ele>62.0</ele></trkpt><trkpt lat="30.62387" lon="-95.53229"><ele>63.0</ele></trkpt><trkpt lat="30.62394" lon="-95.53266"><ele>65.0</ele></trkpt><trkpt lat="30.62381" lon="-95.53321"><ele>65.0</ele></trkpt><trkpt lat="30.62351" lon="-95.53368"><ele>66.0</ele></trkpt><trkpt lat="30.62424" lon="-95.53380"><ele>65.0</ele></trkpt><trkpt lat="30.62436" lon="-95.53427"><ele>63.0</ele></trkpt><trkpt lat="30.62432" lon="-95.53479"><ele>61.0</ele></trkpt><trkpt lat="30.62451" lon="-95.53529"><ele>60.0</ele></trkpt><trkpt lat="30.62554" lon="-95.53535"><ele>58.0</ele></trkpt><trkpt lat="30.62591" lon="-95.53564"><ele>58.0</ele></trkpt><trkpt lat="30.62716" lon="-95.53578"><ele>57.0</ele></trkpt><trkpt lat="30.62764" lon="-95.53628"><ele>55.0</ele></trkpt><trkpt lat="30.62784" lon="-95.53608"><ele>55.0</ele></trkpt><trkpt lat="30.62861" lon="-95.53584"><ele>56.0</ele></trkpt><trkpt lat="30.62895" lon="-95.53587"><ele>57.0</ele></trkpt><trkpt lat="30.62919" lon="-95.53639"><ele>56.0</ele></trkpt><trkpt lat="30.62946" lon="-95.53661"><ele>55.0</ele></trkpt><trkpt lat="30.62998" lon="-95.53677"><ele>53.0</ele></trkpt><trkpt lat="30.63049" lon="-95.53660"><ele>53.0</ele></trkpt><trkpt lat="30.63002" lon="-95.53597"><ele>55.0</ele></trkpt><trkpt lat="30.62975" lon="-95.53529"><ele>58.0</ele></trkpt><trkpt lat="30.62949" lon="-95.53518"><ele>59.0</ele></trkpt><trkpt lat="30.62961" lon="-95.53480"><ele>58.0</ele></trkpt><trkpt lat="30.62954" lon="-95.53466"><ele>57.0</ele></trkpt><trkpt lat="30.62908" lon="-95.53474"><ele>59.0</ele></trkpt><trkpt lat="30.62830" lon="-95.53431"><ele>62.0</ele></trkpt><trkpt lat="30.62767" lon="-95.53433"><ele>62.0</ele></trkpt><trkpt lat="30.62756" lon="-95.53373"><ele>64.0</ele></trkpt><trkpt lat="30.62731" lon="-95.53344"><ele>66.0</ele></trkpt><trkpt lat="30.62713" lon="-95.53298"><ele>68.0</ele></trkpt><trkpt lat="30.62750" lon="-95.53238"><ele>69.0</ele></trkpt><trkpt lat="30.62730" lon="-95.53234"><ele>68.0</ele></trkpt><trkpt lat="30.62676" lon="-95.53260"><ele>66.0</ele></trkpt><trkpt lat="30.62641" lon="-95.53233"><ele>65.0</ele></trkpt><trkpt lat="30.62644" lon="-95.53215"><ele>65.0</ele></trkpt><trkpt lat="30.62667" lon="-95.53208"><ele>63.0</ele></trkpt><trkpt lat="30.62665" lon="-95.53184"><ele>62.0</ele></trkpt><trkpt lat="30.62692" lon="-95.53137"><ele>60.0</ele></trkpt><trkpt lat="30.62588" lon="-95.53073"><ele>58.0</ele></trkpt><trkpt lat="30.62528" lon="-95.52924"><ele>58.0</ele></trkpt><trkpt lat="30.62555" lon="-95.52948"><ele>59.0</ele></trkpt><trkpt lat="30.62599" lon="-95.52941"><ele>60.0</ele></trkpt><trkpt lat="30.62601" lon="-95.52920"><ele>61.0</ele></trkpt><trkpt lat="30.62573" lon="-95.52875"><ele>63.0</ele></trkpt><trkpt lat="30.62614" lon="-95.52874"><ele>66.0</ele></trkpt><trkpt lat="30.62613" lon="-95.52848"><ele>68.0</ele></trkpt><trkpt lat="30.62574" lon="-95.52822"><ele>67.0</ele></trkpt><trkpt lat="30.62541" lon="-95.52847"><ele>65.0</ele></trkpt><trkpt lat="30.62438" lon="-95.52880"><ele>58.0</ele></trkpt><trkpt lat="30.62414" lon="-95.52901"><ele>56.0</ele></trkpt><trkpt lat="30.62375" lon="-95.52897"><ele>53.0</ele></trkpt><trkpt lat="30.62304" lon="-95.52933"><ele>52.0</ele></trkpt><trkpt lat="30.62305" lon="-95.52869"><ele>50.0</ele></trkpt><trkpt lat="30.62343" lon="-95.52834"><ele>50.0</ele></trkpt><trkpt lat="30.62356" lon="-95.52732"><ele>50.0</ele></trkpt><trkpt lat="30.62236" lon="-95.52746"><ele>51.0</ele></trkpt><trkpt lat="30.62178" lon="-95.52699"><ele>58.0</ele></trkpt><trkpt lat="30.62063" lon="-95.52710"><ele>64.0</ele></trkpt><trkpt lat="30.61901" lon="-95.52661"><ele>71.0</ele></trkpt><trkpt lat="30.61822" lon="-95.52705"><ele>68.0</ele></trkpt><trkpt lat="30.61779" lon="-95.52622"><ele>66.0</ele></trkpt><trkpt lat="30.61787" lon="-95.52511"><ele>66.0</ele></trkpt><trkpt lat="30.61777" lon="-95.52460"><ele>64.0</ele></trkpt><trkpt lat="30.61727" lon="-95.52418"><ele>59.0</ele></trkpt><trkpt lat="30.61711" lon="-95.52377"><ele>57.0</ele></trkpt><trkpt lat="30.61630" lon="-95.52280"><ele>55.0</ele></trkpt><trkpt lat="30.61649" lon="-95.52218"><ele>55.0</ele></trkpt><trkpt lat="30.61621" lon="-95.52183"><ele>53.0</ele></trkpt><trkpt lat="30.61598" lon="-95.52076"><ele>54.0</ele></trkpt><trkpt lat="30.61602" lon="-95.52045"><ele>53.0</ele></trkpt><trkpt lat="30.61570" lon="-95.52029"><ele>52.0</ele></trkpt><trkpt lat="30.61488" lon="-95.52030"><ele>53.0</ele></trkpt><trkpt lat="30.61874" lon="-95.52061"><ele>59.0</ele></trkpt><trkpt lat="30.61957" lon="-95.52084"><ele>60.0</ele></trkpt><trkpt lat="30.62200" lon="-95.52006"><ele>71.0</ele></trkpt><trkpt lat="30.62319" lon="-95.51937"><ele>73.0</ele></trkpt><trkpt lat="30.62446" lon="-95.51830"><ele>76.0</ele></trkpt><trkpt lat="30.62493" lon="-95.51835"><ele>78.0</ele></trkpt><trkpt lat="30.62554" lon="-95.51778"><ele>79.0</ele></trkpt><trkpt lat="30.63260" lon="-95.50960"><ele>77.0</ele></trkpt><trkpt lat="30.63317" lon="-95.50910"><ele>80.0</ele></trkpt><trkpt lat="30.63357" lon="-95.50926"><ele>77.0</ele></trkpt><trkpt lat="30.63592" lon="-95.51206"><ele>78.0</ele></trkpt><trkpt lat="30.63599" lon="-95.51231"><ele>78.0</ele></trkpt><trkpt lat="30.63590" lon="-95.51311"><ele>80.0</ele></trkpt><trkpt lat="30.63554" lon="-95.51386"><ele>80.0</ele></trkpt><trkpt lat="30.63597" lon="-95.51316"><ele>80.0</ele></trkpt><trkpt lat="30.63601" lon="-95.51208"><ele>79.0</ele></trkpt><trkpt lat="30.63469" lon="-95.51040"><ele>74.0</ele></trkpt><trkpt lat="30.63352" lon="-95.50917"><ele>77.0</ele></trkpt><trkpt lat="30.63318" lon="-95.50910"><ele>80.0</ele></trkpt><trkpt lat="30.63254" lon="-95.50960"><ele>79.0</ele></trkpt><trkpt lat="30.62494" lon="-95.51832"><ele>82.0</ele></trkpt><trkpt lat="30.62443" lon="-95.51829"><ele>80.0</ele></trkpt><trkpt lat="30.62211" lon="-95.51999"><ele>76.0</ele></trkpt><trkpt lat="30.61990" lon="-95.52069"><ele>68.0</ele></trkpt><trkpt lat="30.61929" lon="-95.52071"><ele>64.0</ele></trkpt><trkpt lat="30.61724" lon="-95.52154"><ele>60.0</ele></trkpt><trkpt lat="30.61652" lon="-95.52202"><ele>59.0</ele></trkpt><trkpt lat="30.61622" lon="-95.52264"><ele>61.0</ele></trkpt><trkpt lat="30.61625" lon="-95.52294"><ele>61.0</ele></trkpt><trkpt lat="30.61663" lon="-95.52337"><ele>61.0</ele></trkpt><trkpt lat="30.61688" lon="-95.52323"><ele>62.0</ele></trkpt><trkpt lat="30.61733" lon="-95.52328"><ele>65.0</ele></trkpt><trkpt lat="30.61752" lon="-95.52281"><ele>66.0</ele></trkpt><trkpt lat="30.61752" lon="-95.52243"><ele>67.0</ele></trkpt><trkpt lat="30.61792" lon="-95.52188"><ele>65.0</ele></trkpt><trkpt lat="30.61834" lon="-95.52186"><ele>65.0</ele></trkpt><trkpt lat="30.61908" lon="-95.52155"><ele>66.0</ele></trkpt><trkpt lat="30.62011" lon="-95.52165"><ele>70.0</ele></trkpt><trkpt lat="30.62051" lon="-95.52186"><ele>71.0</ele></trkpt><trkpt lat="30.62033" lon="-95.52190"><ele>73.0</ele></trkpt><trkpt lat="30.62004" lon="-95.52226"><ele>75.0</ele></trkpt><trkpt lat="30.62019" lon="-95.52248"><ele>76.0</ele></trkpt><trkpt lat="30.62163" lon="-95.52236"><ele>79.0</ele></trkpt><trkpt lat="30.62220" lon="-95.52254"><ele>80.0</ele></trkpt><trkpt lat="30.62275" lon="-95.52248"><ele>78.0</ele></trkpt><trkpt lat="30.62236" lon="-95.52363"><ele>72.0</ele></trkpt><trkpt lat="30.62254" lon="-95.52378"><ele>71.0</ele></trkpt><trkpt lat="30.62305" lon="-95.52366"><ele>67.0</ele></trkpt><trkpt lat="30.62370" lon="-95.52428"><ele>64.0</ele></trkpt><trkpt lat="30.62373" lon="-95.52468"><ele>61.0</ele></trkpt><trkpt lat="30.62412" lon="-95.52446"><ele>59.0</ele></trkpt><trkpt lat="30.62467" lon="-95.52485"><ele>59.0</ele></trkpt><trkpt lat="30.62508" lon="-95.52457"><ele>60.0</ele></trkpt><trkpt lat="30.62529" lon="-95.52463"><ele>61.0</ele></trkpt><trkpt lat="30.62539" lon="-95.52519"><ele>63.0</ele></trkpt><trkpt lat="30.62577" lon="-95.52519"><ele>64.0</ele></trkpt><trkpt lat="30.62611" lon="-95.52541"><ele>65.0</ele></trkpt><trkpt lat="30.62650" lon="-95.52603"><ele>68.0</ele></trkpt><trkpt lat="30.62696" lon="-95.52648"><ele>70.0</ele></trkpt><trkpt lat="30.62693" lon="-95.52668"><ele>71.0</ele></trkpt><trkpt lat="30.62670" lon="-95.52675"><ele>71.0</ele></trkpt><trkpt lat="30.62655" lon="-95.52700"><ele>72.0</ele></trkpt><trkpt lat="30.62670" lon="-95.52769"><ele>75.0</ele></trkpt><trkpt lat="30.62639" lon="-95.52809"><ele>76.0</ele></trkpt><trkpt lat="30.62627" lon="-95.52860"><ele>76.0</ele></trkpt><trkpt lat="30.62644" lon="-95.52912"><ele>74.0</ele></trkpt><trkpt lat="30.62618" lon="-95.52944"><ele>71.0</ele></trkpt><trkpt lat="30.62616" lon="-95.52962"><ele>70.0</ele></trkpt><trkpt lat="30.63133" lon="-95.53577"><ele>60.0</ele></trkpt><trkpt lat="30.63134" lon="-95.53655"><ele>58.0</ele></trkpt><trkpt lat="30.63264" lon="-95.53701"><ele>58.0</ele></trkpt><trkpt lat="30.63323" lon="-95.53810"><ele>58.0</ele></trkpt><trkpt lat="30.63370" lon="-95.53866"><ele>57.0</ele></trkpt><trkpt lat="30.63324" lon="-95.53894"><ele>58.0</ele></trkpt><trkpt lat="30.63309" lon="-95.53951"><ele>58.0</ele></trkpt><trkpt lat="30.63324" lon="-95.53970"><ele>58.0</ele></trkpt><trkpt lat="30.63318" lon="-95.53983"><ele>59.0</ele></trkpt><trkpt lat="30.62794" lon="-95.54601"><ele>82.0</ele></trkpt><trkpt lat="30.62519" lon="-95.54605"><ele>75.0</ele></trkpt><trkpt lat="30.62474" lon="-95.54617"><ele>73.0</ele></trkpt><trkpt lat="30.61130" lon="-95.54631"><ele>80.0</ele></trkpt><trkpt lat="30.60855" lon="-95.54331"><ele>77.0</ele></trkpt><trkpt lat="30.60809" lon="-95.54261"><ele>72.0</ele></trkpt><trkpt lat="30.60767" lon="-95.54087"><ele>69.0</ele></trkpt><trkpt lat="30.60758" lon="-95.53974"><ele>68.0</ele></trkpt><trkpt lat="30.60723" lon="-95.53861"><ele>64.0</ele></trkpt><trkpt lat="30.60682" lon="-95.53659"><ele>57.0</ele></trkpt><trkpt lat="30.60689" lon="-95.53646"><ele>56.0</ele></trkpt><trkpt lat="30.60745" lon="-95.53646"><ele>53.0</ele></trkpt><trkpt lat="30.60792" lon="-95.53617"><ele>52.0</ele></trkpt><trkpt lat="30.60794" lon="-95.53601"><ele>52.0</ele></trkpt><trkpt lat="30.60768" lon="-95.53578"><ele>52.0</ele></trkpt><trkpt lat="30.60760" lon="-95.53552"><ele>52.0</ele></trkpt><trkpt lat="30.60722" lon="-95.53566"><ele>52.0</ele></trkpt><trkpt lat="30.60659" lon="-95.53551"><ele>52.0</ele></trkpt><trkpt lat="30.60640" lon="-95.53491"><ele>52.0</ele></trkpt><trkpt lat="30.60318" lon="-95.53109"><ele>62.0</ele></trkpt><trkpt lat="30.61225" lon="-95.52079"><ele>78.0</ele></trkpt><trkpt lat="30.61245" lon="-95.52069"><ele>78.0</ele></trkpt><trkpt lat="30.61313" lon="-95.52081"><ele>76.0</ele></trkpt><trkpt lat="30.61484" lon="-95.52035"><ele>63.0</ele></trkpt><trkpt lat="30.61455" lon="-95.52076"><ele>64.0</ele></trkpt><trkpt lat="30.61448" lon="-95.52118"><ele>65.0</ele></trkpt><trkpt lat="30.61483" lon="-95.52055"><ele>64.0</ele></trkpt><trkpt lat="30.61452" lon="-95.52086"><ele>65.0</ele></trkpt><trkpt lat="30.61438" lon="-95.52145"><ele>66.0</ele></trkpt><trkpt lat="30.61362" lon="-95.52177"><ele>67.0</ele></trkpt><trkpt lat="30.61342" lon="-95.52206"><ele>67.0</ele></trkpt><trkpt lat="30.61342" lon="-95.52295"><ele>64.0</ele></trkpt><trkpt lat="30.61360" lon="-95.52302"><ele>64.0</ele></trkpt><trkpt lat="30.61404" lon="-95.52403"><ele>67.0</ele></trkpt><trkpt lat="30.61389" lon="-95.52421"><ele>70.0</ele></trkpt><trkpt lat="30.61315" lon="-95.52424"><ele>74.0</ele></trkpt><trkpt lat="30.61293" lon="-95.52440"><ele>74.0</ele></trkpt><trkpt lat="30.61303" lon="-95.52515"><ele>72.0</ele></trkpt><trkpt lat="30.61288" lon="-95.52584"><ele>67.0</ele></trkpt><trkpt lat="30.61233" lon="-95.52608"><ele>64.0</ele></trkpt><trkpt lat="30.61146" lon="-95.52579"><ele>64.0</ele></trkpt><trkpt lat="30.61073" lon="-95.52582"><ele>62.0</ele></trkpt><trkpt lat="30.61035" lon="-95.52778"><ele>72.0</ele></trkpt><trkpt lat="30.60965" lon="-95.52849"><ele>75.0</ele></trkpt><trkpt lat="30.60943" lon="-95.52911"><ele>75.0</ele></trkpt><trkpt lat="30.60863" lon="-95.52937"><ele>72.0</ele></trkpt><trkpt lat="30.60839" lon="-95.52958"><ele>72.0</ele></trkpt><trkpt lat="30.60843" lon="-95.53047"><ele>69.0</ele></trkpt><trkpt lat="30.60880" lon="-95.53153"><ele>66.0</ele></trkpt><trkpt lat="30.60850" lon="-95.53224"><ele>64.0</ele></trkpt><trkpt lat="30.60839" lon="-95.53328"><ele>62.0</ele></trkpt><trkpt lat="30.60752" lon="-95.53529"><ele>55.0</ele></trkpt><trkpt lat="30.60768" lon="-95.53572"><ele>54.0</ele></trkpt><trkpt lat="30.60793" lon="-95.53596"><ele>54.0</ele></trkpt><trkpt lat="30.60822" lon="-95.53572"><ele>55.0</ele></trkpt><trkpt lat="30.60849" lon="-95.53502"><ele>54.0</ele></trkpt><trkpt lat="30.60901" lon="-95.53417"><ele>59.0</ele></trkpt><trkpt lat="30.60917" lon="-95.53349"><ele>62.0</ele></trkpt><trkpt lat="30.60987" lon="-95.53395"><ele>65.0</ele></trkpt><trkpt lat="30.61209" lon="-95.53694"><ele>65.0</ele></trkpt><trkpt lat="30.61218" lon="-95.53819"><ele>66.0</ele></trkpt><trkpt lat="30.61242" lon="-95.53881"><ele>67.0</ele></trkpt><trkpt lat="30.61245" lon="-95.53922"><ele>67.0</ele></trkpt><trkpt lat="30.61285" lon="-95.53989"><ele>67.0</ele></trkpt><trkpt lat="30.61291" lon="-95.54107"><ele>68.0</ele></trkpt><trkpt lat="30.61411" lon="-95.54137"><ele>64.0</ele></trkpt><trkpt lat="30.61414" lon="-95.54196"><ele>65.0</ele></trkpt><trkpt lat="30.61400" lon="-95.54244"><ele>66.0</ele></trkpt><trkpt lat="30.61382" lon="-95.54254"><ele>68.0</ele></trkpt><trkpt lat="30.61384" lon="-95.54284"><ele>68.0</ele></trkpt><trkpt lat="30.61444" lon="-95.54323"><ele>68.0</ele></trkpt><trkpt lat="30.61455" lon="-95.54345"><ele>66.0</ele></trkpt><trkpt lat="30.61480" lon="-95.54344"><ele>66.0</ele></trkpt><trkpt lat="30.61503" lon="-95.54432"><ele>70.0</ele></trkpt><trkpt lat="30.61555" lon="-95.54459"><ele>73.0</ele></trkpt><trkpt lat="30.61572" lon="-95.54483"><ele>73.0</ele></trkpt><trkpt lat="30.61593" lon="-95.54476"><ele>74.0</ele></trkpt><trkpt lat="30.61586" lon="-95.54446"><ele>76.0</ele></trkpt><trkpt lat="30.61595" lon="-95.54397"><ele>77.0</ele></trkpt><trkpt lat="30.61633" lon="-95.54381"><ele>79.0</ele></trkpt><trkpt lat="30.61726" lon="-95.54393"><ele>81.0</ele></trkpt><trkpt lat="30.61745" lon="-95.54407"><ele>83.0</ele></trkpt><trkpt lat="30.61798" lon="-95.54398"><ele>85.0</ele></trkpt><trkpt lat="30.61878" lon="-95.54434"><ele>86.0</ele></trkpt><trkpt lat="30.61968" lon="-95.54448"><ele>83.0</ele></trkpt><trkpt lat="30.62006" lon="-95.54441"><ele>82.0</ele></trkpt><trkpt lat="30.62047" lon="-95.54412"><ele>79.0</ele></trkpt><trkpt lat="30.62073" lon="-95.54477"><ele>76.0</ele></trkpt><trkpt lat="30.62109" lon="-95.54445"><ele>75.0</ele></trkpt><trkpt lat="30.62159" lon="-95.54434"><ele>77.0</ele></trkpt><trkpt lat="30.62170" lon="-95.54491"><ele>81.0</ele></trkpt><trkpt lat="30.62242" lon="-95.54547"><ele>84.0</ele></trkpt><trkpt lat="30.62305" lon="-95.54525"><ele>80.0</ele></trkpt><trkpt lat="30.62417" lon="-95.54523"><ele>74.0</ele></trkpt><trkpt lat="30.62469" lon="-95.54477"><ele>77.0</ele></trkpt><trkpt lat="30.62496" lon="-95.54487"><ele>80.0</ele></trkpt><trkpt lat="30.62525" lon="-95.54531"><ele>83.0</ele></trkpt><trkpt lat="30.62593" lon="-95.54546"><ele>86.0</ele></trkpt><trkpt lat="30.62767" lon="-95.54449"><ele>89.0</ele></trkpt><trkpt lat="30.62841" lon="-95.54370"><ele>87.0</ele></trkpt><trkpt lat="30.62924" lon="-95.54332"><ele>84.0</ele></trkpt><trkpt lat="30.62958" lon="-95.54274"><ele>82.0</ele></trkpt><trkpt lat="30.62957" lon="-95.54241"><ele>81.0</ele></trkpt><trkpt lat="30.62972" lon="-95.54204"><ele>80.0</ele></trkpt><trkpt lat="30.63116" lon="-95.54098"><ele>76.0</ele></trkpt><trkpt lat="30.63093" lon="-95.54017"><ele>73.0</ele></trkpt><trkpt lat="30.63074" lon="-95.53998"><ele>72.0</ele></trkpt><trkpt lat="30.63135" lon="-95.53997"><ele>69.0</ele></trkpt><trkpt lat="30.63211" lon="-95.54057"><ele>69.0</ele></trkpt><trkpt lat="30.63236" lon="-95.54006"><ele>67.0</ele></trkpt><trkpt lat="30.63261" lon="-95.54001"><ele>68.0</ele></trkpt><trkpt lat="30.63268" lon="-95.53979"><ele>68.0</ele></trkpt><trkpt lat="30.63305" lon="-95.53957"><ele>66.0</ele></trkpt><trkpt lat="30.63329" lon="-95.53885"><ele>64.0</ele></trkpt><trkpt lat="30.63365" lon="-95.53873"><ele>64.0</ele></trkpt><trkpt lat="30.63369" lon="-95.53844"><ele>63.0</ele></trkpt><trkpt lat="30.63330" lon="-95.53808"><ele>63.0</ele></trkpt><trkpt lat="30.63266" lon="-95.53687"><ele>65.0</ele></trkpt><trkpt lat="30.63203" lon="-95.53660"><ele>64.0</ele></trkpt><trkpt lat="30.63139" lon="-95.53652"><ele>64.0</ele></trkpt><trkpt lat="30.63132" lon="-95.53678"><ele>64.0</ele></trkpt><trkpt lat="30.63091" lon="-95.53704"><ele>64.0</ele></trkpt><trkpt lat="30.63033" lon="-95.53695"><ele>64.0</ele></trkpt><trkpt lat="30.62889" lon="-95.53717"><ele>64.0</ele></trkpt><trkpt lat="30.62843" lon="-95.53750"><ele>64.0</ele></trkpt><trkpt lat="30.62806" lon="-95.53750"><ele>64.0</ele></trkpt><trkpt lat="30.62711" lon="-95.53687"><ele>64.0</ele></trkpt><trkpt lat="30.62659" lon="-95.53690"><ele>64.0</ele></trkpt><trkpt lat="30.62565" lon="-95.53665"><ele>64.0</ele></trkpt><trkpt lat="30.62511" lon="-95.53684"><ele>64.0</ele></trkpt><trkpt lat="30.62304" lon="-95.53667"><ele>65.0</ele></trkpt><trkpt lat="30.62232" lon="-95.53623"><ele>64.0</ele></trkpt><trkpt lat="30.62197" lon="-95.53558"><ele>69.0</ele></trkpt><trkpt lat="30.62204" lon="-95.53519"><ele>69.0</ele></trkpt><trkpt lat="30.62149" lon="-95.53459"><ele>68.0</ele></trkpt><trkpt lat="30.62063" lon="-95.53427"><ele>67.0</ele></trkpt><trkpt lat="30.61876" lon="-95.53390"><ele>74.0</ele></trkpt><trkpt lat="30.61522" lon="-95.53456"><ele>68.0</ele></trkpt><trkpt lat="30.61434" lon="-95.53445"><ele>66.0</ele></trkpt><trkpt lat="30.61404" lon="-95.53419"><ele>65.0</ele></trkpt><trkpt lat="30.61399" lon="-95.53439"><ele>65.0</ele></trkpt><trkpt lat="30.61328" lon="-95.53395"><ele>64.0</ele></trkpt><trkpt lat="30.61317" lon="-95.53374"><ele>64.0</ele></trkpt><trkpt lat="30.61344" lon="-95.53322"><ele>64.0</ele></trkpt><trkpt lat="30.61418" lon="-95.53331"><ele>66.0</ele></trkpt><trkpt lat="30.61542" lon="-95.53276"><ele>67.0</ele></trkpt><trkpt lat="30.61570" lon="-95.53279"><ele>67.0</ele></trkpt><trkpt lat="30.61614" lon="-95.53345"><ele>69.0</ele></trkpt><trkpt lat="30.61673" lon="-95.53352"><ele>71.0</ele></trkpt><trkpt lat="30.61771" lon="-95.53298"><ele>73.0</ele></trkpt><trkpt lat="30.61821" lon="-95.53216"><ele>70.0</ele></trkpt><trkpt lat="30.61912" lon="-95.53128"><ele>63.0</ele></trkpt><trkpt lat="30.61966" lon="-95.53125"><ele>64.0</ele></trkpt><trkpt lat="30.62032" lon="-95.53167"><ele>69.0</ele></trkpt><trkpt lat="30.62099" lon="-95.53090"><ele>70.0</ele></trkpt><trkpt lat="30.62132" lon="-95.53076"><ele>67.0</ele></trkpt><trkpt lat="30.62163" lon="-95.53022"><ele>65.0</ele></trkpt><trkpt lat="30.62199" lon="-95.52999"><ele>67.0</ele></trkpt><trkpt lat="30.62208" lon="-95.53020"><ele>69.0</ele></trkpt><trkpt lat="30.62250" lon="-95.53052"><ele>72.0</ele></trkpt><trkpt lat="30.62335" lon="-95.53084"><ele>78.0</ele></trkpt><trkpt lat="30.62345" lon="-95.53169"><ele>79.0</ele></trkpt><trkpt lat="30.62388" lon="-95.53219"><ele>81.0</ele></trkpt><trkpt lat="30.62395" lon="-95.53250"><ele>82.0</ele></trkpt><trkpt lat="30.62379" lon="-95.53326"><ele>83.0</ele></trkpt><trkpt lat="30.62356" lon="-95.53371"><ele>83.0</ele></trkpt><trkpt lat="30.62426" lon="-95.53371"><ele>81.0</ele></trkpt><trkpt lat="30.62452" lon="-95.53521"><ele>76.0</ele></trkpt><trkpt lat="30.62559" lon="-95.53530"><ele>74.0</ele></trkpt><trkpt lat="30.62587" lon="-95.53552"><ele>75.0</ele></trkpt><trkpt lat="30.62722" lon="-95.53573"><ele>72.0</ele></trkpt><trkpt lat="30.62771" lon="-95.53612"><ele>71.0</ele></trkpt><trkpt lat="30.62837" lon="-95.53587"><ele>71.0</ele></trkpt><trkpt lat="30.62890" lon="-95.53583"><ele>72.0</ele></trkpt><trkpt lat="30.62911" lon="-95.53597"><ele>73.0</ele></trkpt><trkpt lat="30.62919" lon="-95.53635"><ele>72.0</ele></trkpt><trkpt lat="30.62940" lon="-95.53655"><ele>71.0</ele></trkpt><trkpt lat="30.63000" lon="-95.53675"><ele>68.0</ele></trkpt><trkpt lat="30.63049" lon="-95.53656"><ele>68.0</ele></trkpt><trkpt lat="30.62975" lon="-95.53526"><ele>74.0</ele></trkpt><trkpt lat="30.62950" lon="-95.53523"><ele>74.0</ele></trkpt><trkpt lat="30.62966" lon="-95.53482"><ele>73.0</ele></trkpt><trkpt lat="30.62958" lon="-95.53463"><ele>73.0</ele></trkpt><trkpt lat="30.62910" lon="-95.53473"><ele>75.0</ele></trkpt><trkpt lat="30.62840" lon="-95.53424"><ele>78.0</ele></trkpt><trkpt lat="30.62768" lon="-95.53428"><ele>78.0</ele></trkpt><trkpt lat="30.62758" lon="-95.53378"><ele>80.0</ele></trkpt><trkpt lat="30.62714" lon="-95.53309"><ele>83.0</ele></trkpt><trkpt lat="30.62715" lon="-95.53283"><ele>84.0</ele></trkpt><trkpt lat="30.62751" lon="-95.53244"><ele>85.0</ele></trkpt><trkpt lat="30.62745" lon="-95.53232"><ele>84.0</ele></trkpt><trkpt lat="30.62696" lon="-95.53245"><ele>83.0</ele></trkpt><trkpt lat="30.62679" lon="-95.53262"><ele>82.0</ele></trkpt><trkpt lat="30.62640" lon="-95.53224"><ele>81.0</ele></trkpt><trkpt lat="30.62643" lon="-95.53212"><ele>80.0</ele></trkpt><trkpt lat="30.62664" lon="-95.53214"><ele>80.0</ele></trkpt><trkpt lat="30.62668" lon="-95.53175"><ele>79.0</ele></trkpt><trkpt lat="30.62685" lon="-95.53170"><ele>78.0</ele></trkpt><trkpt lat="30.62695" lon="-95.53137"><ele>76.0</ele></trkpt><trkpt lat="30.62588" lon="-95.53061"><ele>73.0</ele></trkpt><trkpt lat="30.62532" lon="-95.52919"><ele>73.0</ele></trkpt><trkpt lat="30.62567" lon="-95.52938"><ele>74.0</ele></trkpt><trkpt lat="30.62599" lon="-95.52934"><ele>76.0</ele></trkpt><trkpt lat="30.62605" lon="-95.52912"><ele>77.0</ele></trkpt><trkpt lat="30.62574" lon="-95.52868"><ele>79.0</ele></trkpt><trkpt lat="30.62629" lon="-95.52867"><ele>82.0</ele></trkpt><trkpt lat="30.62629" lon="-95.52853"><ele>82.0</ele></trkpt><trkpt lat="30.62581" lon="-95.52822"><ele>82.0</ele></trkpt><trkpt lat="30.62544" lon="-95.52854"><ele>81.0</ele></trkpt><trkpt lat="30.62511" lon="-95.52852"><ele>78.0</ele></trkpt><trkpt lat="30.62418" lon="-95.52898"><ele>70.0</ele></trkpt><trkpt lat="30.62396" lon="-95.52890"><ele>69.0</ele></trkpt><trkpt lat="30.62334" lon="-95.52931"><ele>67.0</ele></trkpt><trkpt lat="30.62309" lon="-95.52932"><ele>67.0</ele></trkpt><trkpt lat="30.62308" lon="-95.52863"><ele>65.0</ele></trkpt><trkpt lat="30.62340" lon="-95.52840"><ele>64.0</ele></trkpt><trkpt lat="30.62358" lon="-95.52753"><ele>65.0</ele></trkpt><trkpt lat="30.62353" lon="-95.52727"><ele>65.0</ele></trkpt><trkpt lat="30.62244" lon="-95.52743"><ele>66.0</ele></trkpt><trkpt lat="30.62219" lon="-95.52718"><ele>69.0</ele></trkpt><trkpt lat="30.62198" lon="-95.52715"><ele>71.0</ele></trkpt><trkpt lat="30.62176" lon="-95.52685"><ele>73.0</ele></trkpt><trkpt lat="30.62077" lon="-95.52708"><ele>77.0</ele></trkpt><trkpt lat="30.61901" lon="-95.52659"><ele>86.0</ele></trkpt><trkpt lat="30.61823" lon="-95.52702"><ele>83.0</ele></trkpt><trkpt lat="30.61777" lon="-95.52616"><ele>80.0</ele></trkpt><trkpt lat="30.61790" lon="-95.52504"><ele>81.0</ele></trkpt><trkpt lat="30.61774" lon="-95.52443"><ele>78.0</ele></trkpt><trkpt lat="30.61729" lon="-95.52407"><ele>73.0</ele></trkpt><trkpt lat="30.61628" lon="-95.52277"><ele>69.0</ele></trkpt><trkpt lat="30.61650" lon="-95.52220"><ele>68.0</ele></trkpt><trkpt lat="30.61618" lon="-95.52164"><ele>66.0</ele></trkpt><trkpt lat="30.61596" lon="-95.52069"><ele>66.0</ele></trkpt><trkpt lat="30.61600" lon="-95.52035"><ele>66.0</ele></trkpt><trkpt lat="30.61589" lon="-95.52025"><ele>65.0</ele></trkpt><trkpt lat="30.61499" lon="-95.52024"><ele>65.0</ele></trkpt><trkpt lat="30.61537" lon="-95.52040"><ele>64.0</ele></trkpt><trkpt lat="30.61645" lon="-95.52037"><ele>68.0</ele></trkpt><trkpt lat="30.61879" lon="-95.52061"><ele>72.0</ele></trkpt><trkpt lat="30.61948" lon="-95.52087"><ele>73.0</ele></trkpt><trkpt lat="30.62149" lon="-95.52030"><ele>83.0</ele></trkpt><trkpt lat="30.62232" lon="-95.51992"><ele>84.0</ele></trkpt><trkpt lat="30.62352" lon="-95.51917"><ele>86.0</ele></trkpt><trkpt lat="30.62422" lon="-95.51848"><ele>87.0</ele></trkpt><trkpt lat="30.62456" lon="-95.51830"><ele>89.0</ele></trkpt><trkpt lat="30.62481" lon="-95.51842"><ele>90.0</ele></trkpt><trkpt lat="30.62497" lon="-95.51835"><ele>91.0</ele></trkpt><trkpt lat="30.62694" lon="-95.51631"><ele>86.0</ele></trkpt><trkpt lat="30.62723" lon="-95.51575"><ele>86.0</ele></trkpt><trkpt lat="30.63149" lon="-95.51101"><ele>85.0</ele></trkpt><trkpt lat="30.63238" lon="-95.50986"><ele>89.0</ele></trkpt><trkpt lat="30.63318" lon="-95.50911"><ele>91.0</ele></trkpt><trkpt lat="30.63359" lon="-95.50924"><ele>89.0</ele></trkpt><trkpt lat="30.63590" lon="-95.51203"><ele>89.0</ele></trkpt><trkpt lat="30.63594" lon="-95.51301"><ele>90.0</ele></trkpt><trkpt lat="30.63556" lon="-95.51387"><ele>90.0</ele></trkpt><trkpt lat="30.63603" lon="-95.51314"><ele>90.0</ele></trkpt><trkpt lat="30.63605" lon="-95.51215"><ele>90.0</ele></trkpt><trkpt lat="30.63359" lon="-95.50918"><ele>87.0</ele></trkpt><trkpt lat="30.63312" lon="-95.50905"><ele>91.0</ele></trkpt><trkpt lat="30.63254" lon="-95.50958"><ele>90.0</ele></trkpt><trkpt lat="30.63227" lon="-95.51001"><ele>89.0</ele></trkpt><trkpt lat="30.63167" lon="-95.51050"><ele>89.0</ele></trkpt><trkpt lat="30.63067" lon="-95.51181"><ele>85.0</ele></trkpt><trkpt lat="30.62964" lon="-95.51283"><ele>84.0</ele></trkpt><trkpt lat="30.62493" lon="-95.51826"><ele>91.0</ele></trkpt><trkpt lat="30.62443" lon="-95.51823"><ele>90.0</ele></trkpt><trkpt lat="30.62253" lon="-95.51969"><ele>86.0</ele></trkpt><trkpt lat="30.62207" lon="-95.51979"><ele>85.0</ele></trkpt><trkpt lat="30.62153" lon="-95.52012"><ele>84.0</ele></trkpt><trkpt lat="30.61903" lon="-95.52074"><ele>73.0</ele></trkpt><trkpt lat="30.61677" lon="-95.52170"><ele>68.0</ele></trkpt><trkpt lat="30.61647" lon="-95.52197"><ele>68.0</ele></trkpt><trkpt lat="30.61621" lon="-95.52268"><ele>71.0</ele></trkpt><trkpt lat="30.61667" lon="-95.52336"><ele>71.0</ele></trkpt><trkpt lat="30.61730" lon="-95.52315"><ele>75.0</ele></trkpt><trkpt lat="30.61751" lon="-95.52285"><ele>76.0</ele></trkpt><trkpt lat="30.61758" lon="-95.52237"><ele>77.0</ele></trkpt><trkpt lat="30.61801" lon="-95.52182"><ele>75.0</ele></trkpt><trkpt lat="30.61910" lon="-95.52150"><ele>75.0</ele></trkpt><trkpt lat="30.62023" lon="-95.52167"><ele>80.0</ele></trkpt><trkpt lat="30.62048" lon="-95.52181"><ele>82.0</ele></trkpt><trkpt lat="30.62001" lon="-95.52216"><ele>85.0</ele></trkpt><trkpt lat="30.62015" lon="-95.52243"><ele>85.0</ele></trkpt><trkpt lat="30.62157" lon="-95.52229"><ele>89.0</ele></trkpt><trkpt lat="30.62208" lon="-95.52249"><ele>91.0</ele></trkpt><trkpt lat="30.62269" lon="-95.52243"><ele>89.0</ele></trkpt><trkpt lat="30.62242" lon="-95.52366"><ele>81.0</ele></trkpt><trkpt lat="30.62298" lon="-95.52356"><ele>78.0</ele></trkpt><trkpt lat="30.62363" lon="-95.52417"><ele>73.0</ele></trkpt><trkpt lat="30.62370" lon="-95.52464"><ele>71.0</ele></trkpt><trkpt lat="30.62415" lon="-95.52445"><ele>69.0</ele></trkpt><trkpt lat="30.62466" lon="-95.52485"><ele>69.0</ele></trkpt><trkpt lat="30.62521" lon="-95.52455"><ele>71.0</ele></trkpt><trkpt lat="30.62535" lon="-95.52515"><ele>73.0</ele></trkpt><trkpt lat="30.62575" lon="-95.52513"><ele>74.0</ele></trkpt><trkpt lat="30.62605" lon="-95.52537"><ele>75.0</ele></trkpt><trkpt lat="30.62643" lon="-95.52597"><ele>78.0</ele></trkpt><trkpt lat="30.62674" lon="-95.52616"><ele>80.0</ele></trkpt><trkpt lat="30.62693" lon="-95.52654"><ele>81.0</ele></trkpt><trkpt lat="30.62661" lon="-95.52675"><ele>82.0</ele></trkpt><trkpt lat="30.62651" lon="-95.52700"><ele>82.0</ele></trkpt><trkpt lat="30.62662" lon="-95.52773"><ele>86.0</ele></trkpt><trkpt lat="30.62639" lon="-95.52801"><ele>87.0</ele></trkpt><trkpt lat="30.62628" lon="-95.52861"><ele>87.0</ele></trkpt><trkpt lat="30.62643" lon="-95.52905"><ele>84.0</ele></trkpt><trkpt lat="30.62617" lon="-95.52939"><ele>81.0</ele></trkpt><trkpt lat="30.62615" lon="-95.52961"><ele>80.0</ele></trkpt><trkpt lat="30.63090" lon="-95.53520"><ele>72.0</ele></trkpt><trkpt lat="30.63135" lon="-95.53582"><ele>70.0</ele></trkpt><trkpt lat="30.63131" lon="-95.53647"><ele>67.0</ele></trkpt><trkpt lat="30.63254" lon="-95.53686"><ele>67.0</ele></trkpt><trkpt lat="30.63313" lon="-95.53805"><ele>69.0</ele></trkpt><trkpt lat="30.63365" lon="-95.53856"><ele>67.0</ele></trkpt><trkpt lat="30.63352" lon="-95.53877"><ele>67.0</ele></trkpt><trkpt lat="30.63321" lon="-95.53885"><ele>67.0</ele></trkpt><trkpt lat="30.63305" lon="-95.53947"><ele>68.0</ele></trkpt><trkpt lat="30.63318" lon="-95.53971"><ele>68.0</ele></trkpt><trkpt lat="30.63308" lon="-95.53991"><ele>70.0</ele></trkpt><trkpt lat="30.62784" lon="-95.54601"><ele>93.0</ele></trkpt><trkpt lat="30.62521" lon="-95.54605"><ele>84.0</ele></trkpt><trkpt lat="30.62472" lon="-95.54617"><ele>82.0</ele></trkpt><trkpt lat="30.62415" lon="-95.54607"><ele>81.0</ele></trkpt><trkpt lat="30.62134" lon="-95.54619"><ele>90.0</ele></trkpt><trkpt lat="30.62018" lon="-95.54609"><ele>90.0</ele></trkpt><trkpt lat="30.61131" lon="-95.54633"><ele>91.0</ele></trkpt><trkpt lat="30.61023" lon="-95.54525"><ele>90.0</ele></trkpt><trkpt lat="30.60802" lon="-95.54243"><ele>82.0</ele></trkpt><trkpt lat="30.60747" lon="-95.54008"><ele>81.0</ele></trkpt><trkpt lat="30.60735" lon="-95.53889"><ele>74.0</ele></trkpt><trkpt lat="30.60709" lon="-95.53824"><ele>75.0</ele></trkpt><trkpt lat="30.60704" lon="-95.53755"><ele>74.0</ele></trkpt><trkpt lat="30.60675" lon="-95.53649"><ele>67.0</ele></trkpt><trkpt lat="30.60677" lon="-95.53634"><ele>65.0</ele></trkpt><trkpt lat="30.60742" lon="-95.53641"><ele>62.0</ele></trkpt><trkpt lat="30.60785" lon="-95.53612"><ele>62.0</ele></trkpt><trkpt lat="30.60763" lon="-95.53547"><ele>61.0</ele></trkpt><trkpt lat="30.60696" lon="-95.53559"><ele>62.0</ele></trkpt><trkpt lat="30.60650" lon="-95.53550"><ele>62.0</ele></trkpt><trkpt lat="30.60640" lon="-95.53492"><ele>62.0</ele></trkpt><trkpt lat="30.60609" lon="-95.53447"><ele>66.0</ele></trkpt><trkpt lat="30.60309" lon="-95.53099"><ele>73.0</ele></trkpt><trkpt lat="30.61200" lon="-95.52088"><ele>88.0</ele></trkpt><trkpt lat="30.61232" lon="-95.52072"><ele>90.0</ele></trkpt><trkpt lat="30.61283" lon="-95.52081"><ele>88.0</ele></trkpt><trkpt lat="30.61424" lon="-95.52061"><ele>79.0</ele></trkpt><trkpt lat="30.61477" lon="-95.52032"><ele>72.0</ele></trkpt><trkpt lat="30.61444" lon="-95.52079"><ele>75.0</ele></trkpt><trkpt lat="30.61429" lon="-95.52140"><ele>76.0</ele></trkpt><trkpt lat="30.61355" lon="-95.52183"><ele>77.0</ele></trkpt><trkpt lat="30.61333" lon="-95.52217"><ele>77.0</ele></trkpt><trkpt lat="30.61332" lon="-95.52286"><ele>74.0</ele></trkpt><trkpt lat="30.61361" lon="-95.52317"><ele>74.0</ele></trkpt><trkpt lat="30.61400" lon="-95.52410"><ele>79.0</ele></trkpt><trkpt lat="30.61284" lon="-95.52449"><ele>85.0</ele></trkpt><trkpt lat="30.61294" lon="-95.52508"><ele>83.0</ele></trkpt><trkpt lat="30.61283" lon="-95.52586"><ele>77.0</ele></trkpt><trkpt lat="30.61209" lon="-95.52611"><ele>74.0</ele></trkpt><trkpt lat="30.61144" lon="-95.52583"><ele>74.0</ele></trkpt><trkpt lat="30.61070" lon="-95.52588"><ele>73.0</ele></trkpt><trkpt lat="30.61051" lon="-95.52616"><ele>73.0</ele></trkpt><trkpt lat="30.61062" lon="-95.52645"><ele>74.0</ele></trkpt><trkpt lat="30.61045" lon="-95.52674"><ele>77.0</ele></trkpt><trkpt lat="30.61033" lon="-95.52777"><ele>82.0</ele></trkpt><trkpt lat="30.60956" lon="-95.52849"><ele>87.0</ele></trkpt><trkpt lat="30.60935" lon="-95.52909"><ele>86.0</ele></trkpt><trkpt lat="30.60836" lon="-95.52960"><ele>83.0</ele></trkpt><trkpt lat="30.60832" lon="-95.53043"><ele>81.0</ele></trkpt><trkpt lat="30.60872" lon="-95.53149"><ele>77.0</ele></trkpt><trkpt lat="30.60843" lon="-95.53226"><ele>75.0</ele></trkpt><trkpt lat="30.60831" lon="-95.53289"><ele>73.0</ele></trkpt><trkpt lat="30.60837" lon="-95.53324"><ele>72.0</ele></trkpt><trkpt lat="30.60805" lon="-95.53365"><ele>70.0</ele></trkpt><trkpt lat="30.60773" lon="-95.53444"><ele>69.0</ele></trkpt><trkpt lat="30.60761" lon="-95.53509"><ele>67.0</ele></trkpt><trkpt lat="30.60742" lon="-95.53532"><ele>65.0</ele></trkpt><trkpt lat="30.60758" lon="-95.53573"><ele>64.0</ele></trkpt><trkpt lat="30.60790" lon="-95.53603"><ele>64.0</ele></trkpt><trkpt lat="30.60819" lon="-95.53576"><ele>65.0</ele></trkpt><trkpt lat="30.60845" lon="-95.53509"><ele>65.0</ele></trkpt><trkpt lat="30.60899" lon="-95.53424"><ele>69.0</ele></trkpt><trkpt lat="30.60915" lon="-95.53347"><ele>72.0</ele></trkpt><trkpt lat="30.60976" lon="-95.53389"><ele>76.0</ele></trkpt><trkpt lat="30.61203" lon="-95.53691"><ele>76.0</ele></trkpt><trkpt lat="30.61211" lon="-95.53813"><ele>77.0</ele></trkpt><trkpt lat="30.61236" lon="-95.53873"><ele>79.0</ele></trkpt><trkpt lat="30.61241" lon="-95.53921"><ele>78.0</ele></trkpt><trkpt lat="30.61281" lon="-95.53988"><ele>78.0</ele></trkpt><trkpt lat="30.61280" lon="-95.54105"><ele>79.0</ele></trkpt><trkpt lat="30.61403" lon="-95.54141"><ele>75.0</ele></trkpt><trkpt lat="30.61406" lon="-95.54201"><ele>76.0</ele></trkpt><trkpt lat="30.61396" lon="-95.54242"><ele>77.0</ele></trkpt><trkpt lat="30.61370" lon="-95.54258"><ele>78.0</ele></trkpt><trkpt lat="30.61376" lon="-95.54296"><ele>79.0</ele></trkpt><trkpt lat="30.61404" lon="-95.54318"><ele>80.0</ele></trkpt><trkpt lat="30.61427" lon="-95.54314"><ele>79.0</ele></trkpt><trkpt lat="30.61453" lon="-95.54351"><ele>77.0</ele></trkpt><trkpt lat="30.61480" lon="-95.54356"><ele>77.0</ele></trkpt><trkpt lat="30.61503" lon="-95.54438"><ele>80.0</ele></trkpt><trkpt lat="30.61560" lon="-95.54464"><ele>83.0</ele></trkpt><trkpt lat="30.61580" lon="-95.54490"><ele>85.0</ele></trkpt><trkpt lat="30.61592" lon="-95.54476"><ele>86.0</ele></trkpt><trkpt lat="30.61581" lon="-95.54422"><ele>87.0</ele></trkpt><trkpt lat="30.61596" lon="-95.54393"><ele>88.0</ele></trkpt><trkpt lat="30.61629" lon="-95.54381"><ele>90.0</ele></trkpt><trkpt lat="30.61749" lon="-95.54408"><ele>94.0</ele></trkpt><trkpt lat="30.61798" lon="-95.54400"><ele>96.0</ele></trkpt><trkpt lat="30.61847" lon="-95.54426"><ele>97.0</ele></trkpt><trkpt lat="30.61966" lon="-95.54451"><ele>95.0</ele></trkpt><trkpt lat="30.62014" lon="-95.54439"><ele>92.0</ele></trkpt><trkpt lat="30.62045" lon="-95.54409"><ele>89.0</ele></trkpt><trkpt lat="30.62077" lon="-95.54477"><ele>86.0</ele></trkpt><trkpt lat="30.62116" lon="-95.54444"><ele>86.0</ele></trkpt><trkpt lat="30.62166" lon="-95.54438"><ele>88.0</ele></trkpt><trkpt lat="30.62164" lon="-95.54483"><ele>91.0</ele></trkpt><trkpt lat="30.62250" lon="-95.54549"><ele>95.0</ele></trkpt><trkpt lat="30.62305" lon="-95.54527"><ele>91.0</ele></trkpt><trkpt lat="30.62417" lon="-95.54532"><ele>84.0</ele></trkpt><trkpt lat="30.62474" lon="-95.54478"><ele>88.0</ele></trkpt><trkpt lat="30.62525" lon="-95.54537"><ele>93.0</ele></trkpt><trkpt lat="30.62588" lon="-95.54546"><ele>96.0</ele></trkpt><trkpt lat="30.62765" lon="-95.54451"><ele>100.0</ele></trkpt><trkpt lat="30.62833" lon="-95.54375"><ele>97.0</ele></trkpt><trkpt lat="30.62927" lon="-95.54332"><ele>94.0</ele></trkpt><trkpt lat="30.62953" lon="-95.54293"><ele>91.0</ele></trkpt><trkpt lat="30.62955" lon="-95.54243"><ele>90.0</ele></trkpt><trkpt lat="30.62975" lon="-95.54202"><ele>89.0</ele></trkpt><trkpt lat="30.63009" lon="-95.54188"><ele>89.0</ele></trkpt><trkpt lat="30.63063" lon="-95.54131"><ele>88.0</ele></trkpt><trkpt lat="30.63117" lon="-95.54099"><ele>86.0</ele></trkpt><trkpt lat="30.63079" lon="-95.53997"><ele>81.0</ele></trkpt><trkpt lat="30.63131" lon="-95.54001"><ele>78.0</ele></trkpt><trkpt lat="30.63213" lon="-95.54064"><ele>78.0</ele></trkpt><trkpt lat="30.63242" lon="-95.54005"><ele>76.0</ele></trkpt><trkpt lat="30.63264" lon="-95.54002"><ele>77.0</ele></trkpt><trkpt lat="30.63270" lon="-95.53975"><ele>77.0</ele></trkpt><trkpt lat="30.63302" lon="-95.53960"><ele>75.0</ele></trkpt><trkpt lat="30.63328" lon="-95.53885"><ele>73.0</ele></trkpt><trkpt lat="30.63366" lon="-95.53873"><ele>72.0</ele></trkpt><trkpt lat="30.63368" lon="-95.53847"><ele>72.0</ele></trkpt><trkpt lat="30.63324" lon="-95.53803"><ele>73.0</ele></trkpt><trkpt lat="30.63267" lon="-95.53695"><ele>74.0</ele></trkpt><trkpt lat="30.63198" lon="-95.53658"><ele>73.0</ele></trkpt><trkpt lat="30.63138" lon="-95.53646"><ele>73.0</ele></trkpt><trkpt lat="30.63129" lon="-95.53673"><ele>73.0</ele></trkpt><trkpt lat="30.63088" lon="-95.53705"><ele>72.0</ele></trkpt><trkpt lat="30.63038" lon="-95.53695"><ele>73.0</ele></trkpt><trkpt lat="30.62957" lon="-95.53717"><ele>73.0</ele></trkpt><trkpt lat="30.62883" lon="-95.53715"><ele>73.0</ele></trkpt><trkpt lat="30.62844" lon="-95.53752"><ele>73.0</ele></trkpt><trkpt lat="30.62808" lon="-95.53752"><ele>73.0</ele></trkpt><trkpt lat="30.62732" lon="-95.53700"><ele>73.0</ele></trkpt><trkpt lat="30.62648" lon="-95.53692"><ele>73.0</ele></trkpt><trkpt lat="30.62619" lon="-95.53677"><ele>73.0</ele></trkpt><trkpt lat="30.62302" lon="-95.53667"><ele>74.0</ele></trkpt><trkpt lat="30.62237" lon="-95.53632"><ele>73.0</ele></trkpt><trkpt lat="30.62195" lon="-95.53560"><ele>77.0</ele></trkpt><trkpt lat="30.62198" lon="-95.53517"><ele>78.0</ele></trkpt><trkpt lat="30.62144" lon="-95.53460"><ele>76.0</ele></trkpt><trkpt lat="30.61946" lon="-95.53408"><ele>77.0</ele></trkpt><trkpt lat="30.61904" lon="-95.53386"><ele>79.0</ele></trkpt><trkpt lat="30.61513" lon="-95.53446"><ele>77.0</ele></trkpt><trkpt lat="30.61420" lon="-95.53438"><ele>74.0</ele></trkpt><trkpt lat="30.61332" lon="-95.53397"><ele>72.0</ele></trkpt><trkpt lat="30.61312" lon="-95.53374"><ele>72.0</ele></trkpt><trkpt lat="30.61344" lon="-95.53316"><ele>72.0</ele></trkpt><trkpt lat="30.61416" lon="-95.53330"><ele>74.0</ele></trkpt><trkpt lat="30.61537" lon="-95.53272"><ele>75.0</ele></trkpt><trkpt lat="30.61558" lon="-95.53273"><ele>75.0</ele></trkpt><trkpt lat="30.61616" lon="-95.53347"><ele>78.0</ele></trkpt><trkpt lat="30.61649" lon="-95.53352"><ele>79.0</ele></trkpt><trkpt lat="30.61742" lon="-95.53316"><ele>81.0</ele></trkpt><trkpt lat="30.61765" lon="-95.53299"><ele>81.0</ele></trkpt><trkpt lat="30.61813" lon="-95.53221"><ele>79.0</ele></trkpt><trkpt lat="30.61915" lon="-95.53121"><ele>72.0</ele></trkpt><trkpt lat="30.62007" lon="-95.53141"><ele>76.0</ele></trkpt><trkpt lat="30.62030" lon="-95.53165"><ele>77.0</ele></trkpt><trkpt lat="30.62093" lon="-95.53088"><ele>79.0</ele></trkpt><trkpt lat="30.62123" lon="-95.53078"><ele>76.0</ele></trkpt><trkpt lat="30.62158" lon="-95.53023"><ele>74.0</ele></trkpt><trkpt lat="30.62192" lon="-95.52998"><ele>75.0</ele></trkpt><trkpt lat="30.62205" lon="-95.53024"><ele>78.0</ele></trkpt><trkpt lat="30.62254" lon="-95.53063"><ele>81.0</ele></trkpt><trkpt lat="30.62300" lon="-95.53068"><ele>84.0</ele></trkpt><trkpt lat="30.62338" lon="-95.53091"><ele>87.0</ele></trkpt><trkpt lat="30.62341" lon="-95.53172"><ele>88.0</ele></trkpt><trkpt lat="30.62384" lon="-95.53218"><ele>90.0</ele></trkpt><trkpt lat="30.62396" lon="-95.53262"><ele>91.0</ele></trkpt><trkpt lat="30.62351" lon="-95.53372"><ele>92.0</ele></trkpt><trkpt lat="30.62420" lon="-95.53370"><ele>91.0</ele></trkpt><trkpt lat="30.62435" lon="-95.53417"><ele>89.0</ele></trkpt><trkpt lat="30.62435" lon="-95.53478"><ele>86.0</ele></trkpt><trkpt lat="30.62452" lon="-95.53521"><ele>85.0</ele></trkpt><trkpt lat="30.62558" lon="-95.53531"><ele>84.0</ele></trkpt><trkpt lat="30.62622" lon="-95.53565"><ele>84.0</ele></trkpt><trkpt lat="30.62718" lon="-95.53575"><ele>82.0</ele></trkpt><trkpt lat="30.62767" lon="-95.53619"><ele>80.0</ele></trkpt><trkpt lat="30.62860" lon="-95.53584"><ele>81.0</ele></trkpt><trkpt lat="30.62896" lon="-95.53585"><ele>83.0</ele></trkpt><trkpt lat="30.62908" lon="-95.53594"><ele>83.0</ele></trkpt><trkpt lat="30.62919" lon="-95.53639"><ele>82.0</ele></trkpt><trkpt lat="30.62941" lon="-95.53657"><ele>80.0</ele></trkpt><trkpt lat="30.63002" lon="-95.53678"><ele>78.0</ele></trkpt><trkpt lat="30.63047" lon="-95.53656"><ele>78.0</ele></trkpt><trkpt lat="30.63006" lon="-95.53605"><ele>81.0</ele></trkpt><trkpt lat="30.62970" lon="-95.53526"><ele>84.0</ele></trkpt><trkpt lat="30.62948" lon="-95.53521"><ele>84.0</ele></trkpt><trkpt lat="30.62960" lon="-95.53483"><ele>83.0</ele></trkpt><trkpt lat="30.62952" lon="-95.53470"><ele>83.0</ele></trkpt><trkpt lat="30.62902" lon="-95.53474"><ele>85.0</ele></trkpt><trkpt lat="30.62831" lon="-95.53427"><ele>87.0</ele></trkpt><trkpt lat="30.62761" lon="-95.53426"><ele>87.0</ele></trkpt><trkpt lat="30.62751" lon="-95.53378"><ele>90.0</ele></trkpt><trkpt lat="30.62708" lon="-95.53303"><ele>93.0</ele></trkpt><trkpt lat="30.62726" lon="-95.53254"><ele>94.0</ele></trkpt><trkpt lat="30.62744" lon="-95.53245"><ele>94.0</ele></trkpt><trkpt lat="30.62735" lon="-95.53227"><ele>94.0</ele></trkpt><trkpt lat="30.62673" lon="-95.53256"><ele>91.0</ele></trkpt><trkpt lat="30.62635" lon="-95.53232"><ele>90.0</ele></trkpt><trkpt lat="30.62638" lon="-95.53212"><ele>90.0</ele></trkpt><trkpt lat="30.62660" lon="-95.53213"><ele>89.0</ele></trkpt><trkpt lat="30.62659" lon="-95.53179"><ele>88.0</ele></trkpt><trkpt lat="30.62687" lon="-95.53139"><ele>85.0</ele></trkpt><trkpt lat="30.62587" lon="-95.53072"><ele>82.0</ele></trkpt><trkpt lat="30.62525" lon="-95.52929"><ele>82.0</ele></trkpt><trkpt lat="30.62530" lon="-95.52918"><ele>83.0</ele></trkpt><trkpt lat="30.62561" lon="-95.52941"><ele>83.0</ele></trkpt><trkpt lat="30.62602" lon="-95.52934"><ele>85.0</ele></trkpt><trkpt lat="30.62566" lon="-95.52869"><ele>88.0</ele></trkpt><trkpt lat="30.62617" lon="-95.52873"><ele>91.0</ele></trkpt><trkpt lat="30.62617" lon="-95.52853"><ele>92.0</ele></trkpt><trkpt lat="30.62567" lon="-95.52825"><ele>92.0</ele></trkpt><trkpt lat="30.62539" lon="-95.52844"><ele>90.0</ele></trkpt><trkpt lat="30.62496" lon="-95.52846"><ele>88.0</ele></trkpt><trkpt lat="30.62410" lon="-95.52895"><ele>80.0</ele></trkpt><trkpt lat="30.62358" lon="-95.52896"><ele>77.0</ele></trkpt><trkpt lat="30.62326" lon="-95.52927"><ele>76.0</ele></trkpt><trkpt lat="30.62302" lon="-95.52930"><ele>77.0</ele></trkpt><trkpt lat="30.62302" lon="-95.52862"><ele>75.0</ele></trkpt><trkpt lat="30.62335" lon="-95.52833"><ele>74.0</ele></trkpt><trkpt lat="30.62354" lon="-95.52745"><ele>75.0</ele></trkpt><trkpt lat="30.62346" lon="-95.52729"><ele>75.0</ele></trkpt><trkpt lat="30.62231" lon="-95.52742"><ele>76.0</ele></trkpt><trkpt lat="30.62217" lon="-95.52720"><ele>78.0</ele></trkpt><trkpt lat="30.62165" lon="-95.52687"><ele>83.0</ele></trkpt><trkpt lat="30.62046" lon="-95.52705"><ele>91.0</ele></trkpt><trkpt lat="30.61898" lon="-95.52661"><ele>96.0</ele></trkpt><trkpt lat="30.61820" lon="-95.52698"><ele>93.0</ele></trkpt><trkpt lat="30.61771" lon="-95.52622"><ele>91.0</ele></trkpt><trkpt lat="30.61785" lon="-95.52509"><ele>92.0</ele></trkpt><trkpt lat="30.61776" lon="-95.52459"><ele>90.0</ele></trkpt><trkpt lat="30.61729" lon="-95.52421"><ele>84.0</ele></trkpt><trkpt lat="30.61625" lon="-95.52274"><ele>80.0</ele></trkpt><trkpt lat="30.61644" lon="-95.52220"><ele>79.0</ele></trkpt><trkpt lat="30.61613" lon="-95.52172"><ele>76.0</ele></trkpt><trkpt lat="30.61616" lon="-95.52145"><ele>78.0</ele></trkpt><trkpt lat="30.61591" lon="-95.52072"><ele>77.0</ele></trkpt><trkpt lat="30.61600" lon="-95.52039"><ele>77.0</ele></trkpt><trkpt lat="30.61500" lon="-95.52018"><ele>75.0</ele></trkpt><trkpt lat="30.61479" lon="-95.52025"><ele>76.0</ele></trkpt><trkpt lat="30.61529" lon="-95.52038"><ele>75.0</ele></trkpt><trkpt lat="30.61883" lon="-95.52061"><ele>82.0</ele></trkpt><trkpt lat="30.61941" lon="-95.52084"><ele>82.0</ele></trkpt><trkpt lat="30.62205" lon="-95.51998"><ele>94.0</ele></trkpt><trkpt lat="30.62314" lon="-95.51935"><ele>96.0</ele></trkpt><trkpt lat="30.62441" lon="-95.51834"><ele>98.0</ele></trkpt><trkpt lat="30.62477" lon="-95.51839"><ele>101.0</ele></trkpt><trkpt lat="30.62498" lon="-95.51828"><ele>101.0</ele></trkpt><trkpt lat="30.63315" lon="-95.50910"><ele>102.0</ele></trkpt><trkpt lat="30.63355" lon="-95.50923"><ele>100.0</ele></trkpt><trkpt lat="30.63598" lon="-95.51215"><ele>101.0</ele></trkpt><trkpt lat="30.63593" lon="-95.51309"><ele>102.0</ele></trkpt><trkpt lat="30.63556" lon="-95.51384"><ele>102.0</ele></trkpt><trkpt lat="30.63596" lon="-95.51312"><ele>102.0</ele></trkpt><trkpt lat="30.63597" lon="-95.51209"><ele>101.0</ele></trkpt><trkpt lat="30.63346" lon="-95.50912"><ele>99.0</ele></trkpt><trkpt lat="30.63309" lon="-95.50905"><ele>102.0</ele></trkpt><trkpt lat="30.63281" lon="-95.50923"><ele>102.0</ele></trkpt><trkpt lat="30.62491" lon="-95.51819"><ele>103.0</ele></trkpt><trkpt lat="30.62473" lon="-95.51828"><ele>103.0</ele></trkpt><trkpt lat="30.62443" lon="-95.51820"><ele>102.0</ele></trkpt><trkpt lat="30.62325" lon="-95.51918"><ele>98.0</ele></trkpt><trkpt lat="30.62143" lon="-95.52020"><ele>96.0</ele></trkpt><trkpt lat="30.61986" lon="-95.52067"><ele>89.0</ele></trkpt><trkpt lat="30.61897" lon="-95.52078"><ele>84.0</ele></trkpt><trkpt lat="30.61686" lon="-95.52166"><ele>80.0</ele></trkpt><trkpt lat="30.61648" lon="-95.52200"><ele>79.0</ele></trkpt><trkpt lat="30.61621" lon="-95.52274"><ele>82.0</ele></trkpt><trkpt lat="30.61654" lon="-95.52326"><ele>82.0</ele></trkpt><trkpt lat="30.61728" lon="-95.52325"><ele>86.0</ele></trkpt><trkpt lat="30.61750" lon="-95.52279"><ele>88.0</ele></trkpt><trkpt lat="30.61751" lon="-95.52233"><ele>88.0</ele></trkpt><trkpt lat="30.61784" lon="-95.52187"><ele>87.0</ele></trkpt><trkpt lat="30.61830" lon="-95.52183"><ele>86.0</ele></trkpt><trkpt lat="30.61908" lon="-95.52149"><ele>87.0</ele></trkpt><trkpt lat="30.62026" lon="-95.52167"><ele>92.0</ele></trkpt><trkpt lat="30.62045" lon="-95.52182"><ele>94.0</ele></trkpt><trkpt lat="30.61998" lon="-95.52223"><ele>97.0</ele></trkpt><trkpt lat="30.62010" lon="-95.52245"><ele>97.0</ele></trkpt><trkpt lat="30.62168" lon="-95.52232"><ele>101.0</ele></trkpt><trkpt lat="30.62210" lon="-95.52247"><ele>102.0</ele></trkpt><trkpt lat="30.62271" lon="-95.52241"><ele>100.0</ele></trkpt><trkpt lat="30.62240" lon="-95.52327"><ele>94.0</ele></trkpt><trkpt lat="30.62238" lon="-95.52361"><ele>93.0</ele></trkpt><trkpt lat="30.62299" lon="-95.52357"><ele>89.0</ele></trkpt><trkpt lat="30.62368" lon="-95.52420"><ele>84.0</ele></trkpt><trkpt lat="30.62369" lon="-95.52461"><ele>82.0</ele></trkpt><trkpt lat="30.62411" lon="-95.52443"><ele>81.0</ele></trkpt><trkpt lat="30.62462" lon="-95.52478"><ele>80.0</ele></trkpt><trkpt lat="30.62506" lon="-95.52451"><ele>82.0</ele></trkpt><trkpt lat="30.62522" lon="-95.52456"><ele>82.0</ele></trkpt><trkpt lat="30.62525" lon="-95.52492"><ele>84.0</ele></trkpt><trkpt lat="30.62542" lon="-95.52517"><ele>85.0</ele></trkpt><trkpt lat="30.62573" lon="-95.52513"><ele>86.0</ele></trkpt><trkpt lat="30.62606" lon="-95.52538"><ele>87.0</ele></trkpt><trkpt lat="30.62643" lon="-95.52598"><ele>90.0</ele></trkpt><trkpt lat="30.62694" lon="-95.52646"><ele>93.0</ele></trkpt><trkpt lat="30.62692" lon="-95.52661"><ele>94.0</ele></trkpt><trkpt lat="30.62658" lon="-95.52671"><ele>94.0</ele></trkpt><trkpt lat="30.62643" lon="-95.52696"><ele>95.0</ele></trkpt><trkpt lat="30.62667" lon="-95.52769"><ele>98.0</ele></trkpt><trkpt lat="30.62643" lon="-95.52802"><ele>99.0</ele></trkpt><trkpt lat="30.62626" lon="-95.52856"><ele>98.0</ele></trkpt><trkpt lat="30.62642" lon="-95.52907"><ele>95.0</ele></trkpt><trkpt lat="30.62610" lon="-95.52955"><ele>91.0</ele></trkpt><trkpt lat="30.63126" lon="-95.53558"><ele>82.0</ele></trkpt><trkpt lat="30.63141" lon="-95.53583"><ele>80.0</ele></trkpt><trkpt lat="30.63128" lon="-95.53648"><ele>79.0</ele></trkpt><trkpt lat="30.63257" lon="-95.53693"><ele>79.0</ele></trkpt><trkpt lat="30.63327" lon="-95.53814"><ele>79.0</ele></trkpt><trkpt lat="30.63363" lon="-95.53851"><ele>78.0</ele></trkpt><trkpt lat="30.63357" lon="-95.53878"><ele>78.0</ele></trkpt><trkpt lat="30.63323" lon="-95.53885"><ele>78.0</ele></trkpt><trkpt lat="30.63304" lon="-95.53948"><ele>79.0</ele></trkpt><trkpt lat="30.63318" lon="-95.53965"><ele>79.0</ele></trkpt><trkpt lat="30.63293" lon="-95.54007"><ele>83.0</ele></trkpt><trkpt lat="30.62787" lon="-95.54602"><ele>106.0</ele></trkpt><trkpt lat="30.62390" lon="-95.54618"><ele>93.0</ele></trkpt><trkpt lat="30.62199" lon="-95.54611"><ele>104.0</ele></trkpt><trkpt lat="30.61137" lon="-95.54634"><ele>102.0</ele></trkpt><trkpt lat="30.60859" lon="-95.54329"><ele>99.0</ele></trkpt><trkpt lat="30.60806" lon="-95.54248"><ele>94.0</ele></trkpt><trkpt lat="30.60677" lon="-95.53643"><ele>78.0</ele></trkpt><trkpt lat="30.60732" lon="-95.53645"><ele>75.0</ele></trkpt><trkpt lat="30.60790" lon="-95.53614"><ele>74.0</ele></trkpt><trkpt lat="30.60767" lon="-95.53547"><ele>73.0</ele></trkpt><trkpt lat="30.60752" lon="-95.53543"><ele>74.0</ele></trkpt><trkpt lat="30.60720" lon="-95.53563"><ele>74.0</ele></trkpt><trkpt lat="30.60657" lon="-95.53549"><ele>74.0</ele></trkpt><trkpt lat="30.60629" lon="-95.53470"><ele>76.0</ele></trkpt><trkpt lat="30.60309" lon="-95.53100"><ele>84.0</ele></trkpt><trkpt lat="30.61228" lon="-95.52066"><ele>102.0</ele></trkpt><trkpt lat="30.61326" lon="-95.52074"><ele>99.0</ele></trkpt><trkpt lat="30.61431" lon="-95.52053"><ele>91.0</ele></trkpt><trkpt lat="30.61492" lon="-95.52027"><ele>85.0</ele></trkpt><trkpt lat="30.61478" lon="-95.52024"><ele>85.0</ele></trkpt><trkpt lat="30.61445" lon="-95.52075"><ele>88.0</ele></trkpt><trkpt lat="30.61434" lon="-95.52137"><ele>89.0</ele></trkpt><trkpt lat="30.61361" lon="-95.52172"><ele>90.0</ele></trkpt><trkpt lat="30.61338" lon="-95.52213"><ele>90.0</ele></trkpt><trkpt lat="30.61336" lon="-95.52290"><ele>87.0</ele></trkpt><trkpt lat="30.61401" lon="-95.52402"><ele>92.0</ele></trkpt><trkpt lat="30.61289" lon="-95.52443"><ele>99.0</ele></trkpt><trkpt lat="30.61299" lon="-95.52518"><ele>95.0</ele></trkpt><trkpt lat="30.61278" lon="-95.52592"><ele>90.0</ele></trkpt><trkpt lat="30.61224" lon="-95.52609"><ele>87.0</ele></trkpt><trkpt lat="30.61140" lon="-95.52579"><ele>88.0</ele></trkpt><trkpt lat="30.61069" lon="-95.52588"><ele>85.0</ele></trkpt><trkpt lat="30.61055" lon="-95.52612"><ele>86.0</ele></trkpt><trkpt lat="30.61063" lon="-95.52644"><ele>88.0</ele></trkpt><trkpt lat="30.61045" lon="-95.52698"><ele>93.0</ele></trkpt><trkpt lat="30.61038" lon="-95.52773"><ele>96.0</ele></trkpt><trkpt lat="30.60969" lon="-95.52830"><ele>100.0</ele></trkpt><trkpt lat="30.60945" lon="-95.52906"><ele>100.0</ele></trkpt><trkpt lat="30.60838" lon="-95.52955"><ele>98.0</ele></trkpt><trkpt lat="30.60837" lon="-95.53047"><ele>94.0</ele></trkpt><trkpt lat="30.60874" lon="-95.53154"><ele>91.0</ele></trkpt><trkpt lat="30.60846" lon="-95.53225"><ele>89.0</ele></trkpt><trkpt lat="30.60834" lon="-95.53299"><ele>87.0</ele></trkpt><trkpt lat="30.60840" lon="-95.53329"><ele>86.0</ele></trkpt><trkpt lat="30.60812" lon="-95.53361"><ele>85.0</ele></trkpt><trkpt lat="30.60747" lon="-95.53537"><ele>79.0</ele></trkpt><trkpt lat="30.60762" lon="-95.53553"><ele>78.0</ele></trkpt><trkpt lat="30.60763" lon="-95.53574"><ele>78.0</ele></trkpt><trkpt lat="30.60797" lon="-95.53607"><ele>79.0</ele></trkpt><trkpt lat="30.60823" lon="-95.53578"><ele>79.0</ele></trkpt><trkpt lat="30.60846" lon="-95.53504"><ele>79.0</ele></trkpt><trkpt lat="30.60894" lon="-95.53431"><ele>84.0</ele></trkpt><trkpt lat="30.60917" lon="-95.53352"><ele>87.0</ele></trkpt><trkpt lat="30.60976" lon="-95.53387"><ele>91.0</ele></trkpt><trkpt lat="30.60939" lon="-95.53360"><ele>91.0</ele></trkpt><trkpt lat="30.61036" lon="-95.53461"><ele>91.0</ele></trkpt><trkpt lat="30.61201" lon="-95.53678"><ele>91.0</ele></trkpt><trkpt lat="30.61215" lon="-95.53726"><ele>91.0</ele></trkpt><trkpt lat="30.61210" lon="-95.53805"><ele>92.0</ele></trkpt><trkpt lat="30.61236" lon="-95.53866"><ele>94.0</ele></trkpt><trkpt lat="30.61244" lon="-95.53917"><ele>93.0</ele></trkpt><trkpt lat="30.61286" lon="-95.53993"><ele>93.0</ele></trkpt><trkpt lat="30.61294" lon="-95.54050"><ele>94.0</ele></trkpt><trkpt lat="30.61285" lon="-95.54106"><ele>94.0</ele></trkpt><trkpt lat="30.61299" lon="-95.54119"><ele>94.0</ele></trkpt><trkpt lat="30.61320" lon="-95.54111"><ele>94.0</ele></trkpt><trkpt lat="30.61406" lon="-95.54136"><ele>90.0</ele></trkpt><trkpt lat="30.61416" lon="-95.54200"><ele>91.0</ele></trkpt><trkpt lat="30.61397" lon="-95.54246"><ele>93.0</ele></trkpt><trkpt lat="30.61380" lon="-95.54257"><ele>94.0</ele></trkpt><trkpt lat="30.61384" lon="-95.54284"><ele>95.0</ele></trkpt><trkpt lat="30.61410" lon="-95.54319"><ele>95.0</ele></trkpt><trkpt lat="30.61476" lon="-95.54349"><ele>92.0</ele></trkpt><trkpt lat="30.61514" lon="-95.54442"><ele>96.0</ele></trkpt><trkpt lat="30.61586" lon="-95.54487"><ele>101.0</ele></trkpt><trkpt lat="30.61585" lon="-95.54415"><ele>103.0</ele></trkpt><trkpt lat="30.61602" lon="-95.54396"><ele>104.0</ele></trkpt><trkpt lat="30.61643" lon="-95.54385"><ele>106.0</ele></trkpt><trkpt lat="30.61750" lon="-95.54413"><ele>110.0</ele></trkpt><trkpt lat="30.61802" lon="-95.54406"><ele>111.0</ele></trkpt><trkpt lat="30.61963" lon="-95.54456"><ele>110.0</ele></trkpt><trkpt lat="30.62009" lon="-95.54444"><ele>108.0</ele></trkpt><trkpt lat="30.62044" lon="-95.54417"><ele>105.0</ele></trkpt><trkpt lat="30.62076" lon="-95.54477"><ele>102.0</ele></trkpt><trkpt lat="30.62110" lon="-95.54449"><ele>102.0</ele></trkpt><trkpt lat="30.62167" lon="-95.54441"><ele>104.0</ele></trkpt><trkpt lat="30.62160" lon="-95.54482"><ele>107.0</ele></trkpt><trkpt lat="30.62234" lon="-95.54548"><ele>111.0</ele></trkpt><trkpt lat="30.62422" lon="-95.54534"><ele>101.0</ele></trkpt><trkpt lat="30.62471" lon="-95.54481"><ele>105.0</ele></trkpt><trkpt lat="30.62525" lon="-95.54533"><ele>110.0</ele></trkpt><trkpt lat="30.62571" lon="-95.54555"><ele>113.0</ele></trkpt><trkpt lat="30.62606" lon="-95.54551"><ele>114.0</ele></trkpt><trkpt lat="30.62693" lon="-95.54490"><ele>117.0</ele></trkpt><trkpt lat="30.62767" lon="-95.54457"><ele>117.0</ele></trkpt><trkpt lat="30.62841" lon="-95.54374"><ele>114.0</ele></trkpt><trkpt lat="30.62922" lon="-95.54340"><ele>111.0</ele></trkpt><trkpt lat="30.62950" lon="-95.54296"><ele>109.0</ele></trkpt><trkpt lat="30.62955" lon="-95.54242"><ele>107.0</ele></trkpt><trkpt lat="30.62972" lon="-95.54210"><ele>106.0</ele></trkpt><trkpt lat="30.63062" lon="-95.54133"><ele>104.0</ele></trkpt><trkpt lat="30.63116" lon="-95.54104"><ele>103.0</ele></trkpt><trkpt lat="30.63076" lon="-95.53999"><ele>98.0</ele></trkpt><trkpt lat="30.63133" lon="-95.54005"><ele>95.0</ele></trkpt><trkpt lat="30.63209" lon="-95.54065"><ele>95.0</ele></trkpt><trkpt lat="30.63232" lon="-95.54014"><ele>93.0</ele></trkpt><trkpt lat="30.63261" lon="-95.54005"><ele>93.0</ele></trkpt><trkpt lat="30.63268" lon="-95.53984"><ele>93.0</ele></trkpt><trkpt lat="30.63302" lon="-95.53966"><ele>92.0</ele></trkpt><trkpt lat="30.63325" lon="-95.53885"><ele>89.0</ele></trkpt><trkpt lat="30.63354" lon="-95.53885"><ele>89.0</ele></trkpt><trkpt lat="30.63372" lon="-95.53862"><ele>89.0</ele></trkpt><trkpt lat="30.63279" lon="-95.53732"><ele>92.0</ele></trkpt><trkpt lat="30.63265" lon="-95.53689"><ele>91.0</ele></trkpt><trkpt lat="30.63244" lon="-95.53672"><ele>90.0</ele></trkpt><trkpt lat="30.63141" lon="-95.53652"><ele>89.0</ele></trkpt><trkpt lat="30.63130" lon="-95.53678"><ele>89.0</ele></trkpt><trkpt lat="30.63094" lon="-95.53710"><ele>89.0</ele></trkpt><trkpt lat="30.63034" lon="-95.53703"><ele>89.0</ele></trkpt><trkpt lat="30.62889" lon="-95.53724"><ele>90.0</ele></trkpt><trkpt lat="30.62830" lon="-95.53762"><ele>90.0</ele></trkpt><trkpt lat="30.62714" lon="-95.53694"><ele>89.0</ele></trkpt><trkpt lat="30.62677" lon="-95.53698"><ele>89.0</ele></trkpt><trkpt lat="30.62573" lon="-95.53678"><ele>89.0</ele></trkpt><trkpt lat="30.62509" lon="-95.53687"><ele>89.0</ele></trkpt><trkpt lat="30.62469" lon="-95.53674"><ele>90.0</ele></trkpt><trkpt lat="30.62336" lon="-95.53682"><ele>91.0</ele></trkpt><trkpt lat="30.62242" lon="-95.53642"><ele>90.0</ele></trkpt><trkpt lat="30.62199" lon="-95.53564"><ele>94.0</ele></trkpt><trkpt lat="30.62195" lon="-95.53513"><ele>96.0</ele></trkpt><trkpt lat="30.62141" lon="-95.53458"><ele>94.0</ele></trkpt><trkpt lat="30.62067" lon="-95.53429"><ele>93.0</ele></trkpt><trkpt lat="30.61869" lon="-95.53390"><ele>100.0</ele></trkpt><trkpt lat="30.61567" lon="-95.53453"><ele>97.0</ele></trkpt><trkpt lat="30.61425" lon="-95.53445"><ele>94.0</ele></trkpt><trkpt lat="30.61359" lon="-95.53424"><ele>91.0</ele></trkpt><trkpt lat="30.61312" lon="-95.53385"><ele>91.0</ele></trkpt><trkpt lat="30.61342" lon="-95.53319"><ele>91.0</ele></trkpt><trkpt lat="30.61381" lon="-95.53333"><ele>93.0</ele></trkpt></trkseg></trk></gpx>