<?xml version="1.0" encoding="UTF-8"?>
<gpx version="1.1" creator="alexrunsfar simplify-gpx"><metadata><name>tiger-peak-50k-2026</name><desc>simplified from Strava export; 30.98 mi; 9211 ft gain (computed at full resolution)</desc></metadata><trk><name>tiger-peak-50k-2026</name><trkseg><trkpt lat="47.52364" lon="-122.02747"><ele>52.0</ele></trkpt><trkpt lat="47.52417" lon="-122.02759"><ele>55.8</ele></trkpt><trkpt lat="47.52358" lon="-122.02707"><ele>59.0</ele></trkpt><trkpt lat="47.52282" lon="-122.02691"><ele>57.4</ele></trkpt><trkpt lat="47.52139" lon="-122.02622"><ele>52.2</ele></trkpt><trkpt lat="47.52112" lon="-122.02585"><ele>51.8</ele></trkpt><trkpt lat="47.52067" lon="-122.02569"><ele>55.0</ele></trkpt><trkpt lat="47.52039" lon="-122.02406"><ele>69.8</ele></trkpt><trkpt lat="47.51971" lon="-122.02212"><ele>88.6</ele></trkpt><trkpt lat="47.51965" lon="-122.02120"><ele>97.6</ele></trkpt><trkpt lat="47.52006" lon="-122.01982"><ele>113.0</ele></trkpt><trkpt lat="47.51984" lon="-122.01889"><ele>121.4</ele></trkpt><trkpt lat="47.51962" lon="-122.01705"><ele>136.8</ele></trkpt><trkpt lat="47.51980" lon="-122.01633"><ele>142.4</ele></trkpt><trkpt lat="47.52019" lon="-122.01603"><ele>148.6</ele></trkpt><trkpt lat="47.52085" lon="-122.01451"><ele>152.6</ele></trkpt><trkpt lat="47.52081" lon="-122.01342"><ele>153.0</ele></trkpt><trkpt lat="47.52075" lon="-122.01315"><ele>153.6</ele></trkpt><trkpt lat="47.52037" lon="-122.01278"><ele>155.2</ele></trkpt><trkpt lat="47.52040" lon="-122.01233"><ele>159.6</ele></trkpt><trkpt lat="47.52007" lon="-122.01179"><ele>165.4</ele></trkpt><trkpt lat="47.52032" lon="-122.01155"><ele>171.4</ele></trkpt><trkpt lat="47.52036" lon="-122.01015"><ele>184.4</ele></trkpt><trkpt lat="47.52049" lon="-122.00965"><ele>187.6</ele></trkpt><trkpt lat="47.51966" lon="-122.00765"><ele>220.8</ele></trkpt><trkpt lat="47.51988" lon="-122.00686"><ele>233.0</ele></trkpt><trkpt lat="47.51914" lon="-122.00632"><ele>251.4</ele></trkpt><trkpt lat="47.51923" lon="-122.00582"><ele>258.8</ele></trkpt><trkpt lat="47.51899" lon="-122.00379"><ele>276.6</ele></trkpt><trkpt lat="47.51875" lon="-122.00368"><ele>282.8</ele></trkpt><trkpt lat="47.51875" lon="-122.00424"><ele>289.6</ele></trkpt><trkpt lat="47.51864" lon="-122.00427"><ele>293.0</ele></trkpt><trkpt lat="47.51843" lon="-122.00350"><ele>300.0</ele></trkpt><trkpt lat="47.51783" lon="-122.00301"><ele>314.6</ele></trkpt><trkpt lat="47.51774" lon="-122.00210"><ele>318.2</ele></trkpt><trkpt lat="47.51843" lon="-122.00150"><ele>330.8</ele></trkpt><trkpt lat="47.51815" lon="-122.00114"><ele>337.8</ele></trkpt><trkpt lat="47.51807" lon="-122.00067"><ele>344.8</ele></trkpt><trkpt lat="47.51787" lon="-122.00083"><ele>350.6</ele></trkpt><trkpt lat="47.51777" lon="-122.00021"><ele>362.2</ele></trkpt><trkpt lat="47.51793" lon="-121.99878"><ele>384.8</ele></trkpt><trkpt lat="47.51772" lon="-121.99812"><ele>403.2</ele></trkpt><trkpt lat="47.51749" lon="-121.99809"><ele>411.0</ele></trkpt><trkpt lat="47.51727" lon="-121.99901"><ele>421.0</ele></trkpt><trkpt lat="47.51657" lon="-121.99940"><ele>435.0</ele></trkpt><trkpt lat="47.51628" lon="-121.99887"><ele>461.6</ele></trkpt><trkpt lat="47.51576" lon="-121.99893"><ele>482.6</ele></trkpt><trkpt lat="47.51488" lon="-121.99689"><ele>569.8</ele></trkpt><trkpt lat="47.51487" lon="-121.99619"><ele>586.6</ele></trkpt><trkpt lat="47.51448" lon="-121.99479"><ele>613.2</ele></trkpt><trkpt lat="47.51441" lon="-121.99380"><ele>628.8</ele></trkpt><trkpt lat="47.51404" lon="-121.99324"><ele>649.8</ele></trkpt><trkpt lat="47.51367" lon="-121.99227"><ele>682.4</ele></trkpt><trkpt lat="47.51243" lon="-121.99102"><ele>753.2</ele></trkpt><trkpt lat="47.51233" lon="-121.99035"><ele>770.2</ele></trkpt><trkpt lat="47.51176" lon="-121.99013"><ele>777.6</ele></trkpt><trkpt lat="47.51172" lon="-121.99065"><ele>769.6</ele></trkpt><trkpt lat="47.51135" lon="-121.98998"><ele>761.0</ele></trkpt><trkpt lat="47.51098" lon="-121.98976"><ele>761.6</ele></trkpt><trkpt lat="47.51073" lon="-121.98991"><ele>763.0</ele></trkpt><trkpt lat="47.51074" lon="-121.98962"><ele>766.6</ele></trkpt><trkpt lat="47.51031" lon="-121.98948"><ele>768.8</ele></trkpt><trkpt lat="47.51002" lon="-121.98887"><ele>768.0</ele></trkpt><trkpt lat="47.50944" lon="-121.98875"><ele>779.0</ele></trkpt><trkpt lat="47.50945" lon="-121.98844"><ele>782.6</ele></trkpt><trkpt lat="47.50969" lon="-121.98806"><ele>787.6</ele></trkpt><trkpt lat="47.50964" lon="-121.98757"><ele>792.0</ele></trkpt><trkpt lat="47.50914" lon="-121.98761"><ele>798.0</ele></trkpt><trkpt lat="47.50885" lon="-121.98745"><ele>803.0</ele></trkpt><trkpt lat="47.50927" lon="-121.98688"><ele>810.2</ele></trkpt><trkpt lat="47.50933" lon="-121.98624"><ele>815.8</ele></trkpt><trkpt lat="47.50867" lon="-121.98622"><ele>826.6</ele></trkpt><trkpt lat="47.50849" lon="-121.98598"><ele>830.6</ele></trkpt><trkpt lat="47.50831" lon="-121.98525"><ele>835.2</ele></trkpt><trkpt lat="47.50756" lon="-121.98456"><ele>821.2</ele></trkpt><trkpt lat="47.50702" lon="-121.98428"><ele>810.4</ele></trkpt><trkpt lat="47.50673" lon="-121.98346"><ele>798.6</ele></trkpt><trkpt lat="47.50623" lon="-121.98355"><ele>793.6</ele></trkpt><trkpt lat="47.50589" lon="-121.98337"><ele>790.0</ele></trkpt><trkpt lat="47.50578" lon="-121.98311"><ele>787.4</ele></trkpt><trkpt lat="47.50579" lon="-121.98234"><ele>782.0</ele></trkpt><trkpt lat="47.50524" lon="-121.98177"><ele>787.8</ele></trkpt><trkpt lat="47.50454" lon="-121.98146"><ele>810.4</ele></trkpt><trkpt lat="47.50364" lon="-121.97916"><ele>850.4</ele></trkpt><trkpt lat="47.50355" lon="-121.97723"><ele>873.2</ele></trkpt><trkpt lat="47.50365" lon="-121.97646"><ele>878.0</ele></trkpt><trkpt lat="47.50355" lon="-121.97594"><ele>877.0</ele></trkpt><trkpt lat="47.50320" lon="-121.97531"><ele>877.4</ele></trkpt><trkpt lat="47.50321" lon="-121.97498"><ele>876.2</ele></trkpt><trkpt lat="47.50389" lon="-121.97357"><ele>873.8</ele></trkpt><trkpt lat="47.50429" lon="-121.97374"><ele>882.2</ele></trkpt><trkpt lat="47.50459" lon="-121.97344"><ele>877.6</ele></trkpt><trkpt lat="47.50451" lon="-121.97461"><ele>867.4</ele></trkpt><trkpt lat="47.50490" lon="-121.97366"><ele>863.0</ele></trkpt><trkpt lat="47.50574" lon="-121.97243"><ele>838.2</ele></trkpt><trkpt lat="47.50599" lon="-121.97172"><ele>837.2</ele></trkpt><trkpt lat="47.50600" lon="-121.97136"><ele>843.2</ele></trkpt><trkpt lat="47.50576" lon="-121.97046"><ele>839.0</ele></trkpt><trkpt lat="47.50520" lon="-121.96954"><ele>847.2</ele></trkpt><trkpt lat="47.50553" lon="-121.96789"><ele>849.6</ele></trkpt><trkpt lat="47.50485" lon="-121.96687"><ele>840.2</ele></trkpt><trkpt lat="47.50500" lon="-121.96645"><ele>832.8</ele></trkpt><trkpt lat="47.50540" lon="-121.96627"><ele>825.0</ele></trkpt><trkpt lat="47.50561" lon="-121.96580"><ele>814.8</ele></trkpt><trkpt lat="47.50615" lon="-121.96528"><ele>797.8</ele></trkpt><trkpt lat="47.50666" lon="-121.96449"><ele>782.4</ele></trkpt><trkpt lat="47.50687" lon="-121.96382"><ele>769.2</ele></trkpt><trkpt lat="47.50711" lon="-121.96182"><ele>739.4</ele></trkpt><trkpt lat="47.50704" lon="-121.96117"><ele>730.6</ele></trkpt><trkpt lat="47.50662" lon="-121.96014"><ele>718.0</ele></trkpt><trkpt lat="47.50670" lon="-121.95901"><ele>697.0</ele></trkpt><trkpt lat="47.50697" lon="-121.95861"><ele>689.2</ele></trkpt><trkpt lat="47.50738" lon="-121.95866"><ele>688.0</ele></trkpt><trkpt lat="47.50740" lon="-121.95783"><ele>682.0</ele></trkpt><trkpt lat="47.50765" lon="-121.95864"><ele>680.2</ele></trkpt><trkpt lat="47.50790" lon="-121.95866"><ele>675.4</ele></trkpt><trkpt lat="47.50814" lon="-121.95835"><ele>670.8</ele></trkpt><trkpt lat="47.50852" lon="-121.95864"><ele>674.6</ele></trkpt><trkpt lat="47.50916" lon="-121.95771"><ele>657.0</ele></trkpt><trkpt lat="47.50922" lon="-121.95712"><ele>648.2</ele></trkpt><trkpt lat="47.50902" lon="-121.95650"><ele>637.2</ele></trkpt><trkpt lat="47.50949" lon="-121.95599"><ele>628.2</ele></trkpt><trkpt lat="47.50940" lon="-121.95530"><ele>620.2</ele></trkpt><trkpt lat="47.50959" lon="-121.95474"><ele>613.2</ele></trkpt><trkpt lat="47.50983" lon="-121.95456"><ele>608.8</ele></trkpt><trkpt lat="47.51026" lon="-121.95458"><ele>598.8</ele></trkpt><trkpt lat="47.51121" lon="-121.95366"><ele>572.2</ele></trkpt><trkpt lat="47.51172" lon="-121.95355"><ele>559.2</ele></trkpt><trkpt lat="47.51211" lon="-121.95319"><ele>551.6</ele></trkpt><trkpt lat="47.51224" lon="-121.95368"><ele>540.8</ele></trkpt><trkpt lat="47.51245" lon="-121.95342"><ele>532.2</ele></trkpt><trkpt lat="47.51259" lon="-121.95359"><ele>526.4</ele></trkpt><trkpt lat="47.51270" lon="-121.95418"><ele>520.8</ele></trkpt><trkpt lat="47.51329" lon="-121.95518"><ele>524.6</ele></trkpt><trkpt lat="47.51343" lon="-121.95583"><ele>526.4</ele></trkpt><trkpt lat="47.51389" lon="-121.95629"><ele>520.4</ele></trkpt><trkpt lat="47.51418" lon="-121.95610"><ele>516.2</ele></trkpt><trkpt lat="47.51449" lon="-121.95559"><ele>518.0</ele></trkpt><trkpt lat="47.51595" lon="-121.95593"><ele>526.4</ele></trkpt><trkpt lat="47.51614" lon="-121.95582"><ele>525.6</ele></trkpt><trkpt lat="47.51630" lon="-121.95533"><ele>513.8</ele></trkpt><trkpt lat="47.51688" lon="-121.95510"><ele>502.0</ele></trkpt><trkpt lat="47.51684" lon="-121.95547"><ele>507.6</ele></trkpt><trkpt lat="47.51636" lon="-121.95596"><ele>526.0</ele></trkpt><trkpt lat="47.51617" lon="-121.95701"><ele>549.8</ele></trkpt><trkpt lat="47.51643" lon="-121.95824"><ele>571.2</ele></trkpt><trkpt lat="47.51697" lon="-121.95938"><ele>594.0</ele></trkpt><trkpt lat="47.51653" lon="-121.95988"><ele>604.0</ele></trkpt><trkpt lat="47.51627" lon="-121.96053"><ele>611.6</ele></trkpt><trkpt lat="47.51545" lon="-121.96119"><ele>622.4</ele></trkpt><trkpt lat="47.51522" lon="-121.96159"><ele>623.8</ele></trkpt><trkpt lat="47.51505" lon="-121.96261"><ele>636.6</ele></trkpt><trkpt lat="47.51508" lon="-121.96361"><ele>638.0</ele></trkpt><trkpt lat="47.51391" lon="-121.96476"><ele>629.4</ele></trkpt><trkpt lat="47.51381" lon="-121.96508"><ele>625.8</ele></trkpt><trkpt lat="47.51283" lon="-121.96507"><ele>649.6</ele></trkpt><trkpt lat="47.51217" lon="-121.96559"><ele>661.4</ele></trkpt><trkpt lat="47.51195" lon="-121.96610"><ele>664.8</ele></trkpt><trkpt lat="47.51145" lon="-121.96630"><ele>669.2</ele></trkpt><trkpt lat="47.51161" lon="-121.96689"><ele>668.0</ele></trkpt><trkpt lat="47.51156" lon="-121.96742"><ele>658.4</ele></trkpt><trkpt lat="47.51093" lon="-121.96939"><ele>640.6</ele></trkpt><trkpt lat="47.51097" lon="-121.97086"><ele>624.2</ele></trkpt><trkpt lat="47.51129" lon="-121.97151"><ele>611.0</ele></trkpt><trkpt lat="47.51017" lon="-121.97382"><ele>580.2</ele></trkpt><trkpt lat="47.50979" lon="-121.97542"><ele>577.8</ele></trkpt><trkpt lat="47.50942" lon="-121.97567"><ele>589.6</ele></trkpt><trkpt lat="47.50929" lon="-121.97596"><ele>594.4</ele></trkpt><trkpt lat="47.50940" lon="-121.97647"><ele>594.0</ele></trkpt><trkpt lat="47.51008" lon="-121.97684"><ele>595.6</ele></trkpt><trkpt lat="47.51015" lon="-121.97747"><ele>596.0</ele></trkpt><trkpt lat="47.50996" lon="-121.97694"><ele>601.2</ele></trkpt><trkpt lat="47.50959" lon="-121.97691"><ele>608.0</ele></trkpt><trkpt lat="47.50940" lon="-121.97822"><ele>625.4</ele></trkpt><trkpt lat="47.50880" lon="-121.97913"><ele>640.0</ele></trkpt><trkpt lat="47.50894" lon="-121.98002"><ele>650.8</ele></trkpt><trkpt lat="47.50879" lon="-121.98039"><ele>657.6</ele></trkpt><trkpt lat="47.51065" lon="-121.98089"><ele>679.8</ele></trkpt><trkpt lat="47.51246" lon="-121.98072"><ele>687.4</ele></trkpt><trkpt lat="47.51308" lon="-121.98085"><ele>688.4</ele></trkpt><trkpt lat="47.51388" lon="-121.98056"><ele>661.4</ele></trkpt><trkpt lat="47.51404" lon="-121.98032"><ele>651.6</ele></trkpt><trkpt lat="47.51443" lon="-121.98072"><ele>633.0</ele></trkpt><trkpt lat="47.51459" lon="-121.98059"><ele>626.0</ele></trkpt><trkpt lat="47.51494" lon="-121.98070"><ele>611.8</ele></trkpt><trkpt lat="47.51566" lon="-121.98041"><ele>584.6</ele></trkpt><trkpt lat="47.51603" lon="-121.98007"><ele>573.4</ele></trkpt><trkpt lat="47.51670" lon="-121.97990"><ele>553.2</ele></trkpt><trkpt lat="47.51716" lon="-121.97953"><ele>536.4</ele></trkpt><trkpt lat="47.51738" lon="-121.97990"><ele>521.4</ele></trkpt><trkpt lat="47.51805" lon="-121.97923"><ele>503.6</ele></trkpt><trkpt lat="47.51817" lon="-121.97952"><ele>495.8</ele></trkpt><trkpt lat="47.51869" lon="-121.97885"><ele>476.2</ele></trkpt><trkpt lat="47.51853" lon="-121.98048"><ele>460.8</ele></trkpt><trkpt lat="47.51820" lon="-121.98062"><ele>471.6</ele></trkpt><trkpt lat="47.51803" lon="-121.98106"><ele>466.0</ele></trkpt><trkpt lat="47.51821" lon="-121.98126"><ele>468.2</ele></trkpt><trkpt lat="47.51825" lon="-121.98167"><ele>461.4</ele></trkpt><trkpt lat="47.52066" lon="-121.98142"><ele>459.4</ele></trkpt><trkpt lat="47.52115" lon="-121.98122"><ele>459.6</ele></trkpt><trkpt lat="47.52339" lon="-121.98144"><ele>472.6</ele></trkpt><trkpt lat="47.52369" lon="-121.98164"><ele>470.2</ele></trkpt><trkpt lat="47.52389" lon="-121.98196"><ele>469.2</ele></trkpt><trkpt lat="47.52392" lon="-121.98238"><ele>464.0</ele></trkpt><trkpt lat="47.52407" lon="-121.98243"><ele>458.0</ele></trkpt><trkpt lat="47.52388" lon="-121.98418"><ele>437.2</ele></trkpt><trkpt lat="47.52363" lon="-121.98486"><ele>431.6</ele></trkpt><trkpt lat="47.52448" lon="-121.98446"><ele>414.2</ele></trkpt><trkpt lat="47.52450" lon="-121.98506"><ele>402.8</ele></trkpt><trkpt lat="47.52475" lon="-121.98508"><ele>396.2</ele></trkpt><trkpt lat="47.52513" lon="-121.98471"><ele>387.2</ele></trkpt><trkpt lat="47.52525" lon="-121.98491"><ele>381.2</ele></trkpt><trkpt lat="47.52550" lon="-121.98494"><ele>371.8</ele></trkpt><trkpt lat="47.52561" lon="-121.98526"><ele>365.4</ele></trkpt><trkpt lat="47.52609" lon="-121.98484"><ele>355.8</ele></trkpt><trkpt lat="47.52614" lon="-121.98458"><ele>356.4</ele></trkpt><trkpt lat="47.52604" lon="-121.98440"><ele>352.6</ele></trkpt><trkpt lat="47.52647" lon="-121.98458"><ele>336.6</ele></trkpt><trkpt lat="47.52645" lon="-121.98428"><ele>331.6</ele></trkpt><trkpt lat="47.52667" lon="-121.98466"><ele>323.4</ele></trkpt><trkpt lat="47.52687" lon="-121.98425"><ele>314.4</ele></trkpt><trkpt lat="47.52687" lon="-121.98489"><ele>311.6</ele></trkpt><trkpt lat="47.52653" lon="-121.98573"><ele>313.2</ele></trkpt><trkpt lat="47.52686" lon="-121.98637"><ele>312.2</ele></trkpt><trkpt lat="47.52682" lon="-121.98707"><ele>311.0</ele></trkpt><trkpt lat="47.52708" lon="-121.98736"><ele>307.8</ele></trkpt><trkpt lat="47.52748" lon="-121.98743"><ele>298.8</ele></trkpt><trkpt lat="47.52794" lon="-121.98776"><ele>289.2</ele></trkpt><trkpt lat="47.52803" lon="-121.98754"><ele>282.4</ele></trkpt><trkpt lat="47.52825" lon="-121.98827"><ele>269.0</ele></trkpt><trkpt lat="47.52794" lon="-121.98899"><ele>260.8</ele></trkpt><trkpt lat="47.52809" lon="-121.99063"><ele>247.2</ele></trkpt><trkpt lat="47.52783" lon="-121.99145"><ele>235.6</ele></trkpt><trkpt lat="47.52788" lon="-121.99218"><ele>229.0</ele></trkpt><trkpt lat="47.52731" lon="-121.99327"><ele>217.4</ele></trkpt><trkpt lat="47.52718" lon="-121.99426"><ele>202.6</ele></trkpt><trkpt lat="47.52734" lon="-121.99463"><ele>197.8</ele></trkpt><trkpt lat="47.52776" lon="-121.99454"><ele>189.0</ele></trkpt><trkpt lat="47.52776" lon="-121.99498"><ele>189.2</ele></trkpt><trkpt lat="47.52708" lon="-121.99601"><ele>190.4</ele></trkpt><trkpt lat="47.52718" lon="-121.99657"><ele>187.6</ele></trkpt><trkpt lat="47.52713" lon="-121.99729"><ele>188.0</ele></trkpt><trkpt lat="47.52729" lon="-121.99748"><ele>187.2</ele></trkpt><trkpt lat="47.52769" lon="-121.99714"><ele>184.0</ele></trkpt><trkpt lat="47.52958" lon="-121.99666"><ele>177.6</ele></trkpt><trkpt lat="47.53004" lon="-121.99702"><ele>173.2</ele></trkpt><trkpt lat="47.53105" lon="-121.99828"><ele>169.8</ele></trkpt><trkpt lat="47.53153" lon="-121.99938"><ele>159.2</ele></trkpt><trkpt lat="47.53186" lon="-122.00358"><ele>159.2</ele></trkpt><trkpt lat="47.53211" lon="-122.00463"><ele>157.8</ele></trkpt><trkpt lat="47.53209" lon="-122.00529"><ele>158.8</ele></trkpt><trkpt lat="47.53229" lon="-122.00595"><ele>157.8</ele></trkpt><trkpt lat="47.53239" lon="-122.00744"><ele>160.4</ele></trkpt><trkpt lat="47.53272" lon="-122.00973"><ele>154.0</ele></trkpt><trkpt lat="47.53296" lon="-122.00998"><ele>150.8</ele></trkpt><trkpt lat="47.53456" lon="-122.01035"><ele>149.2</ele></trkpt><trkpt lat="47.53466" lon="-122.01058"><ele>148.4</ele></trkpt><trkpt lat="47.53460" lon="-122.01152"><ele>149.0</ele></trkpt><trkpt lat="47.53484" lon="-122.01291"><ele>146.2</ele></trkpt><trkpt lat="47.53431" lon="-122.01271"><ele>149.6</ele></trkpt><trkpt lat="47.53370" lon="-122.01339"><ele>150.0</ele></trkpt><trkpt lat="47.53329" lon="-122.01318"><ele>147.0</ele></trkpt><trkpt lat="47.53290" lon="-122.01332"><ele>146.0</ele></trkpt><trkpt lat="47.53284" lon="-122.01417"><ele>149.2</ele></trkpt><trkpt lat="47.53229" lon="-122.01487"><ele>147.6</ele></trkpt><trkpt lat="47.53206" lon="-122.01556"><ele>147.2</ele></trkpt><trkpt lat="47.53135" lon="-122.01596"><ele>146.8</ele></trkpt><trkpt lat="47.53137" lon="-122.01723"><ele>148.0</ele></trkpt><trkpt lat="47.53113" lon="-122.01781"><ele>148.4</ele></trkpt><trkpt lat="47.53086" lon="-122.01807"><ele>147.0</ele></trkpt><trkpt lat="47.53004" lon="-122.01824"><ele>144.2</ele></trkpt><trkpt lat="47.52934" lon="-122.01875"><ele>145.4</ele></trkpt><trkpt lat="47.52887" lon="-122.01882"><ele>149.4</ele></trkpt><trkpt lat="47.52864" lon="-122.01910"><ele>149.8</ele></trkpt><trkpt lat="47.52828" lon="-122.02032"><ele>152.6</ele></trkpt><trkpt lat="47.52826" lon="-122.02102"><ele>146.8</ele></trkpt><trkpt lat="47.52846" lon="-122.02135"><ele>144.6</ele></trkpt><trkpt lat="47.52856" lon="-122.02236"><ele>144.4</ele></trkpt><trkpt lat="47.52876" lon="-122.02258"><ele>145.0</ele></trkpt><trkpt lat="47.52845" lon="-122.02315"><ele>139.4</ele></trkpt><trkpt lat="47.52905" lon="-122.02298"><ele>127.6</ele></trkpt><trkpt lat="47.52958" lon="-122.02223"><ele>114.2</ele></trkpt><trkpt lat="47.52989" lon="-122.02243"><ele>105.2</ele></trkpt><trkpt lat="47.53008" lon="-122.02278"><ele>97.2</ele></trkpt><trkpt lat="47.53023" lon="-122.02272"><ele>91.0</ele></trkpt><trkpt lat="47.52971" lon="-122.02343"><ele>78.8</ele></trkpt><trkpt lat="47.52820" lon="-122.02491"><ele>75.2</ele></trkpt><trkpt lat="47.52679" lon="-122.02714"><ele>70.8</ele></trkpt><trkpt lat="47.52609" lon="-122.02764"><ele>69.0</ele></trkpt><trkpt lat="47.52551" lon="-122.02784"><ele>67.4</ele></trkpt><trkpt lat="47.52538" lon="-122.02876"><ele>62.0</ele></trkpt><trkpt lat="47.52510" lon="-122.02787"><ele>62.0</ele></trkpt><trkpt lat="47.52426" lon="-122.02767"><ele>61.8</ele></trkpt><trkpt lat="47.52361" lon="-122.02707"><ele>64.0</ele></trkpt><trkpt lat="47.52287" lon="-122.02690"><ele>61.4</ele></trkpt><trkpt lat="47.52142" lon="-122.02625"><ele>56.2</ele></trkpt><trkpt lat="47.52119" lon="-122.02590"><ele>55.8</ele></trkpt><trkpt lat="47.52065" lon="-122.02564"><ele>60.6</ele></trkpt><trkpt lat="47.52047" lon="-122.02432"><ele>70.8</ele></trkpt><trkpt lat="47.51970" lon="-122.02208"><ele>90.4</ele></trkpt><trkpt lat="47.51964" lon="-122.02141"><ele>95.8</ele></trkpt><trkpt lat="47.52008" lon="-122.01980"><ele>113.8</ele></trkpt><trkpt lat="47.51965" lon="-122.01704"><ele>136.6</ele></trkpt><trkpt lat="47.51984" lon="-122.01632"><ele>142.2</ele></trkpt><trkpt lat="47.52025" lon="-122.01599"><ele>148.6</ele></trkpt><trkpt lat="47.52092" lon="-122.01441"><ele>151.8</ele></trkpt><trkpt lat="47.52076" lon="-122.01320"><ele>152.4</ele></trkpt><trkpt lat="47.52039" lon="-122.01281"><ele>154.6</ele></trkpt><trkpt lat="47.52040" lon="-122.01232"><ele>159.2</ele></trkpt><trkpt lat="47.52006" lon="-122.01182"><ele>164.6</ele></trkpt><trkpt lat="47.52029" lon="-122.01158"><ele>170.2</ele></trkpt><trkpt lat="47.52034" lon="-122.01020"><ele>183.4</ele></trkpt><trkpt lat="47.52049" lon="-122.00967"><ele>186.8</ele></trkpt><trkpt lat="47.51964" lon="-122.00769"><ele>219.6</ele></trkpt><trkpt lat="47.51989" lon="-122.00684"><ele>231.8</ele></trkpt><trkpt lat="47.51911" lon="-122.00637"><ele>250.0</ele></trkpt><trkpt lat="47.51922" lon="-122.00588"><ele>256.8</ele></trkpt><trkpt lat="47.51903" lon="-122.00393"><ele>274.8</ele></trkpt><trkpt lat="47.51873" lon="-122.00369"><ele>281.8</ele></trkpt><trkpt lat="47.51878" lon="-122.00421"><ele>288.4</ele></trkpt><trkpt lat="47.51865" lon="-122.00426"><ele>292.0</ele></trkpt><trkpt lat="47.51839" lon="-122.00348"><ele>299.0</ele></trkpt><trkpt lat="47.51790" lon="-122.00319"><ele>310.4</ele></trkpt><trkpt lat="47.51778" lon="-122.00292"><ele>314.6</ele></trkpt><trkpt lat="47.51769" lon="-122.00210"><ele>317.0</ele></trkpt><trkpt lat="47.51845" lon="-122.00150"><ele>329.0</ele></trkpt><trkpt lat="47.51812" lon="-122.00116"><ele>336.2</ele></trkpt><trkpt lat="47.51803" lon="-122.00069"><ele>343.2</ele></trkpt><trkpt lat="47.51786" lon="-122.00086"><ele>349.2</ele></trkpt><trkpt lat="47.51781" lon="-122.00065"><ele>351.6</ele></trkpt><trkpt lat="47.51792" lon="-121.99894"><ele>378.6</ele></trkpt><trkpt lat="47.51784" lon="-121.99849"><ele>389.6</ele></trkpt><trkpt lat="47.51752" lon="-121.99804"><ele>406.4</ele></trkpt><trkpt lat="47.51732" lon="-121.99888"><ele>417.2</ele></trkpt><trkpt lat="47.51651" lon="-121.99940"><ele>433.8</ele></trkpt><trkpt lat="47.51626" lon="-121.99885"><ele>459.8</ele></trkpt><trkpt lat="47.51576" lon="-121.99890"><ele>481.0</ele></trkpt><trkpt lat="47.51532" lon="-121.99781"><ele>520.8</ele></trkpt><trkpt lat="47.51503" lon="-121.99747"><ele>543.0</ele></trkpt><trkpt lat="47.51488" lon="-121.99685"><ele>568.2</ele></trkpt><trkpt lat="47.51487" lon="-121.99612"><ele>585.6</ele></trkpt><trkpt lat="47.51442" lon="-121.99453"><ele>616.8</ele></trkpt><trkpt lat="47.51442" lon="-121.99386"><ele>626.2</ele></trkpt><trkpt lat="47.51387" lon="-121.99291"><ele>661.0</ele></trkpt><trkpt lat="47.51370" lon="-121.99236"><ele>678.2</ele></trkpt><trkpt lat="47.51242" lon="-121.99102"><ele>752.0</ele></trkpt><trkpt lat="47.51233" lon="-121.99035"><ele>769.0</ele></trkpt><trkpt lat="47.51176" lon="-121.99012"><ele>776.6</ele></trkpt><trkpt lat="47.51173" lon="-121.99065"><ele>766.0</ele></trkpt><trkpt lat="47.51136" lon="-121.98999"><ele>758.4</ele></trkpt><trkpt lat="47.51098" lon="-121.98976"><ele>759.2</ele></trkpt><trkpt lat="47.51074" lon="-121.98992"><ele>761.6</ele></trkpt><trkpt lat="47.51077" lon="-121.98964"><ele>764.0</ele></trkpt><trkpt lat="47.51032" lon="-121.98949"><ele>766.2</ele></trkpt><trkpt lat="47.51004" lon="-121.98887"><ele>764.8</ele></trkpt><trkpt lat="47.50943" lon="-121.98875"><ele>776.6</ele></trkpt><trkpt lat="47.50945" lon="-121.98843"><ele>780.6</ele></trkpt><trkpt lat="47.50969" lon="-121.98803"><ele>785.4</ele></trkpt><trkpt lat="47.50965" lon="-121.98758"><ele>789.4</ele></trkpt><trkpt lat="47.50911" lon="-121.98761"><ele>796.4</ele></trkpt><trkpt lat="47.50884" lon="-121.98745"><ele>801.0</ele></trkpt><trkpt lat="47.50928" lon="-121.98690"><ele>808.2</ele></trkpt><trkpt lat="47.50934" lon="-121.98625"><ele>813.8</ele></trkpt><trkpt lat="47.50868" lon="-121.98621"><ele>824.2</ele></trkpt><trkpt lat="47.50850" lon="-121.98598"><ele>828.2</ele></trkpt><trkpt lat="47.50831" lon="-121.98526"><ele>832.8</ele></trkpt><trkpt lat="47.50757" lon="-121.98456"><ele>819.2</ele></trkpt><trkpt lat="47.50704" lon="-121.98428"><ele>808.0</ele></trkpt><trkpt lat="47.50675" lon="-121.98346"><ele>796.6</ele></trkpt><trkpt lat="47.50627" lon="-121.98357"><ele>792.2</ele></trkpt><trkpt lat="47.50589" lon="-121.98334"><ele>788.0</ele></trkpt><trkpt lat="47.50577" lon="-121.98231"><ele>779.0</ele></trkpt><trkpt lat="47.50523" lon="-121.98175"><ele>786.4</ele></trkpt><trkpt lat="47.50457" lon="-121.98150"><ele>807.2</ele></trkpt><trkpt lat="47.50362" lon="-121.97908"><ele>850.4</ele></trkpt><trkpt lat="47.50353" lon="-121.97723"><ele>868.8</ele></trkpt><trkpt lat="47.50362" lon="-121.97635"><ele>873.8</ele></trkpt><trkpt lat="47.50354" lon="-121.97593"><ele>876.2</ele></trkpt><trkpt lat="47.50318" lon="-121.97529"><ele>873.2</ele></trkpt><trkpt lat="47.50318" lon="-121.97502"><ele>872.2</ele></trkpt><trkpt lat="47.50388" lon="-121.97358"><ele>873.0</ele></trkpt><trkpt lat="47.50428" lon="-121.97374"><ele>879.4</ele></trkpt><trkpt lat="47.50460" lon="-121.97344"><ele>871.8</ele></trkpt><trkpt lat="47.50451" lon="-121.97461"><ele>864.0</ele></trkpt><trkpt lat="47.50491" lon="-121.97366"><ele>855.6</ele></trkpt><trkpt lat="47.50574" lon="-121.97243"><ele>843.4</ele></trkpt><trkpt lat="47.50597" lon="-121.97172"><ele>844.0</ele></trkpt><trkpt lat="47.50574" lon="-121.97040"><ele>841.2</ele></trkpt><trkpt lat="47.50518" lon="-121.96952"><ele>844.4</ele></trkpt><trkpt lat="47.50548" lon="-121.96787"><ele>837.2</ele></trkpt><trkpt lat="47.50511" lon="-121.96751"><ele>836.8</ele></trkpt><trkpt lat="47.50479" lon="-121.96681"><ele>830.8</ele></trkpt><trkpt lat="47.50490" lon="-121.96642"><ele>828.4</ele></trkpt><trkpt lat="47.50537" lon="-121.96624"><ele>821.4</ele></trkpt><trkpt lat="47.50571" lon="-121.96560"><ele>794.8</ele></trkpt><trkpt lat="47.50615" lon="-121.96533"><ele>796.6</ele></trkpt><trkpt lat="47.50682" lon="-121.96396"><ele>769.6</ele></trkpt><trkpt lat="47.50689" lon="-121.96275"><ele>757.8</ele></trkpt><trkpt lat="47.50709" lon="-121.96177"><ele>734.0</ele></trkpt><trkpt lat="47.50703" lon="-121.96114"><ele>728.8</ele></trkpt><trkpt lat="47.50653" lon="-121.96015"><ele>718.0</ele></trkpt><trkpt lat="47.50659" lon="-121.95909"><ele>696.4</ele></trkpt><trkpt lat="47.50690" lon="-121.95861"><ele>688.6</ele></trkpt><trkpt lat="47.50738" lon="-121.95868"><ele>689.6</ele></trkpt><trkpt lat="47.50735" lon="-121.95779"><ele>684.0</ele></trkpt><trkpt lat="47.50756" lon="-121.95852"><ele>683.6</ele></trkpt><trkpt lat="47.50784" lon="-121.95868"><ele>673.8</ele></trkpt><trkpt lat="47.50809" lon="-121.95836"><ele>666.2</ele></trkpt><trkpt lat="47.50846" lon="-121.95865"><ele>672.8</ele></trkpt><trkpt lat="47.50909" lon="-121.95786"><ele>660.8</ele></trkpt><trkpt lat="47.50920" lon="-121.95716"><ele>646.2</ele></trkpt><trkpt lat="47.50894" lon="-121.95654"><ele>638.6</ele></trkpt><trkpt lat="47.50942" lon="-121.95608"><ele>628.6</ele></trkpt><trkpt lat="47.50933" lon="-121.95529"><ele>608.0</ele></trkpt><trkpt lat="47.50953" lon="-121.95472"><ele>602.2</ele></trkpt><trkpt lat="47.51027" lon="-121.95457"><ele>589.2</ele></trkpt><trkpt lat="47.51113" lon="-121.95372"><ele>574.2</ele></trkpt><trkpt lat="47.51175" lon="-121.95355"><ele>561.4</ele></trkpt><trkpt lat="47.51211" lon="-121.95322"><ele>542.4</ele></trkpt><trkpt lat="47.51220" lon="-121.95370"><ele>535.2</ele></trkpt><trkpt lat="47.51240" lon="-121.95342"><ele>527.4</ele></trkpt><trkpt lat="47.51257" lon="-121.95360"><ele>525.8</ele></trkpt><trkpt lat="47.51264" lon="-121.95420"><ele>523.4</ele></trkpt><trkpt lat="47.51328" lon="-121.95518"><ele>525.4</ele></trkpt><trkpt lat="47.51342" lon="-121.95582"><ele>527.4</ele></trkpt><trkpt lat="47.51385" lon="-121.95631"><ele>522.0</ele></trkpt><trkpt lat="47.51409" lon="-121.95618"><ele>519.6</ele></trkpt><trkpt lat="47.51449" lon="-121.95556"><ele>518.2</ele></trkpt><trkpt lat="47.51587" lon="-121.95592"><ele>515.4</ele></trkpt><trkpt lat="47.51609" lon="-121.95582"><ele>517.2</ele></trkpt><trkpt lat="47.51631" lon="-121.95535"><ele>504.6</ele></trkpt><trkpt lat="47.51685" lon="-121.95509"><ele>493.4</ele></trkpt><trkpt lat="47.51684" lon="-121.95549"><ele>509.2</ele></trkpt><trkpt lat="47.51656" lon="-121.95565"><ele>516.6</ele></trkpt><trkpt lat="47.51630" lon="-121.95606"><ele>526.2</ele></trkpt><trkpt lat="47.51614" lon="-121.95693"><ele>546.6</ele></trkpt><trkpt lat="47.51639" lon="-121.95817"><ele>569.2</ele></trkpt><trkpt lat="47.51696" lon="-121.95937"><ele>592.0</ele></trkpt><trkpt lat="47.51672" lon="-121.95956"><ele>596.6</ele></trkpt><trkpt lat="47.51618" lon="-121.96058"><ele>612.6</ele></trkpt><trkpt lat="47.51520" lon="-121.96161"><ele>619.8</ele></trkpt><trkpt lat="47.51506" lon="-121.96253"><ele>630.8</ele></trkpt><trkpt lat="47.51514" lon="-121.96339"><ele>641.0</ele></trkpt><trkpt lat="47.51505" lon="-121.96366"><ele>638.8</ele></trkpt><trkpt lat="47.51391" lon="-121.96478"><ele>628.0</ele></trkpt><trkpt lat="47.51379" lon="-121.96509"><ele>627.6</ele></trkpt><trkpt lat="47.51280" lon="-121.96512"><ele>645.2</ele></trkpt><trkpt lat="47.51216" lon="-121.96560"><ele>655.8</ele></trkpt><trkpt lat="47.51194" lon="-121.96614"><ele>658.2</ele></trkpt><trkpt lat="47.51146" lon="-121.96634"><ele>668.8</ele></trkpt><trkpt lat="47.51158" lon="-121.96685"><ele>664.2</ele></trkpt><trkpt lat="47.51151" lon="-121.96750"><ele>657.0</ele></trkpt><trkpt lat="47.51089" lon="-121.96931"><ele>648.0</ele></trkpt><trkpt lat="47.51100" lon="-121.97094"><ele>624.6</ele></trkpt><trkpt lat="47.51125" lon="-121.97149"><ele>609.2</ele></trkpt><trkpt lat="47.51102" lon="-121.97220"><ele>595.8</ele></trkpt><trkpt lat="47.51080" lon="-121.97235"><ele>592.6</ele></trkpt><trkpt lat="47.51026" lon="-121.97370"><ele>586.4</ele></trkpt><trkpt lat="47.50981" lon="-121.97540"><ele>579.6</ele></trkpt><trkpt lat="47.50941" lon="-121.97572"><ele>588.4</ele></trkpt><trkpt lat="47.50930" lon="-121.97602"><ele>591.0</ele></trkpt><trkpt lat="47.50938" lon="-121.97646"><ele>593.6</ele></trkpt><trkpt lat="47.51006" lon="-121.97684"><ele>597.2</ele></trkpt><trkpt lat="47.51011" lon="-121.97745"><ele>596.4</ele></trkpt><trkpt lat="47.50990" lon="-121.97695"><ele>603.0</ele></trkpt><trkpt lat="47.50954" lon="-121.97691"><ele>609.6</ele></trkpt><trkpt lat="47.50951" lon="-121.97800"><ele>622.0</ele></trkpt><trkpt lat="47.50878" lon="-121.97919"><ele>640.8</ele></trkpt><trkpt lat="47.50890" lon="-121.97998"><ele>653.0</ele></trkpt><trkpt lat="47.50876" lon="-121.98040"><ele>657.2</ele></trkpt><trkpt lat="47.51064" lon="-121.98089"><ele>682.2</ele></trkpt><trkpt lat="47.51246" lon="-121.98072"><ele>683.4</ele></trkpt><trkpt lat="47.51308" lon="-121.98086"><ele>685.6</ele></trkpt><trkpt lat="47.51388" lon="-121.98057"><ele>659.2</ele></trkpt><trkpt lat="47.51405" lon="-121.98028"><ele>649.8</ele></trkpt><trkpt lat="47.51440" lon="-121.98073"><ele>629.4</ele></trkpt><trkpt lat="47.51491" lon="-121.98070"><ele>612.0</ele></trkpt><trkpt lat="47.51568" lon="-121.98042"><ele>588.4</ele></trkpt><trkpt lat="47.51611" lon="-121.98002"><ele>572.4</ele></trkpt><trkpt lat="47.51668" lon="-121.97990"><ele>555.4</ele></trkpt><trkpt lat="47.51716" lon="-121.97952"><ele>535.8</ele></trkpt><trkpt lat="47.51737" lon="-121.97989"><ele>523.2</ele></trkpt><trkpt lat="47.51793" lon="-121.97928"><ele>508.6</ele></trkpt><trkpt lat="47.51804" lon="-121.97924"><ele>502.2</ele></trkpt><trkpt lat="47.51814" lon="-121.97953"><ele>496.6</ele></trkpt><trkpt lat="47.51869" lon="-121.97888"><ele>477.2</ele></trkpt><trkpt lat="47.51853" lon="-121.98047"><ele>461.4</ele></trkpt><trkpt lat="47.51823" lon="-121.98059"><ele>472.0</ele></trkpt><trkpt lat="47.51801" lon="-121.98105"><ele>468.2</ele></trkpt><trkpt lat="47.51823" lon="-121.98123"><ele>467.4</ele></trkpt><trkpt lat="47.51823" lon="-121.98166"><ele>462.0</ele></trkpt><trkpt lat="47.52062" lon="-121.98138"><ele>460.6</ele></trkpt><trkpt lat="47.52111" lon="-121.98119"><ele>461.6</ele></trkpt><trkpt lat="47.52229" lon="-121.98143"><ele>472.2</ele></trkpt><trkpt lat="47.52333" lon="-121.98140"><ele>473.4</ele></trkpt><trkpt lat="47.52361" lon="-121.98158"><ele>472.2</ele></trkpt><trkpt lat="47.52384" lon="-121.98197"><ele>469.8</ele></trkpt><trkpt lat="47.52390" lon="-121.98236"><ele>465.2</ele></trkpt><trkpt lat="47.52406" lon="-121.98241"><ele>458.6</ele></trkpt><trkpt lat="47.52385" lon="-121.98411"><ele>438.2</ele></trkpt><trkpt lat="47.52361" lon="-121.98487"><ele>431.6</ele></trkpt><trkpt lat="47.52442" lon="-121.98442"><ele>413.0</ele></trkpt><trkpt lat="47.52447" lon="-121.98500"><ele>402.2</ele></trkpt><trkpt lat="47.52473" lon="-121.98502"><ele>396.0</ele></trkpt><trkpt lat="47.52509" lon="-121.98470"><ele>387.4</ele></trkpt><trkpt lat="47.52550" lon="-121.98493"><ele>373.4</ele></trkpt><trkpt lat="47.52551" lon="-121.98527"><ele>367.8</ele></trkpt><trkpt lat="47.52603" lon="-121.98482"><ele>357.2</ele></trkpt><trkpt lat="47.52608" lon="-121.98460"><ele>355.4</ele></trkpt><trkpt lat="47.52596" lon="-121.98438"><ele>351.6</ele></trkpt><trkpt lat="47.52641" lon="-121.98457"><ele>336.4</ele></trkpt><trkpt lat="47.52639" lon="-121.98429"><ele>333.0</ele></trkpt><trkpt lat="47.52663" lon="-121.98465"><ele>324.2</ele></trkpt><trkpt lat="47.52684" lon="-121.98426"><ele>313.0</ele></trkpt><trkpt lat="47.52682" lon="-121.98500"><ele>310.4</ele></trkpt><trkpt lat="47.52654" lon="-121.98570"><ele>311.0</ele></trkpt><trkpt lat="47.52688" lon="-121.98635"><ele>308.8</ele></trkpt><trkpt lat="47.52684" lon="-121.98705"><ele>306.6</ele></trkpt><trkpt lat="47.52706" lon="-121.98733"><ele>304.0</ele></trkpt><trkpt lat="47.52793" lon="-121.98777"><ele>285.8</ele></trkpt><trkpt lat="47.52804" lon="-121.98757"><ele>280.4</ele></trkpt><trkpt lat="47.52823" lon="-121.98826"><ele>270.2</ele></trkpt><trkpt lat="47.52795" lon="-121.98898"><ele>262.0</ele></trkpt><trkpt lat="47.52808" lon="-121.99061"><ele>247.6</ele></trkpt><trkpt lat="47.52781" lon="-121.99146"><ele>236.8</ele></trkpt><trkpt lat="47.52790" lon="-121.99204"><ele>231.2</ele></trkpt><trkpt lat="47.52732" lon="-121.99333"><ele>216.6</ele></trkpt><trkpt lat="47.52730" lon="-121.99395"><ele>206.6</ele></trkpt><trkpt lat="47.52718" lon="-121.99424"><ele>202.8</ele></trkpt><trkpt lat="47.52731" lon="-121.99458"><ele>199.0</ele></trkpt><trkpt lat="47.52779" lon="-121.99452"><ele>189.0</ele></trkpt><trkpt lat="47.52777" lon="-121.99501"><ele>189.4</ele></trkpt><trkpt lat="47.52708" lon="-121.99601"><ele>190.2</ele></trkpt><trkpt lat="47.52718" lon="-121.99659"><ele>187.4</ele></trkpt><trkpt lat="47.52711" lon="-121.99724"><ele>188.0</ele></trkpt><trkpt lat="47.52731" lon="-121.99748"><ele>186.4</ele></trkpt><trkpt lat="47.52769" lon="-121.99715"><ele>183.8</ele></trkpt><trkpt lat="47.52978" lon="-121.99667"><ele>174.4</ele></trkpt><trkpt lat="47.53107" lon="-121.99828"><ele>169.4</ele></trkpt><trkpt lat="47.53152" lon="-121.99937"><ele>158.8</ele></trkpt><trkpt lat="47.53161" lon="-122.00126"><ele>159.8</ele></trkpt><trkpt lat="47.53272" lon="-122.00974"><ele>153.0</ele></trkpt><trkpt lat="47.53304" lon="-122.00998"><ele>148.8</ele></trkpt><trkpt lat="47.53459" lon="-122.01033"><ele>148.0</ele></trkpt><trkpt lat="47.53468" lon="-122.01057"><ele>147.6</ele></trkpt><trkpt lat="47.53462" lon="-122.01156"><ele>147.8</ele></trkpt><trkpt lat="47.53487" lon="-122.01288"><ele>145.4</ele></trkpt><trkpt lat="47.53429" lon="-122.01272"><ele>148.4</ele></trkpt><trkpt lat="47.53370" lon="-122.01340"><ele>148.8</ele></trkpt><trkpt lat="47.53327" lon="-122.01318"><ele>145.4</ele></trkpt><trkpt lat="47.53288" lon="-122.01334"><ele>144.6</ele></trkpt><trkpt lat="47.53287" lon="-122.01416"><ele>147.4</ele></trkpt><trkpt lat="47.53230" lon="-122.01486"><ele>146.2</ele></trkpt><trkpt lat="47.53205" lon="-122.01556"><ele>146.0</ele></trkpt><trkpt lat="47.53134" lon="-122.01598"><ele>145.4</ele></trkpt><trkpt lat="47.53139" lon="-122.01716"><ele>146.0</ele></trkpt><trkpt lat="47.53113" lon="-122.01782"><ele>147.0</ele></trkpt><trkpt lat="47.53092" lon="-122.01807"><ele>146.2</ele></trkpt><trkpt lat="47.53005" lon="-122.01826"><ele>142.8</ele></trkpt><trkpt lat="47.52928" lon="-122.01876"><ele>144.2</ele></trkpt><trkpt lat="47.52884" lon="-122.01883"><ele>148.0</ele></trkpt><trkpt lat="47.52865" lon="-122.01905"><ele>148.0</ele></trkpt><trkpt lat="47.52829" lon="-122.02029"><ele>151.2</ele></trkpt><trkpt lat="47.52827" lon="-122.02101"><ele>145.0</ele></trkpt><trkpt lat="47.52847" lon="-122.02134"><ele>142.8</ele></trkpt><trkpt lat="47.52858" lon="-122.02236"><ele>142.6</ele></trkpt><trkpt lat="47.52876" lon="-122.02257"><ele>143.2</ele></trkpt><trkpt lat="47.52844" lon="-122.02315"><ele>137.0</ele></trkpt><trkpt lat="47.52906" lon="-122.02296"><ele>125.2</ele></trkpt><trkpt lat="47.52960" lon="-122.02222"><ele>112.6</ele></trkpt><trkpt lat="47.53010" lon="-122.02277"><ele>96.0</ele></trkpt><trkpt lat="47.53027" lon="-122.02264"><ele>90.8</ele></trkpt><trkpt lat="47.52971" lon="-122.02343"><ele>77.6</ele></trkpt><trkpt lat="47.52811" lon="-122.02504"><ele>73.0</ele></trkpt><trkpt lat="47.52699" lon="-122.02694"><ele>69.2</ele></trkpt><trkpt lat="47.52647" lon="-122.02744"><ele>67.8</ele></trkpt><trkpt lat="47.52549" lon="-122.02787"><ele>65.4</ele></trkpt><trkpt lat="47.52539" lon="-122.02881"><ele>59.4</ele></trkpt><trkpt lat="47.52512" lon="-122.02788"><ele>59.2</ele></trkpt><trkpt lat="47.52426" lon="-122.02768"><ele>59.0</ele></trkpt><trkpt lat="47.52362" lon="-122.02708"><ele>61.4</ele></trkpt><trkpt lat="47.52288" lon="-122.02691"><ele>59.2</ele></trkpt><trkpt lat="47.52144" lon="-122.02624"><ele>54.4</ele></trkpt><trkpt lat="47.52117" lon="-122.02590"><ele>53.8</ele></trkpt><trkpt lat="47.52067" lon="-122.02569"><ele>57.4</ele></trkpt><trkpt lat="47.52040" lon="-122.02425"><ele>69.6</ele></trkpt><trkpt lat="47.51968" lon="-122.02211"><ele>88.4</ele></trkpt><trkpt lat="47.51959" lon="-122.02151"><ele>93.4</ele></trkpt><trkpt lat="47.52007" lon="-122.01968"><ele>112.8</ele></trkpt><trkpt lat="47.51985" lon="-122.01887"><ele>120.0</ele></trkpt><trkpt lat="47.51967" lon="-122.01699"><ele>134.8</ele></trkpt><trkpt lat="47.51983" lon="-122.01628"><ele>140.6</ele></trkpt><trkpt lat="47.52024" lon="-122.01596"><ele>146.8</ele></trkpt><trkpt lat="47.52090" lon="-122.01437"><ele>150.0</ele></trkpt><trkpt lat="47.52079" lon="-122.01323"><ele>150.8</ele></trkpt><trkpt lat="47.52040" lon="-122.01283"><ele>152.4</ele></trkpt><trkpt lat="47.52036" lon="-122.01252"><ele>155.2</ele></trkpt><trkpt lat="47.52046" lon="-122.01233"><ele>157.8</ele></trkpt><trkpt lat="47.52151" lon="-122.01207"><ele>154.8</ele></trkpt><trkpt lat="47.52306" lon="-122.01129"><ele>157.0</ele></trkpt><trkpt lat="47.52444" lon="-122.01039"><ele>157.6</ele></trkpt><trkpt lat="47.52466" lon="-122.00964"><ele>160.2</ele></trkpt><trkpt lat="47.52476" lon="-122.00834"><ele>163.0</ele></trkpt><trkpt lat="47.52564" lon="-122.00735"><ele>164.2</ele></trkpt><trkpt lat="47.52630" lon="-122.00611"><ele>164.6</ele></trkpt><trkpt lat="47.52635" lon="-122.00524"><ele>164.6</ele></trkpt><trkpt lat="47.52610" lon="-122.00360"><ele>169.2</ele></trkpt><trkpt lat="47.52783" lon="-121.99716"><ele>175.8</ele></trkpt><trkpt lat="47.52938" lon="-121.99664"><ele>171.8</ele></trkpt><trkpt lat="47.52977" lon="-121.99665"><ele>168.0</ele></trkpt><trkpt lat="47.53089" lon="-121.99804"><ele>165.0</ele></trkpt><trkpt lat="47.53146" lon="-121.99916"><ele>156.4</ele></trkpt><trkpt lat="47.53188" lon="-122.00362"><ele>155.0</ele></trkpt><trkpt lat="47.53212" lon="-122.00463"><ele>154.0</ele></trkpt><trkpt lat="47.53209" lon="-122.00528"><ele>155.0</ele></trkpt><trkpt lat="47.53229" lon="-122.00591"><ele>154.2</ele></trkpt><trkpt lat="47.53228" lon="-122.00648"><ele>155.8</ele></trkpt><trkpt lat="47.53272" lon="-122.00973"><ele>150.8</ele></trkpt><trkpt lat="47.53303" lon="-122.00999"><ele>147.2</ele></trkpt><trkpt lat="47.53458" lon="-122.01035"><ele>146.6</ele></trkpt><trkpt lat="47.53462" lon="-122.01162"><ele>146.8</ele></trkpt><trkpt lat="47.53486" lon="-122.01286"><ele>144.8</ele></trkpt><trkpt lat="47.53429" lon="-122.01273"><ele>147.6</ele></trkpt><trkpt lat="47.53369" lon="-122.01342"><ele>148.2</ele></trkpt><trkpt lat="47.53328" lon="-122.01318"><ele>145.4</ele></trkpt><trkpt lat="47.53290" lon="-122.01334"><ele>144.0</ele></trkpt><trkpt lat="47.53281" lon="-122.01368"><ele>145.2</ele></trkpt><trkpt lat="47.53285" lon="-122.01417"><ele>147.4</ele></trkpt><trkpt lat="47.53228" lon="-122.01491"><ele>146.0</ele></trkpt><trkpt lat="47.53205" lon="-122.01559"><ele>145.6</ele></trkpt><trkpt lat="47.53135" lon="-122.01597"><ele>145.2</ele></trkpt><trkpt lat="47.53136" lon="-122.01723"><ele>146.2</ele></trkpt><trkpt lat="47.53112" lon="-122.01786"><ele>147.2</ele></trkpt><trkpt lat="47.53089" lon="-122.01810"><ele>146.0</ele></trkpt><trkpt lat="47.53007" lon="-122.01826"><ele>143.6</ele></trkpt><trkpt lat="47.52927" lon="-122.01878"><ele>144.6</ele></trkpt><trkpt lat="47.52885" lon="-122.01882"><ele>148.2</ele></trkpt><trkpt lat="47.52862" lon="-122.01906"><ele>148.6</ele></trkpt><trkpt lat="47.52829" lon="-122.02026"><ele>151.6</ele></trkpt><trkpt lat="47.52825" lon="-122.02098"><ele>146.4</ele></trkpt><trkpt lat="47.52844" lon="-122.02133"><ele>143.6</ele></trkpt><trkpt lat="47.52857" lon="-122.02235"><ele>143.6</ele></trkpt><trkpt lat="47.52876" lon="-122.02256"><ele>144.2</ele></trkpt><trkpt lat="47.52844" lon="-122.02315"><ele>138.6</ele></trkpt><trkpt lat="47.52904" lon="-122.02295"><ele>126.6</ele></trkpt><trkpt lat="47.52957" lon="-122.02223"><ele>114.0</ele></trkpt><trkpt lat="47.52972" lon="-122.02225"><ele>110.8</ele></trkpt><trkpt lat="47.53008" lon="-122.02277"><ele>98.0</ele></trkpt><trkpt lat="47.53025" lon="-122.02266"><ele>92.2</ele></trkpt><trkpt lat="47.52972" lon="-122.02342"><ele>79.4</ele></trkpt><trkpt lat="47.52810" lon="-122.02506"><ele>74.6</ele></trkpt><trkpt lat="47.52715" lon="-122.02678"><ele>71.6</ele></trkpt><trkpt lat="47.52653" lon="-122.02742"><ele>69.8</ele></trkpt><trkpt lat="47.52551" lon="-122.02787"><ele>67.6</ele></trkpt><trkpt lat="47.52537" lon="-122.02882"><ele>61.8</ele></trkpt><trkpt lat="47.52509" lon="-122.02792"><ele>62.4</ele></trkpt><trkpt lat="47.52358" lon="-122.02748"><ele>56.8</ele></trkpt></trkseg></trk></gpx>