<?xml version="1.0" encoding="UTF-8"?>
<gpx version="1.1" creator="alexrunsfar simplify-gpx"><metadata><name>zhanghattan-100-2023</name><desc>simplified from Strava export; 100.39 mi; 1759 ft gain (computed at full resolution)</desc></metadata><trk><name>zhanghattan-100-2023</name><trkseg><trkpt lat="40.70198" lon="-74.01617"><ele>30.0</ele></trkpt><trkpt lat="40.70295" lon="-74.01702"><ele>30.0</ele></trkpt><trkpt lat="40.70321" lon="-74.01637"><ele>30.0</ele></trkpt><trkpt lat="40.70348" lon="-74.01623"><ele>30.0</ele></trkpt><trkpt lat="40.70399" lon="-74.01663"><ele>30.0</ele></trkpt><trkpt lat="40.70434" lon="-74.01719"><ele>30.0</ele></trkpt><trkpt lat="40.70482" lon="-74.01735"><ele>29.0</ele></trkpt><trkpt lat="40.70515" lon="-74.01779"><ele>30.0</ele></trkpt><trkpt lat="40.70574" lon="-74.01809"><ele>30.0</ele></trkpt><trkpt lat="40.70626" lon="-74.01817"><ele>30.0</ele></trkpt><trkpt lat="40.70677" lon="-74.01798"><ele>30.0</ele></trkpt><trkpt lat="40.70718" lon="-74.01827"><ele>30.0</ele></trkpt><trkpt lat="40.70776" lon="-74.01798"><ele>30.0</ele></trkpt><trkpt lat="40.70804" lon="-74.01872"><ele>29.0</ele></trkpt><trkpt lat="40.70835" lon="-74.01883"><ele>29.0</ele></trkpt><trkpt lat="40.71211" lon="-74.01793"><ele>29.0</ele></trkpt><trkpt lat="40.71231" lon="-74.01752"><ele>28.0</ele></trkpt><trkpt lat="40.71219" lon="-74.01662"><ele>28.0</ele></trkpt><trkpt lat="40.71327" lon="-74.01632"><ele>29.0</ele></trkpt><trkpt lat="40.71355" lon="-74.01638"><ele>29.0</ele></trkpt><trkpt lat="40.71380" lon="-74.01754"><ele>29.0</ele></trkpt><trkpt lat="40.71861" lon="-74.01669"><ele>29.0</ele></trkpt><trkpt lat="40.71871" lon="-74.01647"><ele>29.0</ele></trkpt><trkpt lat="40.71854" lon="-74.01515"><ele>29.0</ele></trkpt><trkpt lat="40.71861" lon="-74.01473"><ele>29.0</ele></trkpt><trkpt lat="40.71840" lon="-74.01328"><ele>29.0</ele></trkpt><trkpt lat="40.71886" lon="-74.01309"><ele>29.0</ele></trkpt><trkpt lat="40.72005" lon="-74.01287"><ele>29.0</ele></trkpt><trkpt lat="40.72096" lon="-74.01290"><ele>29.0</ele></trkpt><trkpt lat="40.72137" lon="-74.01611"><ele>30.0</ele></trkpt><trkpt lat="40.72153" lon="-74.01561"><ele>31.0</ele></trkpt><trkpt lat="40.72143" lon="-74.01433"><ele>31.0</ele></trkpt><trkpt lat="40.72128" lon="-74.01401"><ele>31.0</ele></trkpt><trkpt lat="40.72129" lon="-74.01321"><ele>30.0</ele></trkpt><trkpt lat="40.72156" lon="-74.01300"><ele>30.0</ele></trkpt><trkpt lat="40.72156" lon="-74.01259"><ele>29.0</ele></trkpt><trkpt lat="40.72166" lon="-74.01251"><ele>29.0</ele></trkpt><trkpt lat="40.72568" lon="-74.01167"><ele>29.0</ele></trkpt><trkpt lat="40.72838" lon="-74.01139"><ele>29.0</ele></trkpt><trkpt lat="40.73034" lon="-74.01093"><ele>28.0</ele></trkpt><trkpt lat="40.73092" lon="-74.01109"><ele>28.0</ele></trkpt><trkpt lat="40.73306" lon="-74.01093"><ele>28.0</ele></trkpt><trkpt lat="40.73309" lon="-74.01371"><ele>29.0</ele></trkpt><trkpt lat="40.73321" lon="-74.01396"><ele>29.0</ele></trkpt><trkpt lat="40.73333" lon="-74.01370"><ele>29.0</ele></trkpt><trkpt lat="40.73332" lon="-74.01100"><ele>29.0</ele></trkpt><trkpt lat="40.73341" lon="-74.01083"><ele>29.0</ele></trkpt><trkpt lat="40.73405" lon="-74.01084"><ele>28.0</ele></trkpt><trkpt lat="40.73410" lon="-74.01185"><ele>29.0</ele></trkpt><trkpt lat="40.73419" lon="-74.01197"><ele>29.0</ele></trkpt><trkpt lat="40.73434" lon="-74.01178"><ele>29.0</ele></trkpt><trkpt lat="40.73438" lon="-74.01077"><ele>29.0</ele></trkpt><trkpt lat="40.73928" lon="-74.01036"><ele>28.0</ele></trkpt><trkpt lat="40.74070" lon="-74.00967"><ele>29.0</ele></trkpt><trkpt lat="40.74288" lon="-74.00913"><ele>29.0</ele></trkpt><trkpt lat="40.74373" lon="-74.00839"><ele>29.0</ele></trkpt><trkpt lat="40.74442" lon="-74.00875"><ele>29.0</ele></trkpt><trkpt lat="40.74487" lon="-74.00873"><ele>29.0</ele></trkpt><trkpt lat="40.74619" lon="-74.00781"><ele>28.0</ele></trkpt><trkpt lat="40.74707" lon="-74.00741"><ele>28.0</ele></trkpt><trkpt lat="40.74776" lon="-74.00747"><ele>28.0</ele></trkpt><trkpt lat="40.74816" lon="-74.00718"><ele>28.0</ele></trkpt><trkpt lat="40.74855" lon="-74.00796"><ele>28.0</ele></trkpt><trkpt lat="40.74864" lon="-74.00878"><ele>28.0</ele></trkpt><trkpt lat="40.74910" lon="-74.00881"><ele>29.0</ele></trkpt><trkpt lat="40.74944" lon="-74.00905"><ele>29.0</ele></trkpt><trkpt lat="40.75008" lon="-74.00875"><ele>29.0</ele></trkpt><trkpt lat="40.75130" lon="-74.00877"><ele>28.0</ele></trkpt><trkpt lat="40.75358" lon="-74.00783"><ele>28.0</ele></trkpt><trkpt lat="40.75394" lon="-74.00744"><ele>28.0</ele></trkpt><trkpt lat="40.76309" lon="-74.00110"><ele>28.0</ele></trkpt><trkpt lat="40.76332" lon="-74.00081"><ele>28.0</ele></trkpt><trkpt lat="40.76339" lon="-74.00003"><ele>28.0</ele></trkpt><trkpt lat="40.76367" lon="-73.99955"><ele>28.0</ele></trkpt><trkpt lat="40.76839" lon="-73.99584"><ele>28.0</ele></trkpt><trkpt lat="40.76897" lon="-73.99577"><ele>29.0</ele></trkpt><trkpt lat="40.76985" lon="-73.99525"><ele>28.0</ele></trkpt><trkpt lat="40.76999" lon="-73.99533"><ele>28.0</ele></trkpt><trkpt lat="40.77014" lon="-73.99578"><ele>29.0</ele></trkpt><trkpt lat="40.77034" lon="-73.99588"><ele>29.0</ele></trkpt><trkpt lat="40.77112" lon="-73.99538"><ele>28.0</ele></trkpt><trkpt lat="40.77149" lon="-73.99485"><ele>28.0</ele></trkpt><trkpt lat="40.77262" lon="-73.99400"><ele>27.0</ele></trkpt><trkpt lat="40.77309" lon="-73.99373"><ele>27.0</ele></trkpt><trkpt lat="40.77352" lon="-73.99367"><ele>28.0</ele></trkpt><trkpt lat="40.77502" lon="-73.99249"><ele>28.0</ele></trkpt><trkpt lat="40.77563" lon="-73.99234"><ele>28.0</ele></trkpt><trkpt lat="40.77614" lon="-73.99145"><ele>28.0</ele></trkpt><trkpt lat="40.77690" lon="-73.99112"><ele>28.0</ele></trkpt><trkpt lat="40.77766" lon="-73.99026"><ele>28.0</ele></trkpt><trkpt lat="40.77877" lon="-73.98945"><ele>28.0</ele></trkpt><trkpt lat="40.77927" lon="-73.98936"><ele>28.0</ele></trkpt><trkpt lat="40.77974" lon="-73.98894"><ele>28.0</ele></trkpt><trkpt lat="40.78037" lon="-73.98885"><ele>28.0</ele></trkpt><trkpt lat="40.78356" lon="-73.98673"><ele>29.0</ele></trkpt><trkpt lat="40.79178" lon="-73.98107"><ele>28.0</ele></trkpt><trkpt lat="40.79391" lon="-73.97943"><ele>28.0</ele></trkpt><trkpt lat="40.80410" lon="-73.97226"><ele>28.0</ele></trkpt><trkpt lat="40.80902" lon="-73.96856"><ele>28.0</ele></trkpt><trkpt lat="40.81089" lon="-73.96742"><ele>28.0</ele></trkpt><trkpt lat="40.81354" lon="-73.96545"><ele>28.0</ele></trkpt><trkpt lat="40.81571" lon="-73.96407"><ele>30.0</ele></trkpt><trkpt lat="40.81814" lon="-73.96181"><ele>28.0</ele></trkpt><trkpt lat="40.81842" lon="-73.96171"><ele>28.0</ele></trkpt><trkpt lat="40.81963" lon="-73.96067"><ele>27.0</ele></trkpt><trkpt lat="40.82033" lon="-73.95979"><ele>28.0</ele></trkpt><trkpt lat="40.82148" lon="-73.95887"><ele>28.0</ele></trkpt><trkpt lat="40.82162" lon="-73.95830"><ele>28.0</ele></trkpt><trkpt lat="40.82230" lon="-73.95733"><ele>28.0</ele></trkpt><trkpt lat="40.82278" lon="-73.95711"><ele>28.0</ele></trkpt><trkpt lat="40.82427" lon="-73.95588"><ele>29.0</ele></trkpt><trkpt lat="40.82562" lon="-73.95436"><ele>28.0</ele></trkpt><trkpt lat="40.82721" lon="-73.95301"><ele>29.0</ele></trkpt><trkpt lat="40.82746" lon="-73.95309"><ele>29.0</ele></trkpt><trkpt lat="40.82808" lon="-73.95371"><ele>29.0</ele></trkpt><trkpt lat="40.82860" lon="-73.95373"><ele>29.0</ele></trkpt><trkpt lat="40.83184" lon="-73.95148"><ele>27.0</ele></trkpt><trkpt lat="40.83224" lon="-73.95140"><ele>27.0</ele></trkpt><trkpt lat="40.83278" lon="-73.95087"><ele>27.0</ele></trkpt><trkpt lat="40.83338" lon="-73.95074"><ele>27.0</ele></trkpt><trkpt lat="40.83436" lon="-73.95005"><ele>27.0</ele></trkpt><trkpt lat="40.83700" lon="-73.94931"><ele>27.0</ele></trkpt><trkpt lat="40.83815" lon="-73.94883"><ele>28.0</ele></trkpt><trkpt lat="40.83880" lon="-73.94874"><ele>31.0</ele></trkpt><trkpt lat="40.83922" lon="-73.94838"><ele>31.0</ele></trkpt><trkpt lat="40.83986" lon="-73.94827"><ele>31.0</ele></trkpt><trkpt lat="40.84184" lon="-73.94730"><ele>29.0</ele></trkpt><trkpt lat="40.84241" lon="-73.94695"><ele>29.0</ele></trkpt><trkpt lat="40.84288" lon="-73.94640"><ele>29.0</ele></trkpt><trkpt lat="40.84333" lon="-73.94617"><ele>30.0</ele></trkpt><trkpt lat="40.84443" lon="-73.94603"><ele>27.0</ele></trkpt><trkpt lat="40.84642" lon="-73.94607"><ele>28.0</ele></trkpt><trkpt lat="40.84754" lon="-73.94664"><ele>29.0</ele></trkpt><trkpt lat="40.84927" lon="-73.94655"><ele>28.0</ele></trkpt><trkpt lat="40.84991" lon="-73.94630"><ele>28.0</ele></trkpt><trkpt lat="40.85130" lon="-73.94516"><ele>38.0</ele></trkpt><trkpt lat="40.85158" lon="-73.94358"><ele>40.0</ele></trkpt><trkpt lat="40.85113" lon="-73.94329"><ele>41.0</ele></trkpt><trkpt lat="40.85086" lon="-73.94374"><ele>47.0</ele></trkpt><trkpt lat="40.85086" lon="-73.94347"><ele>50.0</ele></trkpt><trkpt lat="40.85110" lon="-73.94307"><ele>54.0</ele></trkpt><trkpt lat="40.85152" lon="-73.94277"><ele>57.0</ele></trkpt><trkpt lat="40.85230" lon="-73.94185"><ele>61.0</ele></trkpt><trkpt lat="40.85249" lon="-73.94146"><ele>61.0</ele></trkpt><trkpt lat="40.85499" lon="-73.94014"><ele>62.0</ele></trkpt><trkpt lat="40.85574" lon="-73.93957"><ele>61.0</ele></trkpt><trkpt lat="40.85809" lon="-73.93749"><ele>63.0</ele></trkpt><trkpt lat="40.85865" lon="-73.93722"><ele>65.0</ele></trkpt><trkpt lat="40.85924" lon="-73.93663"><ele>67.0</ele></trkpt><trkpt lat="40.85994" lon="-73.93553"><ele>66.0</ele></trkpt><trkpt lat="40.86113" lon="-73.93525"><ele>65.0</ele></trkpt><trkpt lat="40.86343" lon="-73.93380"><ele>55.0</ele></trkpt><trkpt lat="40.86495" lon="-73.93326"><ele>51.0</ele></trkpt><trkpt lat="40.86798" lon="-73.93145"><ele>43.0</ele></trkpt><trkpt lat="40.86742" lon="-73.93195"><ele>38.0</ele></trkpt><trkpt lat="40.86800" lon="-73.93158"><ele>34.0</ele></trkpt><trkpt lat="40.86818" lon="-73.93171"><ele>33.0</ele></trkpt><trkpt lat="40.86861" lon="-73.93150"><ele>30.0</ele></trkpt><trkpt lat="40.86884" lon="-73.93175"><ele>27.0</ele></trkpt><trkpt lat="40.87010" lon="-73.93128"><ele>28.0</ele></trkpt><trkpt lat="40.87061" lon="-73.93183"><ele>28.0</ele></trkpt><trkpt lat="40.87091" lon="-73.93189"><ele>28.0</ele></trkpt><trkpt lat="40.87384" lon="-73.93021"><ele>27.0</ele></trkpt><trkpt lat="40.87580" lon="-73.92887"><ele>27.0</ele></trkpt><trkpt lat="40.87635" lon="-73.92812"><ele>27.0</ele></trkpt><trkpt lat="40.87552" lon="-73.92902"><ele>27.0</ele></trkpt><trkpt lat="40.87407" lon="-73.92990"><ele>28.0</ele></trkpt><trkpt lat="40.87380" lon="-73.92941"><ele>30.0</ele></trkpt><trkpt lat="40.87369" lon="-73.92890"><ele>36.0</ele></trkpt><trkpt lat="40.87502" lon="-73.92781"><ele>35.0</ele></trkpt><trkpt lat="40.87601" lon="-73.92752"><ele>42.0</ele></trkpt><trkpt lat="40.87650" lon="-73.92707"><ele>42.0</ele></trkpt><trkpt lat="40.87672" lon="-73.92651"><ele>41.0</ele></trkpt><trkpt lat="40.87671" lon="-73.92562"><ele>41.0</ele></trkpt><trkpt lat="40.87706" lon="-73.92469"><ele>43.0</ele></trkpt><trkpt lat="40.87698" lon="-73.92371"><ele>46.0</ele></trkpt><trkpt lat="40.87660" lon="-73.92282"><ele>42.0</ele></trkpt><trkpt lat="40.87626" lon="-73.92264"><ele>38.0</ele></trkpt><trkpt lat="40.87573" lon="-73.92260"><ele>35.0</ele></trkpt><trkpt lat="40.87502" lon="-73.92289"><ele>38.0</ele></trkpt><trkpt lat="40.87350" lon="-73.92392"><ele>33.0</ele></trkpt><trkpt lat="40.87267" lon="-73.92333"><ele>30.0</ele></trkpt><trkpt lat="40.87259" lon="-73.92223"><ele>29.0</ele></trkpt><trkpt lat="40.87244" lon="-73.92208"><ele>28.0</ele></trkpt><trkpt lat="40.87262" lon="-73.92209"><ele>28.0</ele></trkpt><trkpt lat="40.87269" lon="-73.92184"><ele>28.0</ele></trkpt><trkpt lat="40.87242" lon="-73.92121"><ele>30.0</ele></trkpt><trkpt lat="40.87251" lon="-73.92039"><ele>33.0</ele></trkpt><trkpt lat="40.87302" lon="-73.91962"><ele>29.0</ele></trkpt><trkpt lat="40.87304" lon="-73.91880"><ele>28.0</ele></trkpt><trkpt lat="40.87266" lon="-73.91800"><ele>29.0</ele></trkpt><trkpt lat="40.87265" lon="-73.91767"><ele>30.0</ele></trkpt><trkpt lat="40.87206" lon="-73.91648"><ele>37.0</ele></trkpt><trkpt lat="40.87197" lon="-73.91592"><ele>39.0</ele></trkpt><trkpt lat="40.87147" lon="-73.91508"><ele>39.0</ele></trkpt><trkpt lat="40.87112" lon="-73.91418"><ele>34.0</ele></trkpt><trkpt lat="40.87094" lon="-73.91402"><ele>34.0</ele></trkpt><trkpt lat="40.86950" lon="-73.91511"><ele>32.0</ele></trkpt><trkpt lat="40.86908" lon="-73.91565"><ele>31.0</ele></trkpt><trkpt lat="40.86870" lon="-73.91580"><ele>30.0</ele></trkpt><trkpt lat="40.86663" lon="-73.91739"><ele>28.0</ele></trkpt><trkpt lat="40.86645" lon="-73.91806"><ele>28.0</ele></trkpt><trkpt lat="40.86608" lon="-73.91877"><ele>29.0</ele></trkpt><trkpt lat="40.86604" lon="-73.91922"><ele>29.0</ele></trkpt><trkpt lat="40.86561" lon="-73.92013"><ele>29.0</ele></trkpt><trkpt lat="40.86528" lon="-73.92134"><ele>29.0</ele></trkpt><trkpt lat="40.86462" lon="-73.92272"><ele>28.0</ele></trkpt><trkpt lat="40.86344" lon="-73.92599"><ele>29.0</ele></trkpt><trkpt lat="40.86329" lon="-73.92601"><ele>29.0</ele></trkpt><trkpt lat="40.86151" lon="-73.92487"><ele>28.0</ele></trkpt><trkpt lat="40.86125" lon="-73.92506"><ele>28.0</ele></trkpt><trkpt lat="40.86084" lon="-73.92496"><ele>30.0</ele></trkpt><trkpt lat="40.85985" lon="-73.92555"><ele>42.0</ele></trkpt><trkpt lat="40.85901" lon="-73.92669"><ele>55.0</ele></trkpt><trkpt lat="40.85781" lon="-73.92738"><ele>69.0</ele></trkpt><trkpt lat="40.85733" lon="-73.92802"><ele>78.0</ele></trkpt><trkpt lat="40.85708" lon="-73.92810"><ele>79.0</ele></trkpt><trkpt lat="40.85736" lon="-73.92719"><ele>84.0</ele></trkpt><trkpt lat="40.85827" lon="-73.92632"><ele>81.0</ele></trkpt><trkpt lat="40.85837" lon="-73.92565"><ele>81.0</ele></trkpt><trkpt lat="40.85819" lon="-73.92514"><ele>79.0</ele></trkpt><trkpt lat="40.85785" lon="-73.92481"><ele>78.0</ele></trkpt><trkpt lat="40.85715" lon="-73.92450"><ele>74.0</ele></trkpt><trkpt lat="40.85659" lon="-73.92454"><ele>73.0</ele></trkpt><trkpt lat="40.84158" lon="-73.93548"><ele>79.0</ele></trkpt><trkpt lat="40.84122" lon="-73.93556"><ele>77.0</ele></trkpt><trkpt lat="40.83984" lon="-73.93490"><ele>74.0</ele></trkpt><trkpt lat="40.83917" lon="-73.93499"><ele>73.0</ele></trkpt><trkpt lat="40.83770" lon="-73.93634"><ele>71.0</ele></trkpt><trkpt lat="40.83426" lon="-73.93787"><ele>71.0</ele></trkpt><trkpt lat="40.83290" lon="-73.93943"><ele>65.0</ele></trkpt><trkpt lat="40.83150" lon="-73.94025"><ele>62.0</ele></trkpt><trkpt lat="40.83054" lon="-73.94019"><ele>59.0</ele></trkpt><trkpt lat="40.83032" lon="-73.93982"><ele>57.0</ele></trkpt><trkpt lat="40.83004" lon="-73.93871"><ele>33.0</ele></trkpt><trkpt lat="40.82976" lon="-73.93854"><ele>31.0</ele></trkpt><trkpt lat="40.82821" lon="-73.93929"><ele>29.0</ele></trkpt><trkpt lat="40.82700" lon="-73.94006"><ele>29.0</ele></trkpt><trkpt lat="40.82685" lon="-73.93943"><ele>29.0</ele></trkpt><trkpt lat="40.82547" lon="-73.93655"><ele>29.0</ele></trkpt><trkpt lat="40.82388" lon="-73.93762"><ele>29.0</ele></trkpt><trkpt lat="40.82370" lon="-73.93767"><ele>29.0</ele></trkpt><trkpt lat="40.82357" lon="-73.93751"><ele>30.0</ele></trkpt><trkpt lat="40.82330" lon="-73.93761"><ele>29.0</ele></trkpt><trkpt lat="40.82154" lon="-73.93896"><ele>30.0</ele></trkpt><trkpt lat="40.82138" lon="-73.93882"><ele>30.0</ele></trkpt><trkpt lat="40.82125" lon="-73.93825"><ele>30.0</ele></trkpt><trkpt lat="40.82030" lon="-73.93621"><ele>26.0</ele></trkpt><trkpt lat="40.82006" lon="-73.93621"><ele>26.0</ele></trkpt><trkpt lat="40.81846" lon="-73.93739"><ele>25.0</ele></trkpt><trkpt lat="40.81823" lon="-73.93684"><ele>25.0</ele></trkpt><trkpt lat="40.81801" lon="-73.93668"><ele>25.0</ele></trkpt><trkpt lat="40.81767" lon="-73.93602"><ele>25.0</ele></trkpt><trkpt lat="40.81717" lon="-73.93628"><ele>25.0</ele></trkpt><trkpt lat="40.81701" lon="-73.93588"><ele>25.0</ele></trkpt><trkpt lat="40.81665" lon="-73.93558"><ele>25.0</ele></trkpt><trkpt lat="40.81651" lon="-73.93481"><ele>24.0</ele></trkpt><trkpt lat="40.81593" lon="-73.93533"><ele>24.0</ele></trkpt><trkpt lat="40.81580" lon="-73.93559"><ele>24.0</ele></trkpt><trkpt lat="40.81475" lon="-73.93599"><ele>25.0</ele></trkpt><trkpt lat="40.81271" lon="-73.93745"><ele>26.0</ele></trkpt><trkpt lat="40.81195" lon="-73.93604"><ele>25.0</ele></trkpt><trkpt lat="40.81138" lon="-73.93627"><ele>25.0</ele></trkpt><trkpt lat="40.81029" lon="-73.93718"><ele>26.0</ele></trkpt><trkpt lat="40.81004" lon="-73.93657"><ele>26.0</ele></trkpt><trkpt lat="40.80941" lon="-73.93582"><ele>25.0</ele></trkpt><trkpt lat="40.80900" lon="-73.93616"><ele>25.0</ele></trkpt><trkpt lat="40.80875" lon="-73.93615"><ele>25.0</ele></trkpt><trkpt lat="40.80817" lon="-73.93653"><ele>25.0</ele></trkpt><trkpt lat="40.80757" lon="-73.93527"><ele>25.0</ele></trkpt><trkpt lat="40.80699" lon="-73.93555"><ele>25.0</ele></trkpt><trkpt lat="40.80692" lon="-73.93543"><ele>25.0</ele></trkpt><trkpt lat="40.80638" lon="-73.93579"><ele>25.0</ele></trkpt><trkpt lat="40.80569" lon="-73.93463"><ele>25.0</ele></trkpt><trkpt lat="40.80537" lon="-73.93475"><ele>24.0</ele></trkpt><trkpt lat="40.80492" lon="-73.93464"><ele>24.0</ele></trkpt><trkpt lat="40.80466" lon="-73.93387"><ele>24.0</ele></trkpt><trkpt lat="40.80408" lon="-73.93277"><ele>25.0</ele></trkpt><trkpt lat="40.80290" lon="-73.93355"><ele>25.0</ele></trkpt><trkpt lat="40.80191" lon="-73.93128"><ele>25.0</ele></trkpt><trkpt lat="40.80157" lon="-73.93121"><ele>24.0</ele></trkpt><trkpt lat="40.80054" lon="-73.93181"><ele>25.0</ele></trkpt><trkpt lat="40.80010" lon="-73.93063"><ele>24.0</ele></trkpt><trkpt lat="40.79982" lon="-73.93032"><ele>24.0</ele></trkpt><trkpt lat="40.79807" lon="-73.92967"><ele>24.0</ele></trkpt><trkpt lat="40.79720" lon="-73.92958"><ele>24.0</ele></trkpt><trkpt lat="40.79700" lon="-73.92999"><ele>24.0</ele></trkpt><trkpt lat="40.79741" lon="-73.93053"><ele>24.0</ele></trkpt><trkpt lat="40.79754" lon="-73.93136"><ele>25.0</ele></trkpt><trkpt lat="40.79735" lon="-73.93163"><ele>24.0</ele></trkpt><trkpt lat="40.79708" lon="-73.93180"><ele>25.0</ele></trkpt><trkpt lat="40.79679" lon="-73.93171"><ele>25.0</ele></trkpt><trkpt lat="40.79627" lon="-73.93204"><ele>25.0</ele></trkpt><trkpt lat="40.79516" lon="-73.93299"><ele>25.0</ele></trkpt><trkpt lat="40.79375" lon="-73.93387"><ele>25.0</ele></trkpt><trkpt lat="40.79355" lon="-73.93420"><ele>25.0</ele></trkpt><trkpt lat="40.79276" lon="-73.93456"><ele>24.0</ele></trkpt><trkpt lat="40.79204" lon="-73.93537"><ele>24.0</ele></trkpt><trkpt lat="40.79176" lon="-73.93512"><ele>26.0</ele></trkpt><trkpt lat="40.79191" lon="-73.93491"><ele>27.0</ele></trkpt><trkpt lat="40.79111" lon="-73.93588"><ele>23.0</ele></trkpt><trkpt lat="40.78937" lon="-73.93716"><ele>23.0</ele></trkpt><trkpt lat="40.78751" lon="-73.93795"><ele>23.0</ele></trkpt><trkpt lat="40.78628" lon="-73.93887"><ele>24.0</ele></trkpt><trkpt lat="40.78542" lon="-73.93977"><ele>23.0</ele></trkpt><trkpt lat="40.78374" lon="-73.94280"><ele>23.0</ele></trkpt><trkpt lat="40.78290" lon="-73.94358"><ele>23.0</ele></trkpt><trkpt lat="40.78124" lon="-73.94393"><ele>22.0</ele></trkpt><trkpt lat="40.77997" lon="-73.94360"><ele>23.0</ele></trkpt><trkpt lat="40.77657" lon="-73.94209"><ele>23.0</ele></trkpt><trkpt lat="40.77611" lon="-73.94215"><ele>25.0</ele></trkpt><trkpt lat="40.77582" lon="-73.94245"><ele>26.0</ele></trkpt><trkpt lat="40.77466" lon="-73.94308"><ele>29.0</ele></trkpt><trkpt lat="40.77228" lon="-73.94525"><ele>31.0</ele></trkpt><trkpt lat="40.77148" lon="-73.94641"><ele>31.0</ele></trkpt><trkpt lat="40.77104" lon="-73.94668"><ele>30.0</ele></trkpt><trkpt lat="40.76888" lon="-73.94866"><ele>22.0</ele></trkpt><trkpt lat="40.76952" lon="-73.94822"><ele>24.0</ele></trkpt><trkpt lat="40.77000" lon="-73.94937"><ele>26.0</ele></trkpt><trkpt lat="40.76900" lon="-73.95017"><ele>26.0</ele></trkpt><trkpt lat="40.76884" lon="-73.95044"><ele>26.0</ele></trkpt><trkpt lat="40.76955" lon="-73.95148"><ele>27.0</ele></trkpt><trkpt lat="40.76946" lon="-73.95174"><ele>27.0</ele></trkpt><trkpt lat="40.76617" lon="-73.95421"><ele>30.0</ele></trkpt><trkpt lat="40.76588" lon="-73.95383"><ele>30.0</ele></trkpt><trkpt lat="40.76523" lon="-73.95209"><ele>27.0</ele></trkpt><trkpt lat="40.76498" lon="-73.95203"><ele>28.0</ele></trkpt><trkpt lat="40.76222" lon="-73.95450"><ele>22.0</ele></trkpt><trkpt lat="40.76012" lon="-73.95681"><ele>22.0</ele></trkpt><trkpt lat="40.75992" lon="-73.95736"><ele>22.0</ele></trkpt><trkpt lat="40.76005" lon="-73.95727"><ele>22.0</ele></trkpt><trkpt lat="40.75989" lon="-73.95750"><ele>22.0</ele></trkpt><trkpt lat="40.75897" lon="-73.95836"><ele>30.0</ele></trkpt><trkpt lat="40.75919" lon="-73.95905"><ele>30.0</ele></trkpt><trkpt lat="40.75873" lon="-73.95895"><ele>29.0</ele></trkpt><trkpt lat="40.75806" lon="-73.95987"><ele>33.0</ele></trkpt><trkpt lat="40.75654" lon="-73.96099"><ele>32.0</ele></trkpt><trkpt lat="40.75606" lon="-73.96157"><ele>30.0</ele></trkpt><trkpt lat="40.75584" lon="-73.96158"><ele>28.0</ele></trkpt><trkpt lat="40.75494" lon="-73.96225"><ele>24.0</ele></trkpt><trkpt lat="40.75486" lon="-73.96251"><ele>24.0</ele></trkpt><trkpt lat="40.75493" lon="-73.96273"><ele>24.0</ele></trkpt><trkpt lat="40.75581" lon="-73.96456"><ele>28.0</ele></trkpt><trkpt lat="40.75536" lon="-73.96516"><ele>31.0</ele></trkpt><trkpt lat="40.75334" lon="-73.96650"><ele>30.0</ele></trkpt><trkpt lat="40.75224" lon="-73.96680"><ele>27.0</ele></trkpt><trkpt lat="40.75152" lon="-73.96739"><ele>29.0</ele></trkpt><trkpt lat="40.75077" lon="-73.96827"><ele>31.0</ele></trkpt><trkpt lat="40.75011" lon="-73.96859"><ele>32.0</ele></trkpt><trkpt lat="40.74627" lon="-73.97158"><ele>28.0</ele></trkpt><trkpt lat="40.74612" lon="-73.97088"><ele>26.0</ele></trkpt><trkpt lat="40.74591" lon="-73.97052"><ele>25.0</ele></trkpt><trkpt lat="40.74538" lon="-73.97084"><ele>24.0</ele></trkpt><trkpt lat="40.74483" lon="-73.97054"><ele>23.0</ele></trkpt><trkpt lat="40.74459" lon="-73.97076"><ele>23.0</ele></trkpt><trkpt lat="40.74450" lon="-73.97105"><ele>23.0</ele></trkpt><trkpt lat="40.74356" lon="-73.97147"><ele>23.0</ele></trkpt><trkpt lat="40.74316" lon="-73.97193"><ele>23.0</ele></trkpt><trkpt lat="40.74270" lon="-73.97221"><ele>23.0</ele></trkpt><trkpt lat="40.74253" lon="-73.97208"><ele>23.0</ele></trkpt><trkpt lat="40.74224" lon="-73.97219"><ele>23.0</ele></trkpt><trkpt lat="40.74206" lon="-73.97199"><ele>23.0</ele></trkpt><trkpt lat="40.74043" lon="-73.97253"><ele>23.0</ele></trkpt><trkpt lat="40.73951" lon="-73.97265"><ele>23.0</ele></trkpt><trkpt lat="40.73867" lon="-73.97316"><ele>23.0</ele></trkpt><trkpt lat="40.73826" lon="-73.97323"><ele>23.0</ele></trkpt><trkpt lat="40.73717" lon="-73.97432"><ele>24.0</ele></trkpt><trkpt lat="40.73557" lon="-73.97461"><ele>23.0</ele></trkpt><trkpt lat="40.73438" lon="-73.97453"><ele>23.0</ele></trkpt><trkpt lat="40.73272" lon="-73.97397"><ele>24.0</ele></trkpt><trkpt lat="40.73252" lon="-73.97426"><ele>24.0</ele></trkpt><trkpt lat="40.73216" lon="-73.97431"><ele>23.0</ele></trkpt><trkpt lat="40.73103" lon="-73.97410"><ele>23.0</ele></trkpt><trkpt lat="40.72908" lon="-73.97549"><ele>23.0</ele></trkpt><trkpt lat="40.72869" lon="-73.97568"><ele>23.0</ele></trkpt><trkpt lat="40.72820" lon="-73.97569"><ele>23.0</ele></trkpt><trkpt lat="40.72784" lon="-73.97603"><ele>23.0</ele></trkpt><trkpt lat="40.72718" lon="-73.97498"><ele>24.0</ele></trkpt><trkpt lat="40.72665" lon="-73.97377"><ele>24.0</ele></trkpt><trkpt lat="40.72593" lon="-73.97418"><ele>24.0</ele></trkpt><trkpt lat="40.72521" lon="-73.97292"><ele>24.0</ele></trkpt><trkpt lat="40.72433" lon="-73.97343"><ele>24.0</ele></trkpt><trkpt lat="40.72459" lon="-73.97329"><ele>24.0</ele></trkpt><trkpt lat="40.72430" lon="-73.97335"><ele>26.0</ele></trkpt><trkpt lat="40.72421" lon="-73.97303"><ele>27.0</ele></trkpt><trkpt lat="40.72449" lon="-73.97287"><ele>27.0</ele></trkpt><trkpt lat="40.72410" lon="-73.97296"><ele>25.0</ele></trkpt><trkpt lat="40.72378" lon="-73.97244"><ele>24.0</ele></trkpt><trkpt lat="40.72353" lon="-73.97235"><ele>24.0</ele></trkpt><trkpt lat="40.72108" lon="-73.97293"><ele>23.0</ele></trkpt><trkpt lat="40.72047" lon="-73.97355"><ele>24.0</ele></trkpt><trkpt lat="40.72047" lon="-73.97394"><ele>24.0</ele></trkpt><trkpt lat="40.72025" lon="-73.97429"><ele>24.0</ele></trkpt><trkpt lat="40.71899" lon="-73.97469"><ele>25.0</ele></trkpt><trkpt lat="40.71868" lon="-73.97527"><ele>28.0</ele></trkpt><trkpt lat="40.71790" lon="-73.97539"><ele>26.0</ele></trkpt><trkpt lat="40.71507" lon="-73.97659"><ele>23.0</ele></trkpt><trkpt lat="40.71237" lon="-73.97816"><ele>24.0</ele></trkpt><trkpt lat="40.71216" lon="-73.98059"><ele>27.0</ele></trkpt><trkpt lat="40.71187" lon="-73.98074"><ele>28.0</ele></trkpt><trkpt lat="40.71107" lon="-73.98067"><ele>26.0</ele></trkpt><trkpt lat="40.71080" lon="-73.98474"><ele>25.0</ele></trkpt><trkpt lat="40.71056" lon="-73.98502"><ele>25.0</ele></trkpt><trkpt lat="40.71070" lon="-73.98645"><ele>24.0</ele></trkpt><trkpt lat="40.71058" lon="-73.98723"><ele>24.0</ele></trkpt><trkpt lat="40.70981" lon="-73.98950"><ele>24.0</ele></trkpt><trkpt lat="40.70877" lon="-73.99192"><ele>25.0</ele></trkpt><trkpt lat="40.70916" lon="-73.99544"><ele>24.0</ele></trkpt><trkpt lat="40.70911" lon="-73.99590"><ele>24.0</ele></trkpt><trkpt lat="40.70940" lon="-73.99666"><ele>24.0</ele></trkpt><trkpt lat="40.70944" lon="-73.99753"><ele>24.0</ele></trkpt><trkpt lat="40.70926" lon="-73.99842"><ele>24.0</ele></trkpt><trkpt lat="40.70834" lon="-73.99912"><ele>24.0</ele></trkpt><trkpt lat="40.70747" lon="-74.00052"><ele>24.0</ele></trkpt><trkpt lat="40.70701" lon="-74.00183"><ele>24.0</ele></trkpt><trkpt lat="40.70603" lon="-74.00278"><ele>24.0</ele></trkpt><trkpt lat="40.70545" lon="-74.00384"><ele>24.0</ele></trkpt><trkpt lat="40.70437" lon="-74.00535"><ele>24.0</ele></trkpt><trkpt lat="40.70372" lon="-74.00665"><ele>24.0</ele></trkpt><trkpt lat="40.70275" lon="-74.00796"><ele>24.0</ele></trkpt><trkpt lat="40.70185" lon="-74.00957"><ele>24.0</ele></trkpt><trkpt lat="40.70152" lon="-74.01103"><ele>24.0</ele></trkpt><trkpt lat="40.70161" lon="-74.01174"><ele>24.0</ele></trkpt><trkpt lat="40.70144" lon="-74.01226"><ele>24.0</ele></trkpt><trkpt lat="40.70156" lon="-74.01303"><ele>24.0</ele></trkpt><trkpt lat="40.70193" lon="-74.01331"><ele>24.0</ele></trkpt><trkpt lat="40.70231" lon="-74.01427"><ele>24.0</ele></trkpt><trkpt lat="40.70179" lon="-74.01474"><ele>24.0</ele></trkpt><trkpt lat="40.70138" lon="-74.01539"><ele>24.0</ele></trkpt><trkpt lat="40.70140" lon="-74.01557"><ele>24.0</ele></trkpt><trkpt lat="40.70180" lon="-74.01609"><ele>24.0</ele></trkpt><trkpt lat="40.70291" lon="-74.01704"><ele>23.0</ele></trkpt><trkpt lat="40.70318" lon="-74.01641"><ele>23.0</ele></trkpt><trkpt lat="40.70350" lon="-74.01622"><ele>23.0</ele></trkpt><trkpt lat="40.70397" lon="-74.01654"><ele>24.0</ele></trkpt><trkpt lat="40.70433" lon="-74.01715"><ele>24.0</ele></trkpt><trkpt lat="40.70481" lon="-74.01739"><ele>23.0</ele></trkpt><trkpt lat="40.70522" lon="-74.01789"><ele>24.0</ele></trkpt><trkpt lat="40.70569" lon="-74.01815"><ele>24.0</ele></trkpt><trkpt lat="40.70624" lon="-74.01802"><ele>24.0</ele></trkpt><trkpt lat="40.70669" lon="-74.01758"><ele>24.0</ele></trkpt><trkpt lat="40.70711" lon="-74.01811"><ele>23.0</ele></trkpt><trkpt lat="40.70779" lon="-74.01786"><ele>23.0</ele></trkpt><trkpt lat="40.70822" lon="-74.01884"><ele>23.0</ele></trkpt><trkpt lat="40.71093" lon="-74.01802"><ele>22.0</ele></trkpt><trkpt lat="40.71213" lon="-74.01782"><ele>22.0</ele></trkpt><trkpt lat="40.71217" lon="-74.01658"><ele>22.0</ele></trkpt><trkpt lat="40.71236" lon="-74.01646"><ele>22.0</ele></trkpt><trkpt lat="40.71337" lon="-74.01638"><ele>22.0</ele></trkpt><trkpt lat="40.71367" lon="-74.01747"><ele>23.0</ele></trkpt><trkpt lat="40.71378" lon="-74.01756"><ele>23.0</ele></trkpt><trkpt lat="40.71856" lon="-74.01668"><ele>23.0</ele></trkpt><trkpt lat="40.71863" lon="-74.01654"><ele>23.0</ele></trkpt><trkpt lat="40.71844" lon="-74.01505"><ele>23.0</ele></trkpt><trkpt lat="40.71853" lon="-74.01463"><ele>23.0</ele></trkpt><trkpt lat="40.71829" lon="-74.01338"><ele>23.0</ele></trkpt><trkpt lat="40.71843" lon="-74.01318"><ele>23.0</ele></trkpt><trkpt lat="40.72017" lon="-74.01284"><ele>22.0</ele></trkpt><trkpt lat="40.72044" lon="-74.01298"><ele>22.0</ele></trkpt><trkpt lat="40.72148" lon="-74.01259"><ele>22.0</ele></trkpt><trkpt lat="40.72648" lon="-74.01152"><ele>23.0</ele></trkpt><trkpt lat="40.73925" lon="-74.01037"><ele>22.0</ele></trkpt><trkpt lat="40.74083" lon="-74.00956"><ele>23.0</ele></trkpt><trkpt lat="40.74281" lon="-74.00913"><ele>23.0</ele></trkpt><trkpt lat="40.74362" lon="-74.00836"><ele>23.0</ele></trkpt><trkpt lat="40.74452" lon="-74.00876"><ele>22.0</ele></trkpt><trkpt lat="40.74491" lon="-74.00869"><ele>22.0</ele></trkpt><trkpt lat="40.74625" lon="-74.00762"><ele>22.0</ele></trkpt><trkpt lat="40.74678" lon="-74.00778"><ele>22.0</ele></trkpt><trkpt lat="40.74770" lon="-74.00752"><ele>22.0</ele></trkpt><trkpt lat="40.74847" lon="-74.00750"><ele>22.0</ele></trkpt><trkpt lat="40.74868" lon="-74.00812"><ele>22.0</ele></trkpt><trkpt lat="40.74859" lon="-74.00880"><ele>22.0</ele></trkpt><trkpt lat="40.74922" lon="-74.00979"><ele>24.0</ele></trkpt><trkpt lat="40.74991" lon="-74.00954"><ele>23.0</ele></trkpt><trkpt lat="40.75004" lon="-74.00920"><ele>23.0</ele></trkpt><trkpt lat="40.75034" lon="-74.00904"><ele>23.0</ele></trkpt><trkpt lat="40.75041" lon="-74.00872"><ele>23.0</ele></trkpt><trkpt lat="40.75140" lon="-74.00870"><ele>23.0</ele></trkpt><trkpt lat="40.75350" lon="-74.00790"><ele>23.0</ele></trkpt><trkpt lat="40.75391" lon="-74.00746"><ele>23.0</ele></trkpt><trkpt lat="40.75441" lon="-74.00723"><ele>22.0</ele></trkpt><trkpt lat="40.75838" lon="-74.00431"><ele>23.0</ele></trkpt><trkpt lat="40.76263" lon="-74.00145"><ele>23.0</ele></trkpt><trkpt lat="40.76331" lon="-74.00069"><ele>23.0</ele></trkpt><trkpt lat="40.76334" lon="-74.00000"><ele>23.0</ele></trkpt><trkpt lat="40.76356" lon="-73.99959"><ele>23.0</ele></trkpt><trkpt lat="40.76852" lon="-73.99574"><ele>23.0</ele></trkpt><trkpt lat="40.76915" lon="-73.99564"><ele>23.0</ele></trkpt><trkpt lat="40.76982" lon="-73.99526"><ele>22.0</ele></trkpt><trkpt lat="40.77002" lon="-73.99545"><ele>22.0</ele></trkpt><trkpt lat="40.77741" lon="-73.99047"><ele>22.0</ele></trkpt><trkpt lat="40.77910" lon="-73.98919"><ele>23.0</ele></trkpt><trkpt lat="40.77967" lon="-73.98888"><ele>22.0</ele></trkpt><trkpt lat="40.78025" lon="-73.98886"><ele>22.0</ele></trkpt><trkpt lat="40.78175" lon="-73.98795"><ele>22.0</ele></trkpt><trkpt lat="40.79147" lon="-73.98127"><ele>23.0</ele></trkpt><trkpt lat="40.79791" lon="-73.97657"><ele>22.0</ele></trkpt><trkpt lat="40.80286" lon="-73.97316"><ele>22.0</ele></trkpt><trkpt lat="40.80907" lon="-73.96850"><ele>23.0</ele></trkpt><trkpt lat="40.81166" lon="-73.96689"><ele>23.0</ele></trkpt><trkpt lat="40.81289" lon="-73.96605"><ele>24.0</ele></trkpt><trkpt lat="40.81353" lon="-73.96543"><ele>23.0</ele></trkpt><trkpt lat="40.81551" lon="-73.96422"><ele>25.0</ele></trkpt><trkpt lat="40.81961" lon="-73.96069"><ele>23.0</ele></trkpt><trkpt lat="40.82027" lon="-73.95982"><ele>24.0</ele></trkpt><trkpt lat="40.82152" lon="-73.95877"><ele>24.0</ele></trkpt><trkpt lat="40.82172" lon="-73.95818"><ele>25.0</ele></trkpt><trkpt lat="40.82214" lon="-73.95773"><ele>25.0</ele></trkpt><trkpt lat="40.82315" lon="-73.95693"><ele>25.0</ele></trkpt><trkpt lat="40.82566" lon="-73.95427"><ele>26.0</ele></trkpt><trkpt lat="40.82695" lon="-73.95316"><ele>26.0</ele></trkpt><trkpt lat="40.82742" lon="-73.95306"><ele>27.0</ele></trkpt><trkpt lat="40.82800" lon="-73.95367"><ele>25.0</ele></trkpt><trkpt lat="40.82855" lon="-73.95375"><ele>26.0</ele></trkpt><trkpt lat="40.83091" lon="-73.95226"><ele>25.0</ele></trkpt><trkpt lat="40.83188" lon="-73.95148"><ele>26.0</ele></trkpt><trkpt lat="40.83221" lon="-73.95144"><ele>26.0</ele></trkpt><trkpt lat="40.83276" lon="-73.95095"><ele>25.0</ele></trkpt><trkpt lat="40.83340" lon="-73.95075"><ele>26.0</ele></trkpt><trkpt lat="40.83435" lon="-73.95011"><ele>25.0</ele></trkpt><trkpt lat="40.83713" lon="-73.94931"><ele>24.0</ele></trkpt><trkpt lat="40.83809" lon="-73.94886"><ele>26.0</ele></trkpt><trkpt lat="40.83887" lon="-73.94877"><ele>28.0</ele></trkpt><trkpt lat="40.83956" lon="-73.94821"><ele>28.0</ele></trkpt><trkpt lat="40.83967" lon="-73.94835"><ele>28.0</ele></trkpt><trkpt lat="40.83990" lon="-73.94827"><ele>28.0</ele></trkpt><trkpt lat="40.84225" lon="-73.94711"><ele>27.0</ele></trkpt><trkpt lat="40.84319" lon="-73.94624"><ele>28.0</ele></trkpt><trkpt lat="40.84459" lon="-73.94603"><ele>26.0</ele></trkpt><trkpt lat="40.84643" lon="-73.94603"><ele>26.0</ele></trkpt><trkpt lat="40.84745" lon="-73.94661"><ele>27.0</ele></trkpt><trkpt lat="40.84949" lon="-73.94649"><ele>26.0</ele></trkpt><trkpt lat="40.85051" lon="-73.94596"><ele>29.0</ele></trkpt><trkpt lat="40.85126" lon="-73.94522"><ele>35.0</ele></trkpt><trkpt lat="40.85157" lon="-73.94358"><ele>36.0</ele></trkpt><trkpt lat="40.85107" lon="-73.94334"><ele>38.0</ele></trkpt><trkpt lat="40.85082" lon="-73.94374"><ele>43.0</ele></trkpt><trkpt lat="40.85081" lon="-73.94353"><ele>48.0</ele></trkpt><trkpt lat="40.85106" lon="-73.94307"><ele>52.0</ele></trkpt><trkpt lat="40.85166" lon="-73.94260"><ele>55.0</ele></trkpt><trkpt lat="40.85254" lon="-73.94152"><ele>57.0</ele></trkpt><trkpt lat="40.85508" lon="-73.94009"><ele>59.0</ele></trkpt><trkpt lat="40.85925" lon="-73.93665"><ele>64.0</ele></trkpt><trkpt lat="40.85976" lon="-73.93576"><ele>64.0</ele></trkpt><trkpt lat="40.86011" lon="-73.93543"><ele>64.0</ele></trkpt><trkpt lat="40.86119" lon="-73.93521"><ele>63.0</ele></trkpt><trkpt lat="40.86340" lon="-73.93382"><ele>53.0</ele></trkpt><trkpt lat="40.86602" lon="-73.93269"><ele>46.0</ele></trkpt><trkpt lat="40.86795" lon="-73.93143"><ele>41.0</ele></trkpt><trkpt lat="40.86745" lon="-73.93192"><ele>37.0</ele></trkpt><trkpt lat="40.86860" lon="-73.93146"><ele>29.0</ele></trkpt><trkpt lat="40.86881" lon="-73.93177"><ele>27.0</ele></trkpt><trkpt lat="40.87016" lon="-73.93128"><ele>28.0</ele></trkpt><trkpt lat="40.87033" lon="-73.93135"><ele>28.0</ele></trkpt><trkpt lat="40.87058" lon="-73.93176"><ele>29.0</ele></trkpt><trkpt lat="40.87091" lon="-73.93188"><ele>28.0</ele></trkpt><trkpt lat="40.87350" lon="-73.93041"><ele>28.0</ele></trkpt><trkpt lat="40.87374" lon="-73.92971"><ele>28.0</ele></trkpt><trkpt lat="40.87394" lon="-73.92948"><ele>28.0</ele></trkpt><trkpt lat="40.87377" lon="-73.92880"><ele>34.0</ele></trkpt><trkpt lat="40.87517" lon="-73.92779"><ele>34.0</ele></trkpt><trkpt lat="40.87612" lon="-73.92746"><ele>42.0</ele></trkpt><trkpt lat="40.87670" lon="-73.92677"><ele>39.0</ele></trkpt><trkpt lat="40.87678" lon="-73.92542"><ele>40.0</ele></trkpt><trkpt lat="40.87710" lon="-73.92477"><ele>42.0</ele></trkpt><trkpt lat="40.87700" lon="-73.92359"><ele>45.0</ele></trkpt><trkpt lat="40.87673" lon="-73.92277"><ele>42.0</ele></trkpt><trkpt lat="40.87649" lon="-73.92258"><ele>39.0</ele></trkpt><trkpt lat="40.87580" lon="-73.92259"><ele>35.0</ele></trkpt><trkpt lat="40.87445" lon="-73.92330"><ele>39.0</ele></trkpt><trkpt lat="40.87374" lon="-73.92389"><ele>34.0</ele></trkpt><trkpt lat="40.87349" lon="-73.92381"><ele>32.0</ele></trkpt><trkpt lat="40.87277" lon="-73.92311"><ele>30.0</ele></trkpt><trkpt lat="40.87264" lon="-73.92245"><ele>29.0</ele></trkpt><trkpt lat="40.87284" lon="-73.92185"><ele>28.0</ele></trkpt><trkpt lat="40.87251" lon="-73.92114"><ele>30.0</ele></trkpt><trkpt lat="40.87259" lon="-73.92031"><ele>33.0</ele></trkpt><trkpt lat="40.87306" lon="-73.91976"><ele>29.0</ele></trkpt><trkpt lat="40.87308" lon="-73.91861"><ele>28.0</ele></trkpt><trkpt lat="40.87288" lon="-73.91804"><ele>29.0</ele></trkpt><trkpt lat="40.87267" lon="-73.91778"><ele>31.0</ele></trkpt><trkpt lat="40.87179" lon="-73.91518"><ele>40.0</ele></trkpt><trkpt lat="40.87137" lon="-73.91431"><ele>37.0</ele></trkpt><trkpt lat="40.87103" lon="-73.91401"><ele>34.0</ele></trkpt><trkpt lat="40.86946" lon="-73.91504"><ele>33.0</ele></trkpt><trkpt lat="40.86875" lon="-73.91594"><ele>33.0</ele></trkpt><trkpt lat="40.86686" lon="-73.91730"><ele>30.0</ele></trkpt><trkpt lat="40.86578" lon="-73.92007"><ele>31.0</ele></trkpt><trkpt lat="40.86564" lon="-73.92004"><ele>31.0</ele></trkpt><trkpt lat="40.86524" lon="-73.92152"><ele>31.0</ele></trkpt><trkpt lat="40.86468" lon="-73.92256"><ele>30.0</ele></trkpt><trkpt lat="40.86409" lon="-73.92441"><ele>29.0</ele></trkpt><trkpt lat="40.86396" lon="-73.92523"><ele>30.0</ele></trkpt><trkpt lat="40.86342" lon="-73.92602"><ele>30.0</ele></trkpt><trkpt lat="40.86270" lon="-73.92544"><ele>30.0</ele></trkpt><trkpt lat="40.86247" lon="-73.92552"><ele>30.0</ele></trkpt><trkpt lat="40.86180" lon="-73.92487"><ele>30.0</ele></trkpt><trkpt lat="40.86150" lon="-73.92487"><ele>30.0</ele></trkpt><trkpt lat="40.86136" lon="-73.92507"><ele>30.0</ele></trkpt><trkpt lat="40.86125" lon="-73.92486"><ele>30.0</ele></trkpt><trkpt lat="40.86087" lon="-73.92490"><ele>32.0</ele></trkpt><trkpt lat="40.85983" lon="-73.92563"><ele>45.0</ele></trkpt><trkpt lat="40.85906" lon="-73.92663"><ele>55.0</ele></trkpt><trkpt lat="40.85785" lon="-73.92753"><ele>72.0</ele></trkpt><trkpt lat="40.85758" lon="-73.92760"><ele>75.0</ele></trkpt><trkpt lat="40.85740" lon="-73.92806"><ele>79.0</ele></trkpt><trkpt lat="40.85708" lon="-73.92815"><ele>81.0</ele></trkpt><trkpt lat="40.85740" lon="-73.92695"><ele>85.0</ele></trkpt><trkpt lat="40.85814" lon="-73.92650"><ele>83.0</ele></trkpt><trkpt lat="40.85834" lon="-73.92613"><ele>82.0</ele></trkpt><trkpt lat="40.85840" lon="-73.92567"><ele>81.0</ele></trkpt><trkpt lat="40.85825" lon="-73.92526"><ele>80.0</ele></trkpt><trkpt lat="40.85794" lon="-73.92486"><ele>79.0</ele></trkpt><trkpt lat="40.85722" lon="-73.92453"><ele>76.0</ele></trkpt><trkpt lat="40.85658" lon="-73.92456"><ele>74.0</ele></trkpt><trkpt lat="40.85159" lon="-73.92809"><ele>83.0</ele></trkpt><trkpt lat="40.84163" lon="-73.93547"><ele>79.0</ele></trkpt><trkpt lat="40.84129" lon="-73.93556"><ele>78.0</ele></trkpt><trkpt lat="40.83996" lon="-73.93488"><ele>74.0</ele></trkpt><trkpt lat="40.83920" lon="-73.93494"><ele>72.0</ele></trkpt><trkpt lat="40.83786" lon="-73.93624"><ele>70.0</ele></trkpt><trkpt lat="40.83425" lon="-73.93793"><ele>71.0</ele></trkpt><trkpt lat="40.83291" lon="-73.93940"><ele>66.0</ele></trkpt><trkpt lat="40.83156" lon="-73.94021"><ele>63.0</ele></trkpt><trkpt lat="40.83053" lon="-73.94016"><ele>57.0</ele></trkpt><trkpt lat="40.82982" lon="-73.93855"><ele>33.0</ele></trkpt><trkpt lat="40.82874" lon="-73.93896"><ele>30.0</ele></trkpt><trkpt lat="40.82829" lon="-73.93928"><ele>30.0</ele></trkpt><trkpt lat="40.82730" lon="-73.93691"><ele>30.0</ele></trkpt><trkpt lat="40.82679" lon="-73.93761"><ele>32.0</ele></trkpt><trkpt lat="40.82650" lon="-73.93769"><ele>32.0</ele></trkpt><trkpt lat="40.82646" lon="-73.93798"><ele>32.0</ele></trkpt><trkpt lat="40.82633" lon="-73.93803"><ele>32.0</ele></trkpt><trkpt lat="40.82611" lon="-73.93782"><ele>32.0</ele></trkpt><trkpt lat="40.82549" lon="-73.93652"><ele>31.0</ele></trkpt><trkpt lat="40.82487" lon="-73.93683"><ele>30.0</ele></trkpt><trkpt lat="40.82463" lon="-73.93662"><ele>30.0</ele></trkpt><trkpt lat="40.82418" lon="-73.93700"><ele>30.0</ele></trkpt><trkpt lat="40.82343" lon="-73.93735"><ele>32.0</ele></trkpt><trkpt lat="40.82306" lon="-73.93781"><ele>30.0</ele></trkpt><trkpt lat="40.82164" lon="-73.93884"><ele>33.0</ele></trkpt><trkpt lat="40.82055" lon="-73.93597"><ele>28.0</ele></trkpt><trkpt lat="40.81851" lon="-73.93733"><ele>28.0</ele></trkpt><trkpt lat="40.81780" lon="-73.93588"><ele>28.0</ele></trkpt><trkpt lat="40.81766" lon="-73.93584"><ele>28.0</ele></trkpt><trkpt lat="40.81719" lon="-73.93629"><ele>28.0</ele></trkpt><trkpt lat="40.81668" lon="-73.93508"><ele>27.0</ele></trkpt><trkpt lat="40.81645" lon="-73.93488"><ele>27.0</ele></trkpt><trkpt lat="40.81600" lon="-73.93547"><ele>27.0</ele></trkpt><trkpt lat="40.81515" lon="-73.93578"><ele>28.0</ele></trkpt><trkpt lat="40.81387" lon="-73.93651"><ele>27.0</ele></trkpt><trkpt lat="40.81278" lon="-73.93742"><ele>27.0</ele></trkpt><trkpt lat="40.81213" lon="-73.93591"><ele>28.0</ele></trkpt><trkpt lat="40.81169" lon="-73.93614"><ele>26.0</ele></trkpt><trkpt lat="40.81143" lon="-73.93606"><ele>27.0</ele></trkpt><trkpt lat="40.81069" lon="-73.93695"><ele>28.0</ele></trkpt><trkpt lat="40.81006" lon="-73.93718"><ele>28.0</ele></trkpt><trkpt lat="40.81005" lon="-73.93674"><ele>28.0</ele></trkpt><trkpt lat="40.80940" lon="-73.93566"><ele>28.0</ele></trkpt><trkpt lat="40.80814" lon="-73.93658"><ele>28.0</ele></trkpt><trkpt lat="40.80751" lon="-73.93514"><ele>28.0</ele></trkpt><trkpt lat="40.80640" lon="-73.93582"><ele>28.0</ele></trkpt><trkpt lat="40.80562" lon="-73.93454"><ele>27.0</ele></trkpt><trkpt lat="40.80464" lon="-73.93526"><ele>27.0</ele></trkpt><trkpt lat="40.80442" lon="-73.93529"><ele>27.0</ele></trkpt><trkpt lat="40.80361" lon="-73.93416"><ele>28.0</ele></trkpt><trkpt lat="40.80351" lon="-73.93315"><ele>29.0</ele></trkpt><trkpt lat="40.80274" lon="-73.93320"><ele>28.0</ele></trkpt><trkpt lat="40.80187" lon="-73.93119"><ele>27.0</ele></trkpt><trkpt lat="40.80119" lon="-73.93129"><ele>27.0</ele></trkpt><trkpt lat="40.80059" lon="-73.93180"><ele>28.0</ele></trkpt><trkpt lat="40.80010" lon="-73.93058"><ele>27.0</ele></trkpt><trkpt lat="40.79982" lon="-73.93027"><ele>27.0</ele></trkpt><trkpt lat="40.79823" lon="-73.92967"><ele>27.0</ele></trkpt><trkpt lat="40.79729" lon="-73.92955"><ele>28.0</ele></trkpt><trkpt lat="40.79708" lon="-73.92991"><ele>27.0</ele></trkpt><trkpt lat="40.79746" lon="-73.93121"><ele>27.0</ele></trkpt><trkpt lat="40.79507" lon="-73.93301"><ele>28.0</ele></trkpt><trkpt lat="40.79366" lon="-73.93388"><ele>28.0</ele></trkpt><trkpt lat="40.79364" lon="-73.93426"><ele>27.0</ele></trkpt><trkpt lat="40.79319" lon="-73.93450"><ele>28.0</ele></trkpt><trkpt lat="40.79296" lon="-73.93447"><ele>28.0</ele></trkpt><trkpt lat="40.79205" lon="-73.93540"><ele>28.0</ele></trkpt><trkpt lat="40.79178" lon="-73.93511"><ele>30.0</ele></trkpt><trkpt lat="40.79193" lon="-73.93488"><ele>31.0</ele></trkpt><trkpt lat="40.79108" lon="-73.93590"><ele>28.0</ele></trkpt><trkpt lat="40.78942" lon="-73.93712"><ele>28.0</ele></trkpt><trkpt lat="40.78717" lon="-73.93817"><ele>28.0</ele></trkpt><trkpt lat="40.78544" lon="-73.93971"><ele>28.0</ele></trkpt><trkpt lat="40.78385" lon="-73.94263"><ele>28.0</ele></trkpt><trkpt lat="40.78340" lon="-73.94324"><ele>28.0</ele></trkpt><trkpt lat="40.78289" lon="-73.94361"><ele>28.0</ele></trkpt><trkpt lat="40.78176" lon="-73.94392"><ele>28.0</ele></trkpt><trkpt lat="40.78113" lon="-73.94391"><ele>28.0</ele></trkpt><trkpt lat="40.77992" lon="-73.94356"><ele>28.0</ele></trkpt><trkpt lat="40.77896" lon="-73.94302"><ele>28.0</ele></trkpt><trkpt lat="40.77721" lon="-73.94238"><ele>28.0</ele></trkpt><trkpt lat="40.77700" lon="-73.94213"><ele>27.0</ele></trkpt><trkpt lat="40.77652" lon="-73.94207"><ele>29.0</ele></trkpt><trkpt lat="40.77619" lon="-73.94210"><ele>31.0</ele></trkpt><trkpt lat="40.77585" lon="-73.94246"><ele>32.0</ele></trkpt><trkpt lat="40.77476" lon="-73.94297"><ele>34.0</ele></trkpt><trkpt lat="40.77272" lon="-73.94482"><ele>37.0</ele></trkpt><trkpt lat="40.77158" lon="-73.94638"><ele>37.0</ele></trkpt><trkpt lat="40.77134" lon="-73.94640"><ele>36.0</ele></trkpt><trkpt lat="40.76891" lon="-73.94865"><ele>28.0</ele></trkpt><trkpt lat="40.76951" lon="-73.94824"><ele>30.0</ele></trkpt><trkpt lat="40.77002" lon="-73.94935"><ele>32.0</ele></trkpt><trkpt lat="40.76888" lon="-73.95046"><ele>32.0</ele></trkpt><trkpt lat="40.76948" lon="-73.95122"><ele>33.0</ele></trkpt><trkpt lat="40.76961" lon="-73.95157"><ele>33.0</ele></trkpt><trkpt lat="40.76839" lon="-73.95258"><ele>34.0</ele></trkpt><trkpt lat="40.76789" lon="-73.95333"><ele>32.0</ele></trkpt><trkpt lat="40.76754" lon="-73.95337"><ele>33.0</ele></trkpt><trkpt lat="40.76735" lon="-73.95364"><ele>34.0</ele></trkpt><trkpt lat="40.76631" lon="-73.95420"><ele>36.0</ele></trkpt><trkpt lat="40.76600" lon="-73.95392"><ele>36.0</ele></trkpt><trkpt lat="40.76597" lon="-73.95358"><ele>35.0</ele></trkpt><trkpt lat="40.76533" lon="-73.95245"><ele>31.0</ele></trkpt><trkpt lat="40.76519" lon="-73.95189"><ele>33.0</ele></trkpt><trkpt lat="40.76490" lon="-73.95202"><ele>34.0</ele></trkpt><trkpt lat="40.76257" lon="-73.95413"><ele>28.0</ele></trkpt><trkpt lat="40.76010" lon="-73.95681"><ele>28.0</ele></trkpt><trkpt lat="40.75990" lon="-73.95745"><ele>28.0</ele></trkpt><trkpt lat="40.75898" lon="-73.95834"><ele>37.0</ele></trkpt><trkpt lat="40.75909" lon="-73.95909"><ele>35.0</ele></trkpt><trkpt lat="40.75838" lon="-73.96009"><ele>39.0</ele></trkpt><trkpt lat="40.75732" lon="-73.96084"><ele>40.0</ele></trkpt><trkpt lat="40.75714" lon="-73.96119"><ele>40.0</ele></trkpt><trkpt lat="40.75636" lon="-73.96121"><ele>37.0</ele></trkpt><trkpt lat="40.75607" lon="-73.96153"><ele>35.0</ele></trkpt><trkpt lat="40.75601" lon="-73.96179"><ele>34.0</ele></trkpt><trkpt lat="40.75483" lon="-73.96221"><ele>31.0</ele></trkpt><trkpt lat="40.75475" lon="-73.96255"><ele>30.0</ele></trkpt><trkpt lat="40.75552" lon="-73.96374"><ele>32.0</ele></trkpt><trkpt lat="40.75596" lon="-73.96468"><ele>34.0</ele></trkpt><trkpt lat="40.75592" lon="-73.96479"><ele>34.0</ele></trkpt><trkpt lat="40.75530" lon="-73.96509"><ele>37.0</ele></trkpt><trkpt lat="40.75494" lon="-73.96544"><ele>38.0</ele></trkpt><trkpt lat="40.75491" lon="-73.96569"><ele>38.0</ele></trkpt><trkpt lat="40.75466" lon="-73.96569"><ele>38.0</ele></trkpt><trkpt lat="40.75381" lon="-73.96618"><ele>36.0</ele></trkpt><trkpt lat="40.75356" lon="-73.96665"><ele>35.0</ele></trkpt><trkpt lat="40.75240" lon="-73.96687"><ele>32.0</ele></trkpt><trkpt lat="40.75234" lon="-73.96701"><ele>32.0</ele></trkpt><trkpt lat="40.75186" lon="-73.96707"><ele>33.0</ele></trkpt><trkpt lat="40.75120" lon="-73.96750"><ele>35.0</ele></trkpt><trkpt lat="40.75039" lon="-73.96837"><ele>37.0</ele></trkpt><trkpt lat="40.74916" lon="-73.96927"><ele>38.0</ele></trkpt><trkpt lat="40.74903" lon="-73.96952"><ele>38.0</ele></trkpt><trkpt lat="40.74805" lon="-73.97002"><ele>36.0</ele></trkpt><trkpt lat="40.74703" lon="-73.97106"><ele>35.0</ele></trkpt><trkpt lat="40.74630" lon="-73.97152"><ele>33.0</ele></trkpt><trkpt lat="40.74577" lon="-73.97054"><ele>30.0</ele></trkpt><trkpt lat="40.74529" lon="-73.97090"><ele>29.0</ele></trkpt><trkpt lat="40.74513" lon="-73.97044"><ele>28.0</ele></trkpt><trkpt lat="40.74500" lon="-73.97040"><ele>28.0</ele></trkpt><trkpt lat="40.74400" lon="-73.97130"><ele>27.0</ele></trkpt><trkpt lat="40.74347" lon="-73.97151"><ele>28.0</ele></trkpt><trkpt lat="40.74313" lon="-73.97193"><ele>27.0</ele></trkpt><trkpt lat="40.74272" lon="-73.97210"><ele>27.0</ele></trkpt><trkpt lat="40.74265" lon="-73.97231"><ele>27.0</ele></trkpt><trkpt lat="40.74225" lon="-73.97198"><ele>27.0</ele></trkpt><trkpt lat="40.74074" lon="-73.97232"><ele>26.0</ele></trkpt><trkpt lat="40.74056" lon="-73.97265"><ele>27.0</ele></trkpt><trkpt lat="40.73943" lon="-73.97264"><ele>26.0</ele></trkpt><trkpt lat="40.73900" lon="-73.97282"><ele>27.0</ele></trkpt><trkpt lat="40.73721" lon="-73.97427"><ele>27.0</ele></trkpt><trkpt lat="40.73556" lon="-73.97463"><ele>27.0</ele></trkpt><trkpt lat="40.73443" lon="-73.97462"><ele>27.0</ele></trkpt><trkpt lat="40.73273" lon="-73.97406"><ele>27.0</ele></trkpt><trkpt lat="40.73233" lon="-73.97442"><ele>26.0</ele></trkpt><trkpt lat="40.73092" lon="-73.97405"><ele>26.0</ele></trkpt><trkpt lat="40.72987" lon="-73.97482"><ele>27.0</ele></trkpt><trkpt lat="40.72954" lon="-73.97474"><ele>26.0</ele></trkpt><trkpt lat="40.72865" lon="-73.97557"><ele>27.0</ele></trkpt><trkpt lat="40.72786" lon="-73.97605"><ele>26.0</ele></trkpt><trkpt lat="40.72767" lon="-73.97594"><ele>26.0</ele></trkpt><trkpt lat="40.72756" lon="-73.97536"><ele>27.0</ele></trkpt><trkpt lat="40.72689" lon="-73.97446"><ele>27.0</ele></trkpt><trkpt lat="40.72669" lon="-73.97376"><ele>27.0</ele></trkpt><trkpt lat="40.72590" lon="-73.97422"><ele>27.0</ele></trkpt><trkpt lat="40.72565" lon="-73.97320"><ele>26.0</ele></trkpt><trkpt lat="40.72545" lon="-73.97290"><ele>26.0</ele></trkpt><trkpt lat="40.72505" lon="-73.97298"><ele>26.0</ele></trkpt><trkpt lat="40.72429" lon="-73.97345"><ele>26.0</ele></trkpt><trkpt lat="40.72451" lon="-73.97327"><ele>27.0</ele></trkpt><trkpt lat="40.72434" lon="-73.97338"><ele>29.0</ele></trkpt><trkpt lat="40.72424" lon="-73.97299"><ele>30.0</ele></trkpt><trkpt lat="40.72450" lon="-73.97283"><ele>30.0</ele></trkpt><trkpt lat="40.72406" lon="-73.97294"><ele>28.0</ele></trkpt><trkpt lat="40.72386" lon="-73.97250"><ele>26.0</ele></trkpt><trkpt lat="40.72355" lon="-73.97236"><ele>26.0</ele></trkpt><trkpt lat="40.72110" lon="-73.97295"><ele>26.0</ele></trkpt><trkpt lat="40.72042" lon="-73.97353"><ele>27.0</ele></trkpt><trkpt lat="40.72043" lon="-73.97397"><ele>27.0</ele></trkpt><trkpt lat="40.72025" lon="-73.97428"><ele>27.0</ele></trkpt><trkpt lat="40.71899" lon="-73.97466"><ele>29.0</ele></trkpt><trkpt lat="40.71869" lon="-73.97525"><ele>31.0</ele></trkpt><trkpt lat="40.71709" lon="-73.97565"><ele>27.0</ele></trkpt><trkpt lat="40.71522" lon="-73.97658"><ele>26.0</ele></trkpt><trkpt lat="40.71472" lon="-73.97669"><ele>26.0</ele></trkpt><trkpt lat="40.71388" lon="-73.97734"><ele>26.0</ele></trkpt><trkpt lat="40.71237" lon="-73.97815"><ele>27.0</ele></trkpt><trkpt lat="40.71213" lon="-73.98053"><ele>31.0</ele></trkpt><trkpt lat="40.71177" lon="-73.98067"><ele>30.0</ele></trkpt><trkpt lat="40.71113" lon="-73.98063"><ele>29.0</ele></trkpt><trkpt lat="40.71101" lon="-73.98080"><ele>28.0</ele></trkpt><trkpt lat="40.71079" lon="-73.98452"><ele>27.0</ele></trkpt><trkpt lat="40.71055" lon="-73.98484"><ele>28.0</ele></trkpt><trkpt lat="40.71060" lon="-73.98601"><ele>28.0</ele></trkpt><trkpt lat="40.71049" lon="-73.98744"><ele>27.0</ele></trkpt><trkpt lat="40.70994" lon="-73.98878"><ele>27.0</ele></trkpt><trkpt lat="40.70972" lon="-73.98980"><ele>27.0</ele></trkpt><trkpt lat="40.70969" lon="-73.99069"><ele>27.0</ele></trkpt><trkpt lat="40.70943" lon="-73.99122"><ele>27.0</ele></trkpt><trkpt lat="40.70926" lon="-73.99225"><ele>27.0</ele></trkpt><trkpt lat="40.70918" lon="-73.99434"><ele>27.0</ele></trkpt><trkpt lat="40.70928" lon="-73.99465"><ele>27.0</ele></trkpt><trkpt lat="40.70900" lon="-73.99538"><ele>27.0</ele></trkpt><trkpt lat="40.70891" lon="-73.99619"><ele>27.0</ele></trkpt><trkpt lat="40.70923" lon="-73.99673"><ele>27.0</ele></trkpt><trkpt lat="40.70921" lon="-73.99708"><ele>27.0</ele></trkpt><trkpt lat="40.70935" lon="-73.99743"><ele>27.0</ele></trkpt><trkpt lat="40.70887" lon="-73.99814"><ele>27.0</ele></trkpt><trkpt lat="40.70852" lon="-73.99900"><ele>27.0</ele></trkpt><trkpt lat="40.70719" lon="-74.00076"><ele>27.0</ele></trkpt><trkpt lat="40.70713" lon="-74.00125"><ele>27.0</ele></trkpt><trkpt lat="40.70726" lon="-74.00191"><ele>27.0</ele></trkpt><trkpt lat="40.70603" lon="-74.00276"><ele>28.0</ele></trkpt><trkpt lat="40.70195" lon="-74.00942"><ele>27.0</ele></trkpt><trkpt lat="40.70172" lon="-74.01009"><ele>27.0</ele></trkpt><trkpt lat="40.70151" lon="-74.01141"><ele>28.0</ele></trkpt><trkpt lat="40.70182" lon="-74.01225"><ele>27.0</ele></trkpt><trkpt lat="40.70180" lon="-74.01264"><ele>27.0</ele></trkpt><trkpt lat="40.70166" lon="-74.01285"><ele>28.0</ele></trkpt><trkpt lat="40.70215" lon="-74.01347"><ele>28.0</ele></trkpt><trkpt lat="40.70219" lon="-74.01393"><ele>28.0</ele></trkpt><trkpt lat="40.70236" lon="-74.01430"><ele>28.0</ele></trkpt><trkpt lat="40.70166" lon="-74.01483"><ele>28.0</ele></trkpt><trkpt lat="40.70183" lon="-74.01481"><ele>28.0</ele></trkpt><trkpt lat="40.70142" lon="-74.01553"><ele>28.0</ele></trkpt><trkpt lat="40.70189" lon="-74.01625"><ele>28.0</ele></trkpt><trkpt lat="40.70143" lon="-74.01550"><ele>28.0</ele></trkpt><trkpt lat="40.70185" lon="-74.01477"><ele>28.0</ele></trkpt><trkpt lat="40.70238" lon="-74.01429"><ele>28.0</ele></trkpt><trkpt lat="40.70216" lon="-74.01412"><ele>28.0</ele></trkpt><trkpt lat="40.70212" lon="-74.01330"><ele>28.0</ele></trkpt><trkpt lat="40.70167" lon="-74.01291"><ele>27.0</ele></trkpt><trkpt lat="40.70144" lon="-74.01216"><ele>27.0</ele></trkpt><trkpt lat="40.70158" lon="-74.01185"><ele>27.0</ele></trkpt><trkpt lat="40.70187" lon="-74.01168"><ele>27.0</ele></trkpt><trkpt lat="40.70170" lon="-74.01058"><ele>27.0</ele></trkpt><trkpt lat="40.70199" lon="-74.00946"><ele>27.0</ele></trkpt><trkpt lat="40.70289" lon="-74.00789"><ele>27.0</ele></trkpt><trkpt lat="40.70346" lon="-74.00738"><ele>27.0</ele></trkpt><trkpt lat="40.70342" lon="-74.00669"><ele>27.0</ele></trkpt><trkpt lat="40.70375" lon="-74.00600"><ele>27.0</ele></trkpt><trkpt lat="40.70468" lon="-74.00515"><ele>27.0</ele></trkpt><trkpt lat="40.70513" lon="-74.00434"><ele>27.0</ele></trkpt><trkpt lat="40.70605" lon="-74.00313"><ele>27.0</ele></trkpt><trkpt lat="40.70654" lon="-74.00196"><ele>27.0</ele></trkpt><trkpt lat="40.70682" lon="-74.00162"><ele>27.0</ele></trkpt><trkpt lat="40.70696" lon="-74.00097"><ele>27.0</ele></trkpt><trkpt lat="40.70856" lon="-73.99953"><ele>27.0</ele></trkpt><trkpt lat="40.70949" lon="-73.99771"><ele>27.0</ele></trkpt><trkpt lat="40.70938" lon="-73.99698"><ele>27.0</ele></trkpt><trkpt lat="40.70946" lon="-73.99664"><ele>27.0</ele></trkpt><trkpt lat="40.70929" lon="-73.99650"><ele>27.0</ele></trkpt><trkpt lat="40.70923" lon="-73.99602"><ele>27.0</ele></trkpt><trkpt lat="40.70906" lon="-73.99050"><ele>28.0</ele></trkpt><trkpt lat="40.70954" lon="-73.98949"><ele>28.0</ele></trkpt><trkpt lat="40.70967" lon="-73.98879"><ele>28.0</ele></trkpt><trkpt lat="40.71010" lon="-73.98848"><ele>27.0</ele></trkpt><trkpt lat="40.71094" lon="-73.98741"><ele>27.0</ele></trkpt><trkpt lat="40.71099" lon="-73.98705"><ele>27.0</ele></trkpt><trkpt lat="40.71080" lon="-73.98622"><ele>28.0</ele></trkpt><trkpt lat="40.71103" lon="-73.98584"><ele>28.0</ele></trkpt><trkpt lat="40.71105" lon="-73.98523"><ele>28.0</ele></trkpt><trkpt lat="40.71076" lon="-73.98360"><ele>28.0</ele></trkpt><trkpt lat="40.71086" lon="-73.98239"><ele>28.0</ele></trkpt><trkpt lat="40.71095" lon="-73.98223"><ele>28.0</ele></trkpt><trkpt lat="40.71097" lon="-73.98088"><ele>28.0</ele></trkpt><trkpt lat="40.71159" lon="-73.98060"><ele>29.0</ele></trkpt><trkpt lat="40.71216" lon="-73.98058"><ele>31.0</ele></trkpt><trkpt lat="40.71247" lon="-73.97816"><ele>29.0</ele></trkpt><trkpt lat="40.71389" lon="-73.97759"><ele>28.0</ele></trkpt><trkpt lat="40.71488" lon="-73.97673"><ele>27.0</ele></trkpt><trkpt lat="40.71534" lon="-73.97664"><ele>27.0</ele></trkpt><trkpt lat="40.71650" lon="-73.97597"><ele>27.0</ele></trkpt><trkpt lat="40.71746" lon="-73.97569"><ele>28.0</ele></trkpt><trkpt lat="40.71803" lon="-73.97536"><ele>28.0</ele></trkpt><trkpt lat="40.71867" lon="-73.97530"><ele>31.0</ele></trkpt><trkpt lat="40.71904" lon="-73.97469"><ele>31.0</ele></trkpt><trkpt lat="40.72019" lon="-73.97443"><ele>27.0</ele></trkpt><trkpt lat="40.72048" lon="-73.97399"><ele>27.0</ele></trkpt><trkpt lat="40.72049" lon="-73.97355"><ele>27.0</ele></trkpt><trkpt lat="40.72109" lon="-73.97301"><ele>27.0</ele></trkpt><trkpt lat="40.72430" lon="-73.97222"><ele>27.0</ele></trkpt><trkpt lat="40.72405" lon="-73.97232"><ele>27.0</ele></trkpt><trkpt lat="40.72391" lon="-73.97272"><ele>27.0</ele></trkpt><trkpt lat="40.72416" lon="-73.97302"><ele>27.0</ele></trkpt><trkpt lat="40.72449" lon="-73.97285"><ele>27.0</ele></trkpt><trkpt lat="40.72420" lon="-73.97298"><ele>29.0</ele></trkpt><trkpt lat="40.72431" lon="-73.97334"><ele>31.0</ele></trkpt><trkpt lat="40.72454" lon="-73.97323"><ele>32.0</ele></trkpt><trkpt lat="40.72424" lon="-73.97340"><ele>30.0</ele></trkpt><trkpt lat="40.72479" lon="-73.97317"><ele>27.0</ele></trkpt><trkpt lat="40.72503" lon="-73.97371"><ele>27.0</ele></trkpt><trkpt lat="40.72555" lon="-73.97383"><ele>28.0</ele></trkpt><trkpt lat="40.72579" lon="-73.97431"><ele>28.0</ele></trkpt><trkpt lat="40.72677" lon="-73.97381"><ele>27.0</ele></trkpt><trkpt lat="40.72779" lon="-73.97606"><ele>27.0</ele></trkpt><trkpt lat="40.73055" lon="-73.97412"><ele>27.0</ele></trkpt><trkpt lat="40.73070" lon="-73.97430"><ele>27.0</ele></trkpt><trkpt lat="40.73101" lon="-73.97416"><ele>27.0</ele></trkpt><trkpt lat="40.73246" lon="-73.97450"><ele>27.0</ele></trkpt><trkpt lat="40.73269" lon="-73.97405"><ele>27.0</ele></trkpt><trkpt lat="40.73301" lon="-73.97405"><ele>27.0</ele></trkpt><trkpt lat="40.73404" lon="-73.97442"><ele>28.0</ele></trkpt><trkpt lat="40.73565" lon="-73.97473"><ele>28.0</ele></trkpt><trkpt lat="40.73644" lon="-73.97454"><ele>28.0</ele></trkpt><trkpt lat="40.73716" lon="-73.97416"><ele>27.0</ele></trkpt><trkpt lat="40.73736" lon="-73.97432"><ele>27.0</ele></trkpt><trkpt lat="40.73745" lon="-73.97482"><ele>27.0</ele></trkpt><trkpt lat="40.73774" lon="-73.97455"><ele>27.0</ele></trkpt><trkpt lat="40.73777" lon="-73.97413"><ele>27.0</ele></trkpt><trkpt lat="40.73831" lon="-73.97382"><ele>27.0</ele></trkpt><trkpt lat="40.73872" lon="-73.97326"><ele>27.0</ele></trkpt><trkpt lat="40.73952" lon="-73.97274"><ele>27.0</ele></trkpt><trkpt lat="40.74197" lon="-73.97214"><ele>27.0</ele></trkpt><trkpt lat="40.74214" lon="-73.97275"><ele>27.0</ele></trkpt><trkpt lat="40.74232" lon="-73.97284"><ele>27.0</ele></trkpt><trkpt lat="40.74266" lon="-73.97272"><ele>27.0</ele></trkpt><trkpt lat="40.74351" lon="-73.97138"><ele>27.0</ele></trkpt><trkpt lat="40.74434" lon="-73.97115"><ele>27.0</ele></trkpt><trkpt lat="40.74460" lon="-73.97071"><ele>27.0</ele></trkpt><trkpt lat="40.74493" lon="-73.97048"><ele>27.0</ele></trkpt><trkpt lat="40.74509" lon="-73.97142"><ele>26.0</ele></trkpt><trkpt lat="40.74571" lon="-73.97054"><ele>28.0</ele></trkpt><trkpt lat="40.74585" lon="-73.97062"><ele>28.0</ele></trkpt><trkpt lat="40.74620" lon="-73.97158"><ele>29.0</ele></trkpt><trkpt lat="40.74722" lon="-73.97120"><ele>32.0</ele></trkpt><trkpt lat="40.74829" lon="-73.97017"><ele>34.0</ele></trkpt><trkpt lat="40.74885" lon="-73.96999"><ele>34.0</ele></trkpt><trkpt lat="40.75001" lon="-73.96895"><ele>37.0</ele></trkpt><trkpt lat="40.75157" lon="-73.96794"><ele>35.0</ele></trkpt><trkpt lat="40.75198" lon="-73.96731"><ele>34.0</ele></trkpt><trkpt lat="40.75285" lon="-73.96672"><ele>31.0</ele></trkpt><trkpt lat="40.75349" lon="-73.96679"><ele>31.0</ele></trkpt><trkpt lat="40.75412" lon="-73.96631"><ele>35.0</ele></trkpt><trkpt lat="40.75461" lon="-73.96561"><ele>37.0</ele></trkpt><trkpt lat="40.75546" lon="-73.96515"><ele>36.0</ele></trkpt><trkpt lat="40.75555" lon="-73.96409"><ele>33.0</ele></trkpt><trkpt lat="40.75543" lon="-73.96365"><ele>32.0</ele></trkpt><trkpt lat="40.75491" lon="-73.96286"><ele>29.0</ele></trkpt><trkpt lat="40.75503" lon="-73.96242"><ele>28.0</ele></trkpt><trkpt lat="40.75548" lon="-73.96210"><ele>30.0</ele></trkpt><trkpt lat="40.75545" lon="-73.96193"><ele>30.0</ele></trkpt><trkpt lat="40.75644" lon="-73.96150"><ele>34.0</ele></trkpt><trkpt lat="40.75686" lon="-73.96096"><ele>35.0</ele></trkpt><trkpt lat="40.75842" lon="-73.96017"><ele>38.0</ele></trkpt><trkpt lat="40.75902" lon="-73.95961"><ele>35.0</ele></trkpt><trkpt lat="40.75915" lon="-73.95941"><ele>34.0</ele></trkpt><trkpt lat="40.75894" lon="-73.95836"><ele>35.0</ele></trkpt><trkpt lat="40.75980" lon="-73.95758"><ele>32.0</ele></trkpt><trkpt lat="40.76003" lon="-73.95724"><ele>29.0</ele></trkpt><trkpt lat="40.76011" lon="-73.95682"><ele>27.0</ele></trkpt><trkpt lat="40.76355" lon="-73.95333"><ele>25.0</ele></trkpt><trkpt lat="40.76527" lon="-73.95198"><ele>29.0</ele></trkpt><trkpt lat="40.76528" lon="-73.95246"><ele>29.0</ele></trkpt><trkpt lat="40.76567" lon="-73.95317"><ele>29.0</ele></trkpt><trkpt lat="40.76576" lon="-73.95373"><ele>30.0</ele></trkpt><trkpt lat="40.76607" lon="-73.95421"><ele>33.0</ele></trkpt><trkpt lat="40.76699" lon="-73.95356"><ele>33.0</ele></trkpt><trkpt lat="40.76804" lon="-73.95317"><ele>30.0</ele></trkpt><trkpt lat="40.76847" lon="-73.95267"><ele>29.0</ele></trkpt><trkpt lat="40.76931" lon="-73.95215"><ele>30.0</ele></trkpt><trkpt lat="40.76937" lon="-73.95195"><ele>30.0</ele></trkpt><trkpt lat="40.76901" lon="-73.95054"><ele>29.0</ele></trkpt><trkpt lat="40.76942" lon="-73.94999"><ele>28.0</ele></trkpt><trkpt lat="40.76995" lon="-73.94961"><ele>28.0</ele></trkpt><trkpt lat="40.76998" lon="-73.94943"><ele>28.0</ele></trkpt><trkpt lat="40.76989" lon="-73.94892"><ele>28.0</ele></trkpt><trkpt lat="40.76949" lon="-73.94821"><ele>30.0</ele></trkpt><trkpt lat="40.76886" lon="-73.94869"><ele>27.0</ele></trkpt><trkpt lat="40.77067" lon="-73.94721"><ele>25.0</ele></trkpt><trkpt lat="40.77140" lon="-73.94641"><ele>31.0</ele></trkpt><trkpt lat="40.77156" lon="-73.94645"><ele>32.0</ele></trkpt><trkpt lat="40.77285" lon="-73.94481"><ele>33.0</ele></trkpt><trkpt lat="40.77477" lon="-73.94306"><ele>33.0</ele></trkpt><trkpt lat="40.77638" lon="-73.94212"><ele>29.0</ele></trkpt><trkpt lat="40.77698" lon="-73.94224"><ele>27.0</ele></trkpt><trkpt lat="40.77728" lon="-73.94252"><ele>26.0</ele></trkpt><trkpt lat="40.77879" lon="-73.94310"><ele>25.0</ele></trkpt><trkpt lat="40.77925" lon="-73.94336"><ele>25.0</ele></trkpt><trkpt lat="40.77964" lon="-73.94381"><ele>25.0</ele></trkpt><trkpt lat="40.78159" lon="-73.94398"><ele>25.0</ele></trkpt><trkpt lat="40.78297" lon="-73.94362"><ele>25.0</ele></trkpt><trkpt lat="40.78346" lon="-73.94323"><ele>25.0</ele></trkpt><trkpt lat="40.78402" lon="-73.94246"><ele>25.0</ele></trkpt><trkpt lat="40.78546" lon="-73.93976"><ele>25.0</ele></trkpt><trkpt lat="40.78721" lon="-73.93821"><ele>25.0</ele></trkpt><trkpt lat="40.78944" lon="-73.93717"><ele>25.0</ele></trkpt><trkpt lat="40.79112" lon="-73.93591"><ele>25.0</ele></trkpt><trkpt lat="40.79195" lon="-73.93492"><ele>25.0</ele></trkpt><trkpt lat="40.79180" lon="-73.93515"><ele>27.0</ele></trkpt><trkpt lat="40.79207" lon="-73.93544"><ele>28.0</ele></trkpt><trkpt lat="40.79242" lon="-73.93517"><ele>27.0</ele></trkpt><trkpt lat="40.79255" lon="-73.93483"><ele>26.0</ele></trkpt><trkpt lat="40.79306" lon="-73.93452"><ele>25.0</ele></trkpt><trkpt lat="40.79328" lon="-73.93494"><ele>25.0</ele></trkpt><trkpt lat="40.79318" lon="-73.93459"><ele>24.0</ele></trkpt><trkpt lat="40.79330" lon="-73.93492"><ele>24.0</ele></trkpt><trkpt lat="40.79319" lon="-73.93459"><ele>24.0</ele></trkpt><trkpt lat="40.79383" lon="-73.93397"><ele>24.0</ele></trkpt><trkpt lat="40.79757" lon="-73.93127"><ele>24.0</ele></trkpt><trkpt lat="40.79762" lon="-73.93079"><ele>24.0</ele></trkpt><trkpt lat="40.79733" lon="-73.93038"><ele>24.0</ele></trkpt><trkpt lat="40.79718" lon="-73.92982"><ele>23.0</ele></trkpt><trkpt lat="40.79730" lon="-73.92960"><ele>23.0</ele></trkpt><trkpt lat="40.79843" lon="-73.92981"><ele>23.0</ele></trkpt><trkpt lat="40.79980" lon="-73.93036"><ele>23.0</ele></trkpt><trkpt lat="40.80068" lon="-73.93188"><ele>24.0</ele></trkpt><trkpt lat="40.80145" lon="-73.93145"><ele>24.0</ele></trkpt><trkpt lat="40.80165" lon="-73.93161"><ele>24.0</ele></trkpt><trkpt lat="40.80194" lon="-73.93153"><ele>24.0</ele></trkpt><trkpt lat="40.80284" lon="-73.93335"><ele>25.0</ele></trkpt><trkpt lat="40.80320" lon="-73.93345"><ele>25.0</ele></trkpt><trkpt lat="40.80410" lon="-73.93288"><ele>25.0</ele></trkpt><trkpt lat="40.80495" lon="-73.93467"><ele>25.0</ele></trkpt><trkpt lat="40.80521" lon="-73.93487"><ele>24.0</ele></trkpt><trkpt lat="40.80565" lon="-73.93464"><ele>24.0</ele></trkpt><trkpt lat="40.80635" lon="-73.93591"><ele>24.0</ele></trkpt><trkpt lat="40.80676" lon="-73.93563"><ele>24.0</ele></trkpt><trkpt lat="40.80677" lon="-73.93550"><ele>24.0</ele></trkpt><trkpt lat="40.80709" lon="-73.93593"><ele>24.0</ele></trkpt><trkpt lat="40.80751" lon="-73.93705"><ele>25.0</ele></trkpt><trkpt lat="40.80825" lon="-73.93661"><ele>25.0</ele></trkpt><trkpt lat="40.80843" lon="-73.93684"><ele>25.0</ele></trkpt><trkpt lat="40.80873" lon="-73.93658"><ele>25.0</ele></trkpt><trkpt lat="40.80902" lon="-73.93652"><ele>25.0</ele></trkpt><trkpt lat="40.80948" lon="-73.93781"><ele>25.0</ele></trkpt><trkpt lat="40.81186" lon="-73.93630"><ele>23.0</ele></trkpt><trkpt lat="40.81223" lon="-73.93590"><ele>23.0</ele></trkpt><trkpt lat="40.81243" lon="-73.93665"><ele>23.0</ele></trkpt><trkpt lat="40.81275" lon="-73.93741"><ele>23.0</ele></trkpt><trkpt lat="40.81287" lon="-73.93744"><ele>23.0</ele></trkpt><trkpt lat="40.81415" lon="-73.93670"><ele>23.0</ele></trkpt><trkpt lat="40.81621" lon="-73.93515"><ele>22.0</ele></trkpt><trkpt lat="40.81670" lon="-73.93532"><ele>22.0</ele></trkpt><trkpt lat="40.81706" lon="-73.93640"><ele>22.0</ele></trkpt><trkpt lat="40.81758" lon="-73.93622"><ele>22.0</ele></trkpt><trkpt lat="40.81774" lon="-73.93632"><ele>22.0</ele></trkpt><trkpt lat="40.81843" lon="-73.93744"><ele>23.0</ele></trkpt><trkpt lat="40.81895" lon="-73.93723"><ele>23.0</ele></trkpt><trkpt lat="40.82031" lon="-73.93623"><ele>22.0</ele></trkpt><trkpt lat="40.82170" lon="-73.93937"><ele>27.0</ele></trkpt><trkpt lat="40.82222" lon="-73.93885"><ele>27.0</ele></trkpt><trkpt lat="40.82313" lon="-73.93829"><ele>27.0</ele></trkpt><trkpt lat="40.82342" lon="-73.93778"><ele>26.0</ele></trkpt><trkpt lat="40.82510" lon="-73.93688"><ele>24.0</ele></trkpt><trkpt lat="40.82546" lon="-73.93642"><ele>24.0</ele></trkpt><trkpt lat="40.82612" lon="-73.93796"><ele>27.0</ele></trkpt><trkpt lat="40.82613" lon="-73.93831"><ele>27.0</ele></trkpt><trkpt lat="40.82640" lon="-73.93857"><ele>26.0</ele></trkpt><trkpt lat="40.82653" lon="-73.93921"><ele>25.0</ele></trkpt><trkpt lat="40.82673" lon="-73.93926"><ele>24.0</ele></trkpt><trkpt lat="40.82713" lon="-73.93879"><ele>24.0</ele></trkpt><trkpt lat="40.82786" lon="-73.93829"><ele>24.0</ele></trkpt><trkpt lat="40.82800" lon="-73.93836"><ele>24.0</ele></trkpt><trkpt lat="40.82821" lon="-73.93925"><ele>24.0</ele></trkpt><trkpt lat="40.82849" lon="-73.93948"><ele>24.0</ele></trkpt><trkpt lat="40.82948" lon="-73.93907"><ele>25.0</ele></trkpt><trkpt lat="40.82984" lon="-73.93867"><ele>24.0</ele></trkpt><trkpt lat="40.83042" lon="-73.93955"><ele>28.0</ele></trkpt><trkpt lat="40.83026" lon="-73.93957"><ele>30.0</ele></trkpt><trkpt lat="40.83045" lon="-73.93965"><ele>35.0</ele></trkpt><trkpt lat="40.83034" lon="-73.93983"><ele>44.0</ele></trkpt><trkpt lat="40.83053" lon="-73.94030"><ele>48.0</ele></trkpt><trkpt lat="40.83140" lon="-73.94034"><ele>53.0</ele></trkpt><trkpt lat="40.83291" lon="-73.93958"><ele>57.0</ele></trkpt><trkpt lat="40.83431" lon="-73.93797"><ele>62.0</ele></trkpt><trkpt lat="40.83780" lon="-73.93638"><ele>64.0</ele></trkpt><trkpt lat="40.83922" lon="-73.93503"><ele>65.0</ele></trkpt><trkpt lat="40.83990" lon="-73.93499"><ele>66.0</ele></trkpt><trkpt lat="40.84129" lon="-73.93566"><ele>68.0</ele></trkpt><trkpt lat="40.84173" lon="-73.93550"><ele>69.0</ele></trkpt><trkpt lat="40.84661" lon="-73.93184"><ele>65.0</ele></trkpt><trkpt lat="40.84826" lon="-73.93069"><ele>65.0</ele></trkpt><trkpt lat="40.84862" lon="-73.93057"><ele>66.0</ele></trkpt><trkpt lat="40.84913" lon="-73.93009"><ele>67.0</ele></trkpt><trkpt lat="40.84957" lon="-73.92992"><ele>68.0</ele></trkpt><trkpt lat="40.85038" lon="-73.92913"><ele>70.0</ele></trkpt><trkpt lat="40.85078" lon="-73.92903"><ele>70.0</ele></trkpt><trkpt lat="40.85111" lon="-73.92862"><ele>71.0</ele></trkpt><trkpt lat="40.85225" lon="-73.92794"><ele>74.0</ele></trkpt><trkpt lat="40.85403" lon="-73.92646"><ele>75.0</ele></trkpt><trkpt lat="40.85673" lon="-73.92458"><ele>65.0</ele></trkpt><trkpt lat="40.85712" lon="-73.92458"><ele>64.0</ele></trkpt><trkpt lat="40.85813" lon="-73.92516"><ele>66.0</ele></trkpt><trkpt lat="40.85836" lon="-73.92582"><ele>68.0</ele></trkpt><trkpt lat="40.85820" lon="-73.92633"><ele>70.0</ele></trkpt><trkpt lat="40.85716" lon="-73.92728"><ele>72.0</ele></trkpt><trkpt lat="40.85705" lon="-73.92807"><ele>74.0</ele></trkpt><trkpt lat="40.85791" lon="-73.92757"><ele>69.0</ele></trkpt><trkpt lat="40.85829" lon="-73.92708"><ele>62.0</ele></trkpt><trkpt lat="40.85887" lon="-73.92684"><ele>54.0</ele></trkpt><trkpt lat="40.86000" lon="-73.92534"><ele>39.0</ele></trkpt><trkpt lat="40.86046" lon="-73.92529"><ele>32.0</ele></trkpt><trkpt lat="40.86074" lon="-73.92503"><ele>27.0</ele></trkpt><trkpt lat="40.86147" lon="-73.92496"><ele>20.0</ele></trkpt><trkpt lat="40.86258" lon="-73.92529"><ele>20.0</ele></trkpt><trkpt lat="40.86270" lon="-73.92553"><ele>20.0</ele></trkpt><trkpt lat="40.86363" lon="-73.92612"><ele>21.0</ele></trkpt><trkpt lat="40.86410" lon="-73.92496"><ele>20.0</ele></trkpt><trkpt lat="40.86414" lon="-73.92434"><ele>20.0</ele></trkpt><trkpt lat="40.86433" lon="-73.92386"><ele>19.0</ele></trkpt><trkpt lat="40.86484" lon="-73.92315"><ele>19.0</ele></trkpt><trkpt lat="40.86486" lon="-73.92245"><ele>19.0</ele></trkpt><trkpt lat="40.86509" lon="-73.92223"><ele>19.0</ele></trkpt><trkpt lat="40.86527" lon="-73.92177"><ele>20.0</ele></trkpt><trkpt lat="40.86526" lon="-73.92099"><ele>20.0</ele></trkpt><trkpt lat="40.86571" lon="-73.92050"><ele>20.0</ele></trkpt><trkpt lat="40.86626" lon="-73.91918"><ele>20.0</ele></trkpt><trkpt lat="40.86650" lon="-73.91819"><ele>20.0</ele></trkpt><trkpt lat="40.86701" lon="-73.91730"><ele>19.0</ele></trkpt><trkpt lat="40.86841" lon="-73.91623"><ele>20.0</ele></trkpt><trkpt lat="40.86864" lon="-73.91578"><ele>21.0</ele></trkpt><trkpt lat="40.86922" lon="-73.91563"><ele>21.0</ele></trkpt><trkpt lat="40.87012" lon="-73.91468"><ele>21.0</ele></trkpt><trkpt lat="40.87046" lon="-73.91476"><ele>21.0</ele></trkpt><trkpt lat="40.87104" lon="-73.91428"><ele>22.0</ele></trkpt><trkpt lat="40.87164" lon="-73.91492"><ele>24.0</ele></trkpt><trkpt lat="40.87158" lon="-73.91528"><ele>25.0</ele></trkpt><trkpt lat="40.87181" lon="-73.91551"><ele>27.0</ele></trkpt><trkpt lat="40.87182" lon="-73.91578"><ele>29.0</ele></trkpt><trkpt lat="40.87221" lon="-73.91654"><ele>29.0</ele></trkpt><trkpt lat="40.87264" lon="-73.91790"><ele>23.0</ele></trkpt><trkpt lat="40.87303" lon="-73.91850"><ele>19.0</ele></trkpt><trkpt lat="40.87308" lon="-73.91912"><ele>18.0</ele></trkpt><trkpt lat="40.87295" lon="-73.91976"><ele>17.0</ele></trkpt><trkpt lat="40.87251" lon="-73.92017"><ele>18.0</ele></trkpt><trkpt lat="40.87247" lon="-73.92035"><ele>20.0</ele></trkpt><trkpt lat="40.87254" lon="-73.92062"><ele>22.0</ele></trkpt><trkpt lat="40.87245" lon="-73.92123"><ele>21.0</ele></trkpt><trkpt lat="40.87268" lon="-73.92168"><ele>19.0</ele></trkpt><trkpt lat="40.87258" lon="-73.92278"><ele>18.0</ele></trkpt><trkpt lat="40.87276" lon="-73.92332"><ele>18.0</ele></trkpt><trkpt lat="40.87304" lon="-73.92356"><ele>18.0</ele></trkpt><trkpt lat="40.87348" lon="-73.92364"><ele>19.0</ele></trkpt><trkpt lat="40.87389" lon="-73.92346"><ele>18.0</ele></trkpt><trkpt lat="40.87409" lon="-73.92315"><ele>17.0</ele></trkpt><trkpt lat="40.87361" lon="-73.92351"><ele>16.0</ele></trkpt><trkpt lat="40.87326" lon="-73.92357"><ele>18.0</ele></trkpt><trkpt lat="40.87335" lon="-73.92385"><ele>19.0</ele></trkpt><trkpt lat="40.87359" lon="-73.92403"><ele>20.0</ele></trkpt><trkpt lat="40.87403" lon="-73.92382"><ele>21.0</ele></trkpt><trkpt lat="40.87424" lon="-73.92351"><ele>21.0</ele></trkpt><trkpt lat="40.87497" lon="-73.92303"><ele>26.0</ele></trkpt><trkpt lat="40.87587" lon="-73.92266"><ele>25.0</ele></trkpt><trkpt lat="40.87660" lon="-73.92280"><ele>22.0</ele></trkpt><trkpt lat="40.87695" lon="-73.92358"><ele>30.0</ele></trkpt><trkpt lat="40.87689" lon="-73.92381"><ele>33.0</ele></trkpt><trkpt lat="40.87707" lon="-73.92468"><ele>32.0</ele></trkpt><trkpt lat="40.87663" lon="-73.92562"><ele>31.0</ele></trkpt><trkpt lat="40.87668" lon="-73.92648"><ele>28.0</ele></trkpt><trkpt lat="40.87656" lon="-73.92694"><ele>28.0</ele></trkpt><trkpt lat="40.87589" lon="-73.92748"><ele>30.0</ele></trkpt><trkpt lat="40.87544" lon="-73.92746"><ele>30.0</ele></trkpt><trkpt lat="40.87499" lon="-73.92769"><ele>27.0</ele></trkpt><trkpt lat="40.87381" lon="-73.92866"><ele>25.0</ele></trkpt><trkpt lat="40.87370" lon="-73.92892"><ele>25.0</ele></trkpt><trkpt lat="40.87385" lon="-73.92951"><ele>21.0</ele></trkpt><trkpt lat="40.87361" lon="-73.92971"><ele>18.0</ele></trkpt><trkpt lat="40.87350" lon="-73.93034"><ele>17.0</ele></trkpt><trkpt lat="40.87080" lon="-73.93181"><ele>16.0</ele></trkpt><trkpt lat="40.87056" lon="-73.93172"><ele>16.0</ele></trkpt><trkpt lat="40.87015" lon="-73.93121"><ele>17.0</ele></trkpt><trkpt lat="40.86875" lon="-73.93161"><ele>15.0</ele></trkpt><trkpt lat="40.86861" lon="-73.93135"><ele>15.0</ele></trkpt><trkpt lat="40.86823" lon="-73.93165"><ele>16.0</ele></trkpt><trkpt lat="40.86778" lon="-73.93161"><ele>19.0</ele></trkpt><trkpt lat="40.86740" lon="-73.93183"><ele>22.0</ele></trkpt><trkpt lat="40.86793" lon="-73.93145"><ele>26.0</ele></trkpt><trkpt lat="40.86487" lon="-73.93316"><ele>36.0</ele></trkpt><trkpt lat="40.86316" lon="-73.93378"><ele>40.0</ele></trkpt><trkpt lat="40.86113" lon="-73.93510"><ele>48.0</ele></trkpt><trkpt lat="40.86003" lon="-73.93529"><ele>51.0</ele></trkpt><trkpt lat="40.85923" lon="-73.93653"><ele>52.0</ele></trkpt><trkpt lat="40.85843" lon="-73.93726"><ele>52.0</ele></trkpt><trkpt lat="40.85811" lon="-73.93729"><ele>51.0</ele></trkpt><trkpt lat="40.85726" lon="-73.93815"><ele>48.0</ele></trkpt><trkpt lat="40.85518" lon="-73.93981"><ele>46.0</ele></trkpt><trkpt lat="40.85361" lon="-73.94060"><ele>47.0</ele></trkpt><trkpt lat="40.85235" lon="-73.94158"><ele>46.0</ele></trkpt><trkpt lat="40.85169" lon="-73.94244"><ele>44.0</ele></trkpt><trkpt lat="40.85106" lon="-73.94288"><ele>42.0</ele></trkpt><trkpt lat="40.85074" lon="-73.94350"><ele>39.0</ele></trkpt><trkpt lat="40.85078" lon="-73.94373"><ele>38.0</ele></trkpt><trkpt lat="40.85093" lon="-73.94377"><ele>37.0</ele></trkpt><trkpt lat="40.85132" lon="-73.94329"><ele>29.0</ele></trkpt><trkpt lat="40.85145" lon="-73.94330"><ele>27.0</ele></trkpt><trkpt lat="40.85151" lon="-73.94358"><ele>26.0</ele></trkpt><trkpt lat="40.85151" lon="-73.94397"><ele>24.0</ele></trkpt><trkpt lat="40.85125" lon="-73.94505"><ele>22.0</ele></trkpt><trkpt lat="40.85048" lon="-73.94578"><ele>22.0</ele></trkpt><trkpt lat="40.85017" lon="-73.94581"><ele>19.0</ele></trkpt><trkpt lat="40.85001" lon="-73.94608"><ele>17.0</ele></trkpt><trkpt lat="40.84966" lon="-73.94627"><ele>14.0</ele></trkpt><trkpt lat="40.84907" lon="-73.94644"><ele>12.0</ele></trkpt><trkpt lat="40.84753" lon="-73.94654"><ele>13.0</ele></trkpt><trkpt lat="40.84678" lon="-73.94608"><ele>13.0</ele></trkpt><trkpt lat="40.84625" lon="-73.94595"><ele>12.0</ele></trkpt><trkpt lat="40.84414" lon="-73.94600"><ele>11.0</ele></trkpt><trkpt lat="40.84309" lon="-73.94619"><ele>12.0</ele></trkpt><trkpt lat="40.84223" lon="-73.94700"><ele>14.0</ele></trkpt><trkpt lat="40.84106" lon="-73.94765"><ele>14.0</ele></trkpt><trkpt lat="40.83931" lon="-73.94827"><ele>16.0</ele></trkpt><trkpt lat="40.83881" lon="-73.94864"><ele>16.0</ele></trkpt><trkpt lat="40.83806" lon="-73.94875"><ele>16.0</ele></trkpt><trkpt lat="40.83779" lon="-73.94895"><ele>15.0</ele></trkpt><trkpt lat="40.83432" lon="-73.95000"><ele>11.0</ele></trkpt><trkpt lat="40.83338" lon="-73.95065"><ele>12.0</ele></trkpt><trkpt lat="40.83276" lon="-73.95082"><ele>12.0</ele></trkpt><trkpt lat="40.83223" lon="-73.95135"><ele>12.0</ele></trkpt><trkpt lat="40.83189" lon="-73.95137"><ele>12.0</ele></trkpt><trkpt lat="40.82874" lon="-73.95357"><ele>12.0</ele></trkpt><trkpt lat="40.82804" lon="-73.95364"><ele>12.0</ele></trkpt><trkpt lat="40.82761" lon="-73.95335"><ele>12.0</ele></trkpt><trkpt lat="40.82751" lon="-73.95302"><ele>12.0</ele></trkpt><trkpt lat="40.82739" lon="-73.95298"><ele>12.0</ele></trkpt><trkpt lat="40.82696" lon="-73.95322"><ele>12.0</ele></trkpt><trkpt lat="40.82568" lon="-73.95428"><ele>11.0</ele></trkpt><trkpt lat="40.82285" lon="-73.95714"><ele>11.0</ele></trkpt><trkpt lat="40.82251" lon="-73.95722"><ele>11.0</ele></trkpt><trkpt lat="40.82224" lon="-73.95766"><ele>11.0</ele></trkpt><trkpt lat="40.82183" lon="-73.95793"><ele>11.0</ele></trkpt><trkpt lat="40.82143" lon="-73.95880"><ele>10.0</ele></trkpt><trkpt lat="40.82022" lon="-73.95984"><ele>11.0</ele></trkpt><trkpt lat="40.81977" lon="-73.96050"><ele>11.0</ele></trkpt><trkpt lat="40.81807" lon="-73.96185"><ele>11.0</ele></trkpt><trkpt lat="40.81597" lon="-73.96388"><ele>15.0</ele></trkpt><trkpt lat="40.81348" lon="-73.96544"><ele>12.0</ele></trkpt><trkpt lat="40.81291" lon="-73.96600"><ele>12.0</ele></trkpt><trkpt lat="40.81090" lon="-73.96738"><ele>12.0</ele></trkpt><trkpt lat="40.80900" lon="-73.96852"><ele>12.0</ele></trkpt><trkpt lat="40.80407" lon="-73.97227"><ele>11.0</ele></trkpt><trkpt lat="40.79454" lon="-73.97894"><ele>12.0</ele></trkpt><trkpt lat="40.79129" lon="-73.98144"><ele>12.0</ele></trkpt><trkpt lat="40.78872" lon="-73.98307"><ele>12.0</ele></trkpt><trkpt lat="40.78171" lon="-73.98797"><ele>12.0</ele></trkpt><trkpt lat="40.78114" lon="-73.98817"><ele>12.0</ele></trkpt><trkpt lat="40.78018" lon="-73.98882"><ele>12.0</ele></trkpt><trkpt lat="40.77982" lon="-73.98880"><ele>11.0</ele></trkpt><trkpt lat="40.77917" lon="-73.98912"><ele>11.0</ele></trkpt><trkpt lat="40.77681" lon="-73.99107"><ele>12.0</ele></trkpt><trkpt lat="40.77623" lon="-73.99132"><ele>11.0</ele></trkpt><trkpt lat="40.77549" lon="-73.99239"><ele>12.0</ele></trkpt><trkpt lat="40.77501" lon="-73.99246"><ele>12.0</ele></trkpt><trkpt lat="40.77375" lon="-73.99335"><ele>11.0</ele></trkpt><trkpt lat="40.77349" lon="-73.99367"><ele>11.0</ele></trkpt><trkpt lat="40.77309" lon="-73.99370"><ele>11.0</ele></trkpt><trkpt lat="40.77226" lon="-73.99420"><ele>10.0</ele></trkpt><trkpt lat="40.77035" lon="-73.99582"><ele>11.0</ele></trkpt><trkpt lat="40.77014" lon="-73.99573"><ele>11.0</ele></trkpt><trkpt lat="40.77000" lon="-73.99532"><ele>11.0</ele></trkpt><trkpt lat="40.76975" lon="-73.99530"><ele>11.0</ele></trkpt><trkpt lat="40.76870" lon="-73.99594"><ele>11.0</ele></trkpt><trkpt lat="40.76811" lon="-73.99614"><ele>11.0</ele></trkpt><trkpt lat="40.76647" lon="-73.99728"><ele>12.0</ele></trkpt><trkpt lat="40.76355" lon="-73.99959"><ele>12.0</ele></trkpt><trkpt lat="40.76301" lon="-74.00038"><ele>11.0</ele></trkpt><trkpt lat="40.76280" lon="-74.00125"><ele>11.0</ele></trkpt><trkpt lat="40.75386" lon="-74.00745"><ele>6.0</ele></trkpt><trkpt lat="40.75364" lon="-74.00778"><ele>6.0</ele></trkpt><trkpt lat="40.75128" lon="-74.00871"><ele>2.0</ele></trkpt><trkpt lat="40.75005" lon="-74.00869"><ele>1.0</ele></trkpt><trkpt lat="40.74950" lon="-74.00896"><ele>3.0</ele></trkpt><trkpt lat="40.74912" lon="-74.00877"><ele>3.0</ele></trkpt><trkpt lat="40.74865" lon="-74.00877"><ele>2.0</ele></trkpt><trkpt lat="40.74840" lon="-74.00802"><ele>4.0</ele></trkpt><trkpt lat="40.74697" lon="-74.00800"><ele>4.0</ele></trkpt><trkpt lat="40.74637" lon="-74.00784"><ele>5.0</ele></trkpt><trkpt lat="40.74554" lon="-74.00804"><ele>1.0</ele></trkpt><trkpt lat="40.74496" lon="-74.00790"><ele>1.0</ele></trkpt><trkpt lat="40.74434" lon="-74.00853"><ele>0.0</ele></trkpt><trkpt lat="40.74378" lon="-74.00870"><ele>-2.0</ele></trkpt><trkpt lat="40.74313" lon="-74.00846"><ele>1.0</ele></trkpt><trkpt lat="40.74278" lon="-74.00862"><ele>0.0</ele></trkpt><trkpt lat="40.74270" lon="-74.00888"><ele>0.0</ele></trkpt><trkpt lat="40.74245" lon="-74.00912"><ele>0.0</ele></trkpt><trkpt lat="40.74069" lon="-74.00959"><ele>1.0</ele></trkpt><trkpt lat="40.73924" lon="-74.01031"><ele>4.0</ele></trkpt><trkpt lat="40.72603" lon="-74.01153"><ele>12.0</ele></trkpt><trkpt lat="40.72140" lon="-74.01246"><ele>9.0</ele></trkpt><trkpt lat="40.72057" lon="-74.01285"><ele>9.0</ele></trkpt><trkpt lat="40.72001" lon="-74.01280"><ele>9.0</ele></trkpt><trkpt lat="40.71836" lon="-74.01313"><ele>9.0</ele></trkpt><trkpt lat="40.71827" lon="-74.01322"><ele>10.0</ele></trkpt><trkpt lat="40.71845" lon="-74.01423"><ele>11.0</ele></trkpt><trkpt lat="40.71842" lon="-74.01511"><ele>11.0</ele></trkpt><trkpt lat="40.71858" lon="-74.01669"><ele>11.0</ele></trkpt><trkpt lat="40.71722" lon="-74.01681"><ele>12.0</ele></trkpt><trkpt lat="40.71511" lon="-74.01737"><ele>12.0</ele></trkpt><trkpt lat="40.71415" lon="-74.01731"><ele>12.0</ele></trkpt><trkpt lat="40.71372" lon="-74.01748"><ele>12.0</ele></trkpt><trkpt lat="40.71375" lon="-74.01697"><ele>13.0</ele></trkpt><trkpt lat="40.71359" lon="-74.01638"><ele>13.0</ele></trkpt><trkpt lat="40.71289" lon="-74.01609"><ele>13.0</ele></trkpt><trkpt lat="40.71205" lon="-74.01668"><ele>13.0</ele></trkpt><trkpt lat="40.71219" lon="-74.01748"><ele>13.0</ele></trkpt><trkpt lat="40.71204" lon="-74.01787"><ele>13.0</ele></trkpt><trkpt lat="40.71130" lon="-74.01797"><ele>14.0</ele></trkpt><trkpt lat="40.71096" lon="-74.01816"><ele>14.0</ele></trkpt><trkpt lat="40.70945" lon="-74.01829"><ele>13.0</ele></trkpt><trkpt lat="40.70852" lon="-74.01869"><ele>14.0</ele></trkpt><trkpt lat="40.70806" lon="-74.01866"><ele>14.0</ele></trkpt><trkpt lat="40.70793" lon="-74.01800"><ele>13.0</ele></trkpt><trkpt lat="40.70730" lon="-74.01823"><ele>13.0</ele></trkpt><trkpt lat="40.70700" lon="-74.01789"><ele>13.0</ele></trkpt><trkpt lat="40.70658" lon="-74.01780"><ele>13.0</ele></trkpt><trkpt lat="40.70537" lon="-74.01787"><ele>11.0</ele></trkpt><trkpt lat="40.70492" lon="-74.01737"><ele>10.0</ele></trkpt><trkpt lat="40.70442" lon="-74.01721"><ele>10.0</ele></trkpt><trkpt lat="40.70484" lon="-74.01745"><ele>9.0</ele></trkpt><trkpt lat="40.70500" lon="-74.01772"><ele>9.0</ele></trkpt><trkpt lat="40.70488" lon="-74.01743"><ele>9.0</ele></trkpt><trkpt lat="40.70426" lon="-74.01716"><ele>8.0</ele></trkpt><trkpt lat="40.70406" lon="-74.01667"><ele>9.0</ele></trkpt><trkpt lat="40.70347" lon="-74.01622"><ele>9.0</ele></trkpt><trkpt lat="40.70317" lon="-74.01636"><ele>9.0</ele></trkpt><trkpt lat="40.70291" lon="-74.01703"><ele>9.0</ele></trkpt><trkpt lat="40.70194" lon="-74.01618"><ele>9.0</ele></trkpt></trkseg></trk></gpx>